{"type":"FeatureCollection","features":[{"type":"Feature","properties":{"nome":"Mata do Gomes","categoria":"Área Verde"},"geometry":{"type":"Polygon","coordinates":[[[-50.647478,-25.4699],[-50.647768,-25.471188],[-50.648674,-25.471132],[-50.648359,-25.472742],[-50.647693,-25.472741],[-50.647106,-25.474157],[-50.647329,-25.474505],[-50.646783,-25.475737],[-50.646597,-25.476152],[-50.646348,-25.475984],[-50.646199,-25.47576],[-50.64579,-25.475614],[-50.645132,-25.476231],[-50.644995,-25.476847],[-50.644387,-25.477531],[-50.644176,-25.477419],[-50.644573,-25.47669],[-50.644412,-25.476287],[-50.643394,-25.475894],[-50.643592,-25.475525],[-50.644027,-25.475637],[-50.644275,-25.473944],[-50.645243,-25.473944],[-50.646299,-25.473799],[-50.646535,-25.473485],[-50.646583,-25.473139],[-50.646585,-25.472494],[-50.645686,-25.471558],[-50.64698,-25.470758],[-50.647205,-25.469957],[-50.647478,-25.4699]]]}}]}