{"type":"FeatureCollection","features":[{"type":"Feature","id":"qg_2022_650_bairro_agreg.fid-c00e1b3_199822231c8_-2b47","geometry":{"type":"Polygon","coordinates":[[[-50.6565102,-25.487884],[-50.66248,-25.4879557],[-50.6622832,-25.4878995],[-50.6620814,-25.4878721],[-50.6617331,-25.487863],[-50.6614631,-25.4878294],[-50.6612309,-25.4877616],[-50.6609395,-25.4875018],[-50.6607143,-25.4869647],[-50.660531,-25.486563],[-50.6599621,-25.485406],[-50.6595183,-25.4846944],[-50.6589946,-25.4839807],[-50.6588687,-25.4835265],[-50.6588803,-25.4830419],[-50.6589807,-25.4827839],[-50.6593083,-25.4821243],[-50.6595056,-25.4815901],[-50.6596325,-25.481102],[-50.6596363,-25.4807334],[-50.6595972,-25.4804265],[-50.6595177,-25.4801608],[-50.6592125,-25.479221],[-50.6590634,-25.4789067],[-50.6590256,-25.4786554],[-50.6590795,-25.478428],[-50.659242,-25.4779612],[-50.6595978,-25.4769701],[-50.6596574,-25.4767316],[-50.6596438,-25.4764305],[-50.6595193,-25.4761839],[-50.6592991,-25.4759484],[-50.6589959,-25.475707],[-50.6586157,-25.4753838],[-50.6584914,-25.4751629],[-50.6583983,-25.4748245],[-50.6582762,-25.4743446],[-50.6582078,-25.4738604],[-50.6581019,-25.473351],[-50.6578373,-25.4727429],[-50.6575836,-25.4722564],[-50.6573895,-25.471868],[-50.6573454,-25.4717665],[-50.6569529,-25.4717642],[-50.655757,-25.4717264],[-50.6545848,-25.4717024],[-50.653444,-25.4716672],[-50.6522134,-25.471646],[-50.6510375,-25.4716035],[-50.6509766,-25.4726471],[-50.6507101,-25.473679],[-50.6504498,-25.474724],[-50.6500301,-25.475684],[-50.6507813,-25.4769003],[-50.6511881,-25.4776328],[-50.6512473,-25.4779378],[-50.6515483,-25.4791211],[-50.6516566,-25.4796321],[-50.6517704,-25.4799658],[-50.6517939,-25.4801606],[-50.6521026,-25.4811706],[-50.6523921,-25.4821853],[-50.6523203,-25.4826678],[-50.6522276,-25.4833241],[-50.65212,-25.4837029],[-50.652029,-25.4839135],[-50.6519279,-25.4841865],[-50.6518738,-25.4843578],[-50.6520957,-25.4844858],[-50.6527347,-25.4849395],[-50.653191,-25.4852285],[-50.6535679,-25.485417],[-50.6539602,-25.4857766],[-50.6546129,-25.4864789],[-50.6552454,-25.4871624],[-50.6564831,-25.488328],[-50.6565102,-25.487884]]]},"geometry_name":"geom","properties":{"cd_recorte":"6504110706009","quadro":"650","cd_bairro":"4110706009","nm_bairro":"Fósforo","cd_uf":"41","nm_uf":"Paraná","sigla_uf":"PR","cd_mun":"4110706","nm_mun":"Irati"},"bbox":[-50.66248,-25.488328,-50.6500301,-25.4716035]},{"type":"Feature","id":"qg_2022_650_bairro_agreg.fid-c00e1b3_199822231c8_-2b46","geometry":{"type":"Polygon","coordinates":[[[-50.6440192,-25.471559],[-50.6444467,-25.4714765],[-50.6451708,-25.4715033],[-50.645517,-25.4714644],[-50.6475299,-25.4722393],[-50.6485477,-25.4726311],[-50.6493351,-25.4726505],[-50.6500261,-25.4726659],[-50.6509766,-25.4726471],[-50.6510375,-25.4716035],[-50.6522134,-25.471646],[-50.653444,-25.4716672],[-50.6545848,-25.4717024],[-50.655757,-25.4717264],[-50.6569529,-25.4717642],[-50.6573454,-25.4717665],[-50.657015,-25.4714467],[-50.6566841,-25.4712459],[-50.6563644,-25.4710101],[-50.6562524,-25.4708753],[-50.6561596,-25.4706194],[-50.6561754,-25.4703881],[-50.6562551,-25.4699787],[-50.6564906,-25.4697261],[-50.657134,-25.469294],[-50.6575177,-25.4689611],[-50.6577428,-25.4684388],[-50.6579667,-25.4675419],[-50.6580344,-25.4673482],[-50.6583135,-25.4674266],[-50.6585474,-25.4667865],[-50.6586271,-25.4661036],[-50.6586892,-25.4654623],[-50.658694,-25.464823],[-50.6588716,-25.4637742],[-50.6589228,-25.4635532],[-50.658737,-25.4633846],[-50.6585598,-25.463186],[-50.6582008,-25.4627471],[-50.6578654,-25.4623643],[-50.6577269,-25.4622632],[-50.6572718,-25.4620312],[-50.6569041,-25.4617139],[-50.656594,-25.461638],[-50.6565891,-25.4608519],[-50.6556596,-25.4607883],[-50.6547705,-25.4607146],[-50.6541749,-25.4606683],[-50.6541194,-25.4611312],[-50.6538046,-25.4609306],[-50.653311,-25.460636],[-50.6526691,-25.4600132],[-50.6520987,-25.459455],[-50.6519473,-25.4593932],[-50.6515676,-25.4595231],[-50.651472,-25.4595913],[-50.6513045,-25.4597451],[-50.6511833,-25.4598355],[-50.6510267,-25.4598543],[-50.6497267,-25.4596865],[-50.6492783,-25.4596307],[-50.6488875,-25.4594944],[-50.6485776,-25.4593712],[-50.647611,-25.4592091],[-50.6469608,-25.4589822],[-50.6467696,-25.458953],[-50.6465526,-25.4590606],[-50.646413,-25.4591796],[-50.6461472,-25.4589693],[-50.6457975,-25.4585428],[-50.6453681,-25.4584139],[-50.6450273,-25.4583941],[-50.6450114,-25.4599994],[-50.6450433,-25.4610287],[-50.6450747,-25.4615426],[-50.6451936,-25.4619109],[-50.6452477,-25.4619808],[-50.6450868,-25.4622769],[-50.6447932,-25.462482],[-50.6444816,-25.4626822],[-50.6442491,-25.4626975],[-50.6440788,-25.462617],[-50.6439256,-25.4626155],[-50.6437284,-25.462551],[-50.6435737,-25.4625243],[-50.643451,-25.4625304],[-50.6433412,-25.4625048],[-50.643069,-25.4624718],[-50.6428947,-25.4624085],[-50.642662,-25.4623899],[-50.642452,-25.4623495],[-50.6423149,-25.4623472],[-50.6421333,-25.4622573],[-50.6419722,-25.4620777],[-50.6417597,-25.4617366],[-50.6415269,-25.4613671],[-50.6413238,-25.4610006],[-50.6410962,-25.4607844],[-50.6394469,-25.4614622],[-50.6396898,-25.4617907],[-50.6398881,-25.4620972],[-50.6399639,-25.4623398],[-50.6399202,-25.4626729],[-50.6398204,-25.463257],[-50.6398594,-25.4635094],[-50.6399768,-25.4638003],[-50.640154,-25.4640165],[-50.6405719,-25.4642154],[-50.641422,-25.4644366],[-50.642777,-25.4647822],[-50.644233,-25.4651066],[-50.6446678,-25.4651245],[-50.6448405,-25.4650168],[-50.6449622,-25.4651412],[-50.6447651,-25.465249],[-50.6442251,-25.465229],[-50.643805,-25.465134],[-50.6437049,-25.465839],[-50.6436246,-25.4663783],[-50.6434992,-25.4672849],[-50.643317,-25.4686202],[-50.6433116,-25.4686553],[-50.6432452,-25.469089],[-50.6431951,-25.469419],[-50.6430652,-25.470419],[-50.643095,-25.470749],[-50.6432851,-25.471214],[-50.643675,-25.471824],[-50.6440192,-25.471559]]]},"geometry_name":"geom","properties":{"cd_recorte":"6504110706005","quadro":"650","cd_bairro":"4110706005","nm_bairro":"Centro","cd_uf":"41","nm_uf":"Paraná","sigla_uf":"PR","cd_mun":"4110706","nm_mun":"Irati"},"bbox":[-50.6589228,-25.4726659,-50.6394469,-25.4583941]},{"type":"Feature","id":"qg_2022_650_bairro_agreg.fid-c00e1b3_199822231c8_-2b45","geometry":{"type":"Polygon","coordinates":[[[-50.6641455,-25.5407585],[-50.663495,-25.5405847],[-50.6633942,-25.5400387],[-50.6633975,-25.5399396],[-50.6633807,-25.5397162],[-50.6631657,-25.5386428],[-50.6629188,-25.5383765],[-50.6628793,-25.5383043],[-50.6626273,-25.5379666],[-50.6624868,-25.5372319],[-50.6626263,-25.5370824],[-50.6627153,-25.5370387],[-50.6628514,-25.5369094],[-50.6629421,-25.5367783],[-50.6629051,-25.5363181],[-50.6629706,-25.5362173],[-50.6630866,-25.5361417],[-50.6638425,-25.5359401],[-50.6639445,-25.5358632],[-50.6641102,-25.5349038],[-50.6641908,-25.5339967],[-50.6637511,-25.5333831],[-50.6632598,-25.5323021],[-50.6628925,-25.5316949],[-50.6618437,-25.5304495],[-50.6613888,-25.529754],[-50.6660063,-25.5262566],[-50.6670042,-25.5258131],[-50.6677904,-25.5266396],[-50.6686471,-25.5265186],[-50.6690099,-25.5248556],[-50.6697659,-25.524906],[-50.6705218,-25.5252587],[-50.6715486,-25.5253268],[-50.6715599,-25.5250912],[-50.6715322,-25.5249967],[-50.6715184,-25.5248505],[-50.671536,-25.5245091],[-50.6715801,-25.5242634],[-50.6715751,-25.524134],[-50.6713762,-25.5235495],[-50.6713913,-25.5234286],[-50.6715777,-25.5227533],[-50.67339,-25.522492],[-50.6736084,-25.5217611],[-50.6736579,-25.5161316],[-50.6727528,-25.5155849],[-50.6719814,-25.5142533],[-50.6714745,-25.5137033],[-50.671103,-25.5130402],[-50.6705971,-25.512809],[-50.6702557,-25.512597],[-50.6700838,-25.5122033],[-50.6697957,-25.5115698],[-50.6694992,-25.5116807],[-50.6692825,-25.5116197],[-50.6690136,-25.5114375],[-50.6687587,-25.5113581],[-50.6685501,-25.5112599],[-50.668326,-25.5111805],[-50.668056,-25.5111387],[-50.6676712,-25.510958],[-50.667534,-25.5109],[-50.6674429,-25.510734],[-50.6672611,-25.510767],[-50.667134,-25.510634],[-50.6669692,-25.510659],[-50.666778,-25.510476],[-50.6666599,-25.510261],[-50.6664511,-25.510277],[-50.666305,-25.510202],[-50.6660599,-25.5100911],[-50.6659392,-25.5104997],[-50.665688,-25.5109517],[-50.6651077,-25.5115096],[-50.665022,-25.5115027],[-50.6641533,-25.5114331],[-50.6619653,-25.5112579],[-50.6618413,-25.5112396],[-50.6616901,-25.511259],[-50.6605281,-25.5111167],[-50.659539,-25.5110781],[-50.6582764,-25.5110469],[-50.653091,-25.5109189],[-50.6530255,-25.5107419],[-50.6518949,-25.511044],[-50.6508851,-25.511739],[-50.65033,-25.5124358],[-50.6487781,-25.5131655],[-50.6477392,-25.5137565],[-50.647063,-25.5137745],[-50.6463895,-25.5134644],[-50.6456333,-25.5133782],[-50.6441913,-25.5134637],[-50.6445652,-25.5138377],[-50.6447851,-25.5144687],[-50.6449715,-25.51531],[-50.6451513,-25.5158728],[-50.6454189,-25.5172841],[-50.6458038,-25.5189812],[-50.646093,-25.5193083],[-50.6466424,-25.5198578],[-50.647338,-25.5203454],[-50.6477372,-25.52095],[-50.648064,-25.5214804],[-50.6483096,-25.5221887],[-50.6487317,-25.5237184],[-50.6488056,-25.5245262],[-50.6490339,-25.5256375],[-50.6491091,-25.5264025],[-50.6491135,-25.5266206],[-50.6492516,-25.5267193],[-50.650321,-25.5272387],[-50.6512113,-25.5274302],[-50.6518952,-25.5276475],[-50.6524831,-25.5271559],[-50.6528735,-25.5269964],[-50.6530595,-25.5270877],[-50.6532455,-25.5271477],[-50.6532099,-25.5274949],[-50.653145,-25.5281945],[-50.6530303,-25.5286767],[-50.6527328,-25.5291632],[-50.6525132,-25.5293321],[-50.6519623,-25.5293521],[-50.6518065,-25.5294737],[-50.6518227,-25.529627],[-50.6521031,-25.5297793],[-50.6524668,-25.5299901],[-50.6527117,-25.5303435],[-50.6529654,-25.5304063],[-50.6531524,-25.5303156],[-50.6533182,-25.5301745],[-50.6535161,-25.5301822],[-50.6538878,-25.530086],[-50.654333,-25.5301936],[-50.6545708,-25.530224],[-50.6548531,-25.5302817],[-50.6550112,-25.5303538],[-50.6553601,-25.5304277],[-50.6554443,-25.53046],[-50.655895,-25.5306015],[-50.6562009,-25.5307124],[-50.6565705,-25.5307967],[-50.6566929,-25.5310589],[-50.6565801,-25.5315857],[-50.656422,-25.5318577],[-50.6555753,-25.5325227],[-50.6555192,-25.5326299],[-50.6556717,-25.5328854],[-50.6558906,-25.5331933],[-50.6560918,-25.5336617],[-50.6564195,-25.5343294],[-50.6569947,-25.5349188],[-50.6573129,-25.5354063],[-50.6575098,-25.5358559],[-50.6576732,-25.5361275],[-50.6577843,-25.5365087],[-50.6576456,-25.5368893],[-50.657352,-25.5371562],[-50.6569077,-25.5370743],[-50.6571428,-25.5375301],[-50.6574946,-25.5378622],[-50.658993,-25.5387996],[-50.6616997,-25.5404632],[-50.6629824,-25.5412859],[-50.6639871,-25.5418368],[-50.6641083,-25.5419625],[-50.6641637,-25.5419033],[-50.6641677,-25.5418197],[-50.6639775,-25.5414237],[-50.6639439,-25.541249],[-50.6641455,-25.5407585]]]},"geometry_name":"geom","properties":{"cd_recorte":"6504110706008","quadro":"650","cd_bairro":"4110706008","nm_bairro":"Engenheiro Gutierrez","cd_uf":"41","nm_uf":"Paraná","sigla_uf":"PR","cd_mun":"4110706","nm_mun":"Irati"},"bbox":[-50.6736579,-25.5419625,-50.6441913,-25.5100911]},{"type":"Feature","id":"qg_2022_650_bairro_agreg.fid-c00e1b3_199822231c8_-2b44","geometry":{"type":"Polygon","coordinates":[[[-50.6619653,-25.5112579],[-50.6641533,-25.5114331],[-50.665022,-25.5115027],[-50.6651077,-25.5115096],[-50.665688,-25.5109517],[-50.6659392,-25.5104997],[-50.6660599,-25.5100911],[-50.666305,-25.510202],[-50.6664511,-25.510277],[-50.6666599,-25.510261],[-50.666778,-25.510476],[-50.6669692,-25.510659],[-50.667134,-25.510634],[-50.6672611,-25.510767],[-50.6674429,-25.510734],[-50.667534,-25.5109],[-50.6676712,-25.510958],[-50.668056,-25.5111387],[-50.668326,-25.5111805],[-50.6685501,-25.5112599],[-50.6687587,-25.5113581],[-50.6690136,-25.5114375],[-50.6692825,-25.5116197],[-50.6694992,-25.5116807],[-50.6697957,-25.5115698],[-50.6700838,-25.5122033],[-50.6702557,-25.512597],[-50.6705971,-25.512809],[-50.671103,-25.5130402],[-50.6714745,-25.5137033],[-50.6719814,-25.5142533],[-50.6727528,-25.5155849],[-50.6736579,-25.5161316],[-50.6749025,-25.5144434],[-50.6759136,-25.5133702],[-50.676507,-25.5123899],[-50.6758908,-25.5113582],[-50.6753785,-25.5103906],[-50.6750546,-25.5100259],[-50.6742684,-25.5093852],[-50.6760622,-25.5077015],[-50.6752954,-25.5056727],[-50.6739849,-25.5053421],[-50.6721757,-25.5057112],[-50.6700522,-25.501177],[-50.669535,-25.5003067],[-50.6700408,-25.4996368],[-50.6705098,-25.4989742],[-50.671157,-25.4992684],[-50.6723005,-25.4997431],[-50.6731694,-25.5001724],[-50.6739196,-25.5005446],[-50.6749099,-25.5008814],[-50.6751129,-25.4985747],[-50.6747085,-25.4986149],[-50.6743182,-25.4983354],[-50.6737739,-25.4978371],[-50.673353,-25.4975235],[-50.6730746,-25.4972279],[-50.6731511,-25.4967165],[-50.6732229,-25.4964945],[-50.6731165,-25.4959948],[-50.6729599,-25.495726],[-50.6727218,-25.4956173],[-50.672605,-25.495564],[-50.672489,-25.495536],[-50.6723,-25.495513],[-50.6722331,-25.495424],[-50.672227,-25.495263],[-50.6720498,-25.495285],[-50.6719951,-25.495307],[-50.671903,-25.495213],[-50.671836,-25.495251],[-50.6718112,-25.49534],[-50.6717129,-25.495345],[-50.6716402,-25.495256],[-50.6716524,-25.4950694],[-50.6714569,-25.495073],[-50.671408,-25.494956],[-50.6712932,-25.4949255],[-50.6712128,-25.49485],[-50.671152,-25.494778],[-50.6710612,-25.4946711],[-50.6708348,-25.494456],[-50.6705555,-25.4942233],[-50.6701551,-25.4937039],[-50.6696922,-25.4934894],[-50.6693347,-25.4932932],[-50.6690308,-25.4933502],[-50.668844,-25.493164],[-50.6688216,-25.493087],[-50.6686309,-25.4929439],[-50.6683695,-25.4927073],[-50.6681292,-25.4925907],[-50.6677606,-25.492329],[-50.667726,-25.4918967],[-50.6674711,-25.4916183],[-50.6672347,-25.4914552],[-50.6670503,-25.4914819],[-50.6669381,-25.491332],[-50.6668284,-25.4911673],[-50.6665522,-25.4909815],[-50.6663212,-25.49088],[-50.6662839,-25.4907565],[-50.6661042,-25.4905759],[-50.6658823,-25.4905447],[-50.6655911,-25.4903815],[-50.6653161,-25.4901467],[-50.6651027,-25.4900748],[-50.6648441,-25.4897738],[-50.6645029,-25.4897003],[-50.6642468,-25.4897223],[-50.6640083,-25.4899204],[-50.663753,-25.490124],[-50.6633982,-25.4899251],[-50.6633161,-25.4900342],[-50.6632372,-25.4900805],[-50.6630419,-25.4900902],[-50.6628678,-25.4900795],[-50.6627421,-25.4900298],[-50.6627737,-25.4898597],[-50.662961,-25.4893141],[-50.6630647,-25.4888879],[-50.6630624,-25.4886354],[-50.6629835,-25.4884039],[-50.6627639,-25.4881427],[-50.66248,-25.4879557],[-50.6565102,-25.487884],[-50.6564831,-25.488328],[-50.6564651,-25.488753],[-50.656396,-25.490761],[-50.656352,-25.491664],[-50.6563162,-25.4928757],[-50.656315,-25.492916],[-50.656297,-25.493667],[-50.6562821,-25.4950992],[-50.6562584,-25.4957264],[-50.6560188,-25.4968219],[-50.6566086,-25.4970008],[-50.6564498,-25.4974591],[-50.656388,-25.4979049],[-50.6565591,-25.4980306],[-50.6573337,-25.497786],[-50.6576564,-25.497606],[-50.6585889,-25.4970668],[-50.6590682,-25.4968333],[-50.6595545,-25.4967625],[-50.6599906,-25.4967463],[-50.6603744,-25.4967477],[-50.6604342,-25.4972083],[-50.6603818,-25.4979922],[-50.6603655,-25.4984369],[-50.6605103,-25.4991204],[-50.6605716,-25.4996447],[-50.6605205,-25.5012177],[-50.6604695,-25.5026846],[-50.6604512,-25.503264],[-50.6604757,-25.5038394],[-50.6607932,-25.5049508],[-50.6611826,-25.506216],[-50.6611077,-25.5067465],[-50.661037,-25.5072035],[-50.6609626,-25.5074318],[-50.6608479,-25.5086755],[-50.660687,-25.5099364],[-50.6598647,-25.5098858],[-50.6597726,-25.510446],[-50.659539,-25.5110781],[-50.6605281,-25.5111167],[-50.6616901,-25.511259],[-50.6618413,-25.5112396],[-50.6619653,-25.5112579]]]},"geometry_name":"geom","properties":{"cd_recorte":"6504110706013","quadro":"650","cd_bairro":"4110706013","nm_bairro":"Lagoa","cd_uf":"41","nm_uf":"Paraná","sigla_uf":"PR","cd_mun":"4110706","nm_mun":"Irati"},"bbox":[-50.676507,-25.5161316,-50.6560188,-25.487884]},{"type":"Feature","id":"qg_2022_650_bairro_agreg.fid-c00e1b3_199822231c8_-2b43","geometry":{"type":"Polygon","coordinates":[[[-50.6250604,-25.4555013],[-50.6245949,-25.4563759],[-50.6241937,-25.4569919],[-50.6238309,-25.4575433],[-50.6236539,-25.4580633],[-50.6235553,-25.4586176],[-50.623702,-25.4592378],[-50.6239692,-25.4599458],[-50.624221,-25.460375],[-50.6247569,-25.4603035],[-50.6250529,-25.460264],[-50.6255444,-25.4601663],[-50.6262635,-25.4601214],[-50.6265526,-25.4599103],[-50.6266931,-25.459619],[-50.627092,-25.459537],[-50.6273537,-25.4595613],[-50.6276487,-25.4599633],[-50.6280922,-25.4597886],[-50.628433,-25.4596598],[-50.6289163,-25.4595567],[-50.6292101,-25.459423],[-50.6293755,-25.4592364],[-50.6295729,-25.4588206],[-50.6297736,-25.4585558],[-50.6299553,-25.4583509],[-50.6303212,-25.458413],[-50.6305469,-25.4585746],[-50.6307357,-25.4587482],[-50.6311173,-25.45885],[-50.6317211,-25.458594],[-50.6321862,-25.4584912],[-50.6326935,-25.4583472],[-50.6335406,-25.4580493],[-50.6349619,-25.4576474],[-50.63654,-25.4572688],[-50.6369942,-25.4571372],[-50.6374286,-25.4570139],[-50.6384524,-25.4569238],[-50.6386819,-25.4569612],[-50.6387256,-25.4568508],[-50.6387749,-25.4567657],[-50.6387148,-25.4566015],[-50.6387909,-25.4562872],[-50.6388012,-25.4561139],[-50.6389199,-25.4560285],[-50.6389704,-25.455967],[-50.6391271,-25.4559767],[-50.639522,-25.456045],[-50.6398646,-25.4560632],[-50.640165,-25.4560063],[-50.640442,-25.4560051],[-50.6406056,-25.4560169],[-50.6406499,-25.4559113],[-50.6407201,-25.45589],[-50.6409717,-25.4560221],[-50.6412412,-25.4560177],[-50.6413521,-25.4561368],[-50.6415497,-25.4561634],[-50.641717,-25.456126],[-50.6417496,-25.4558077],[-50.6419123,-25.4554988],[-50.6421663,-25.4554064],[-50.6425511,-25.455313],[-50.6429708,-25.4552271],[-50.6432819,-25.455307],[-50.6433398,-25.455496],[-50.6435802,-25.4555681],[-50.6439417,-25.4556794],[-50.644494,-25.455846],[-50.6447528,-25.455636],[-50.6450704,-25.4555802],[-50.6453347,-25.4556004],[-50.645675,-25.4555869],[-50.646141,-25.455662],[-50.6466393,-25.4558031],[-50.6468838,-25.4556092],[-50.647256,-25.4556486],[-50.6477983,-25.455623],[-50.6485306,-25.4557749],[-50.6487929,-25.4557942],[-50.6491009,-25.455578],[-50.6492477,-25.4555251],[-50.6496505,-25.4555074],[-50.6499063,-25.4552894],[-50.650141,-25.455271],[-50.650234,-25.4551345],[-50.6504289,-25.4549691],[-50.6504911,-25.4546814],[-50.6503427,-25.4546058],[-50.6503175,-25.4544479],[-50.6503605,-25.4543061],[-50.6505288,-25.4540268],[-50.6507277,-25.453344],[-50.6499577,-25.4535521],[-50.6496333,-25.4536064],[-50.6489547,-25.4536377],[-50.6482787,-25.4535412],[-50.6472908,-25.4532104],[-50.6453755,-25.4525477],[-50.6441738,-25.4520222],[-50.6431558,-25.4513434],[-50.6428784,-25.4511212],[-50.641888,-25.4502342],[-50.6409229,-25.4494437],[-50.6405658,-25.4491837],[-50.6402336,-25.4489433],[-50.6399539,-25.4488177],[-50.6396954,-25.4487746],[-50.6394551,-25.4487757],[-50.6389506,-25.4488408],[-50.6384692,-25.4490312],[-50.6374015,-25.4495579],[-50.6361051,-25.4501777],[-50.6335027,-25.4518374],[-50.6325324,-25.4524408],[-50.6321956,-25.4526822],[-50.6315341,-25.4531131],[-50.6313661,-25.4532225],[-50.6300309,-25.4540804],[-50.6289481,-25.4547911],[-50.6278686,-25.4554588],[-50.6274496,-25.4556071],[-50.6267746,-25.4557144],[-50.6262686,-25.4557262],[-50.6250604,-25.4555013]]]},"geometry_name":"geom","properties":{"cd_recorte":"6504110706018","quadro":"650","cd_bairro":"4110706018","nm_bairro":"Vila Nova","cd_uf":"41","nm_uf":"Paraná","sigla_uf":"PR","cd_mun":"4110706","nm_mun":"Irati"},"bbox":[-50.6507277,-25.460375,-50.6235553,-25.4487746]},{"type":"Feature","id":"qg_2022_650_bairro_agreg.fid-c00e1b3_199822231c8_-2b42","geometry":{"type":"Polygon","coordinates":[[[-50.6398349,-25.477274],[-50.6403202,-25.479209],[-50.64043,-25.47964],[-50.6407252,-25.480805],[-50.6410949,-25.482209],[-50.641362,-25.4822269],[-50.6430067,-25.4819436],[-50.6446691,-25.4811932],[-50.6464476,-25.4797538],[-50.6467552,-25.479284],[-50.6472001,-25.478669],[-50.6474899,-25.478269],[-50.6477099,-25.478149],[-50.6480602,-25.478049],[-50.6487015,-25.4776921],[-50.6490649,-25.477419],[-50.6493749,-25.477144],[-50.6500301,-25.475684],[-50.6504498,-25.474724],[-50.6507101,-25.473679],[-50.6509766,-25.4726471],[-50.6500261,-25.4726659],[-50.6493351,-25.4726505],[-50.6485477,-25.4726311],[-50.6475299,-25.4722393],[-50.645517,-25.4714644],[-50.6451708,-25.4715033],[-50.6444467,-25.4714765],[-50.6440192,-25.471559],[-50.643675,-25.471824],[-50.64187,-25.473424],[-50.64134,-25.473969],[-50.6406352,-25.474839],[-50.6404699,-25.475164],[-50.6403788,-25.475364],[-50.6401402,-25.476314],[-50.6401118,-25.4764183],[-50.6399198,-25.477124],[-50.6398349,-25.477274]]]},"geometry_name":"geom","properties":{"cd_recorte":"6504110706011","quadro":"650","cd_bairro":"4110706011","nm_bairro":"Jardim Califórnia","cd_uf":"41","nm_uf":"Paraná","sigla_uf":"PR","cd_mun":"4110706","nm_mun":"Irati"},"bbox":[-50.6509766,-25.4822269,-50.6398349,-25.4714644]},{"type":"Feature","id":"qg_2022_650_bairro_agreg.fid-c00e1b3_199822231c8_-2b41","geometry":{"type":"Polygon","coordinates":[[[-50.6629494,-25.4613948],[-50.662593,-25.461533],[-50.6623601,-25.461782],[-50.662152,-25.46182],[-50.6618998,-25.4618185],[-50.6612599,-25.461663],[-50.6605863,-25.4620562],[-50.6603419,-25.4623074],[-50.6602655,-25.4625057],[-50.6602231,-25.4627],[-50.6601795,-25.4628258],[-50.6601419,-25.4629611],[-50.6600439,-25.4631938],[-50.6599634,-25.4633648],[-50.6598252,-25.4634818],[-50.6595673,-25.463599],[-50.6592248,-25.463585],[-50.6589228,-25.4635532],[-50.6588716,-25.4637742],[-50.658694,-25.464823],[-50.6586892,-25.4654623],[-50.6586271,-25.4661036],[-50.6585474,-25.4667865],[-50.6583135,-25.4674266],[-50.6584104,-25.4674854],[-50.6594304,-25.4679003],[-50.6602331,-25.4681799],[-50.6605356,-25.4682739],[-50.6609054,-25.468278],[-50.661086,-25.468234],[-50.661365,-25.468159],[-50.6614174,-25.4681402],[-50.66163,-25.468064],[-50.6624,-25.467764],[-50.6626411,-25.4676737],[-50.6629249,-25.467574],[-50.6639804,-25.4673349],[-50.6664309,-25.4668256],[-50.6667222,-25.4667712],[-50.66703,-25.466714],[-50.6687749,-25.466369],[-50.669356,-25.466245],[-50.6694899,-25.466189],[-50.6702902,-25.465714],[-50.6705648,-25.465529],[-50.67238,-25.464299],[-50.6731799,-25.463769],[-50.6733271,-25.463671],[-50.673965,-25.463249],[-50.6748949,-25.462679],[-50.67567,-25.462439],[-50.6763749,-25.462334],[-50.67666,-25.462291],[-50.6773148,-25.462238],[-50.6782462,-25.462235],[-50.6798814,-25.4625524],[-50.681063,-25.4625613],[-50.6804467,-25.4616179],[-50.6804078,-25.460996],[-50.6777056,-25.4610414],[-50.6767173,-25.4612352],[-50.6753607,-25.4610608],[-50.6741592,-25.4604988],[-50.6732435,-25.4584736],[-50.6723715,-25.4548691],[-50.6735493,-25.4534747],[-50.6733711,-25.4535081],[-50.6692951,-25.4535485],[-50.6684352,-25.4538641],[-50.6673256,-25.4536132],[-50.6659854,-25.4534223],[-50.6643401,-25.4547055],[-50.6657286,-25.4561206],[-50.6662051,-25.4565008],[-50.6640505,-25.4575129],[-50.6635834,-25.4583331],[-50.6629494,-25.4613948]]]},"geometry_name":"geom","properties":{"cd_recorte":"6504110706007","quadro":"650","cd_bairro":"4110706007","nm_bairro":"Der","cd_uf":"41","nm_uf":"Paraná","sigla_uf":"PR","cd_mun":"4110706","nm_mun":"Irati"},"bbox":[-50.681063,-25.468278,-50.6583135,-25.4534223]},{"type":"Feature","id":"qg_2022_650_bairro_agreg.fid-c00e1b3_199822231c8_-2b40","geometry":{"type":"Polygon","coordinates":[[[-50.6237429,-25.461725],[-50.6237512,-25.461898],[-50.6237618,-25.4620327],[-50.6237751,-25.4621437],[-50.6237907,-25.4622555],[-50.6239099,-25.4623536],[-50.6239575,-25.4624719],[-50.6239874,-25.4627329],[-50.6240846,-25.4630782],[-50.6241083,-25.4633278],[-50.6240941,-25.4636176],[-50.6249053,-25.4637796],[-50.625715,-25.463879],[-50.6260598,-25.463949],[-50.627695,-25.464314],[-50.6285216,-25.4643556],[-50.6287954,-25.4643523],[-50.6291927,-25.4643427],[-50.6293984,-25.4643362],[-50.6295561,-25.4643299],[-50.6298802,-25.464319],[-50.6314451,-25.464299],[-50.632375,-25.464289],[-50.6328901,-25.464329],[-50.63341,-25.464424],[-50.633995,-25.464519],[-50.6347402,-25.464654],[-50.6348701,-25.464674],[-50.63539,-25.464769],[-50.63544,-25.464824],[-50.6364098,-25.464984],[-50.6383549,-25.465369],[-50.6389645,-25.4654791],[-50.6398612,-25.4656575],[-50.6406405,-25.4658134],[-50.6417046,-25.4660164],[-50.6436246,-25.4663783],[-50.6437049,-25.465839],[-50.643805,-25.465134],[-50.6442251,-25.465229],[-50.6447651,-25.465249],[-50.6449622,-25.4651412],[-50.6448405,-25.4650168],[-50.6446678,-25.4651245],[-50.644233,-25.4651066],[-50.642777,-25.4647822],[-50.641422,-25.4644366],[-50.6405719,-25.4642154],[-50.640154,-25.4640165],[-50.6399768,-25.4638003],[-50.6398594,-25.4635094],[-50.6398204,-25.463257],[-50.6399202,-25.4626729],[-50.6399639,-25.4623398],[-50.6398881,-25.4620972],[-50.6396898,-25.4617907],[-50.6394469,-25.4614622],[-50.6410962,-25.4607844],[-50.6407163,-25.4604218],[-50.6405531,-25.4601252],[-50.6405391,-25.4598491],[-50.6404451,-25.459405],[-50.6403598,-25.458878],[-50.6402609,-25.4583199],[-50.6401593,-25.4578999],[-50.6400051,-25.4576247],[-50.6398331,-25.4574603],[-50.6394972,-25.457197],[-50.6391544,-25.4571039],[-50.6388669,-25.457017],[-50.6386819,-25.4569612],[-50.6384524,-25.4569238],[-50.6374286,-25.4570139],[-50.6369942,-25.4571372],[-50.63654,-25.4572688],[-50.6349619,-25.4576474],[-50.6335406,-25.4580493],[-50.6326935,-25.4583472],[-50.6321862,-25.4584912],[-50.6317211,-25.458594],[-50.6311173,-25.45885],[-50.6307357,-25.4587482],[-50.6305469,-25.4585746],[-50.6303212,-25.458413],[-50.6299553,-25.4583509],[-50.6297736,-25.4585558],[-50.6295729,-25.4588206],[-50.6293755,-25.4592364],[-50.6292101,-25.459423],[-50.6289163,-25.4595567],[-50.628433,-25.4596598],[-50.6280922,-25.4597886],[-50.6276487,-25.4599633],[-50.6273537,-25.4595613],[-50.627092,-25.459537],[-50.6266931,-25.459619],[-50.6265526,-25.4599103],[-50.6262635,-25.4601214],[-50.6255444,-25.4601663],[-50.6250529,-25.460264],[-50.6247569,-25.4603035],[-50.624221,-25.460375],[-50.624046,-25.460556],[-50.6238458,-25.460631],[-50.6238289,-25.460865],[-50.6240449,-25.460933],[-50.624294,-25.460987],[-50.624419,-25.461062],[-50.6242771,-25.46119],[-50.62406,-25.461333],[-50.6240021,-25.461476],[-50.6238689,-25.461521],[-50.6238181,-25.461604],[-50.6237429,-25.461725]]]},"geometry_name":"geom","properties":{"cd_recorte":"6504110706004","quadro":"650","cd_bairro":"4110706004","nm_bairro":"Canisianas","cd_uf":"41","nm_uf":"Paraná","sigla_uf":"PR","cd_mun":"4110706","nm_mun":"Irati"},"bbox":[-50.6449622,-25.4663783,-50.6237429,-25.4569238]},{"type":"Feature","id":"qg_2022_650_bairro_agreg.fid-c00e1b3_199822231c8_-2b3f","geometry":{"type":"Polygon","coordinates":[[[-50.6361449,-25.471564],[-50.637155,-25.472223],[-50.6378048,-25.472589],[-50.6381051,-25.472904],[-50.6385101,-25.473484],[-50.6390198,-25.474429],[-50.6395339,-25.476119],[-50.6398349,-25.477274],[-50.6399198,-25.477124],[-50.6401118,-25.4764183],[-50.6401402,-25.476314],[-50.6403788,-25.475364],[-50.6404699,-25.475164],[-50.6406352,-25.474839],[-50.64134,-25.473969],[-50.64187,-25.473424],[-50.643675,-25.471824],[-50.6432851,-25.471214],[-50.643095,-25.470749],[-50.6430652,-25.470419],[-50.6431951,-25.469419],[-50.6432452,-25.469089],[-50.6433116,-25.4686553],[-50.643317,-25.4686202],[-50.6434992,-25.4672849],[-50.6436246,-25.4663783],[-50.6417046,-25.4660164],[-50.6406405,-25.4658134],[-50.6398612,-25.4656575],[-50.6389645,-25.4654791],[-50.6383549,-25.465369],[-50.6364098,-25.464984],[-50.63544,-25.464824],[-50.63539,-25.464769],[-50.6348701,-25.464674],[-50.6347402,-25.464654],[-50.633995,-25.464519],[-50.63341,-25.464424],[-50.6328901,-25.464329],[-50.632375,-25.464289],[-50.6314451,-25.464299],[-50.6298802,-25.464319],[-50.6295561,-25.4643299],[-50.6293984,-25.4643362],[-50.629406,-25.4644773],[-50.6294201,-25.464734],[-50.6294651,-25.465109],[-50.629635,-25.465574],[-50.6299,-25.465994],[-50.630445,-25.466804],[-50.6307848,-25.467249],[-50.631125,-25.467553],[-50.6314481,-25.4677489],[-50.632375,-25.468374],[-50.6332199,-25.468979],[-50.6340349,-25.469704],[-50.6342549,-25.469909],[-50.6347801,-25.470369],[-50.6354101,-25.470924],[-50.6361449,-25.471564]]]},"geometry_name":"geom","properties":{"cd_recorte":"6504110706001","quadro":"650","cd_bairro":"4110706001","nm_bairro":"Alto da Glória","cd_uf":"41","nm_uf":"Paraná","sigla_uf":"PR","cd_mun":"4110706","nm_mun":"Irati"},"bbox":[-50.643675,-25.477274,-50.6293984,-25.464289]},{"type":"Feature","id":"qg_2022_650_bairro_agreg.fid-c00e1b3_199822231c8_-2b3e","geometry":{"type":"Polygon","coordinates":[[[-50.6410949,-25.482209],[-50.64134,-25.483174],[-50.6417551,-25.484809],[-50.6419499,-25.485474],[-50.642275,-25.485934],[-50.6428949,-25.486419],[-50.643355,-25.486749],[-50.643535,-25.486874],[-50.6440649,-25.487244],[-50.6448,-25.487938],[-50.6451301,-25.488679],[-50.6451949,-25.488854],[-50.645344,-25.489254],[-50.6456752,-25.490158],[-50.6459002,-25.490834],[-50.6460788,-25.4913443],[-50.6465693,-25.4910906],[-50.6468581,-25.4908359],[-50.647235,-25.490624],[-50.64763,-25.489489],[-50.6478949,-25.488924],[-50.64854,-25.488284],[-50.64889,-25.487869],[-50.648935,-25.487759],[-50.6490451,-25.487389],[-50.6491999,-25.486514],[-50.6492849,-25.486299],[-50.6494501,-25.486144],[-50.64988,-25.485904],[-50.6501387,-25.485754],[-50.6509443,-25.4852862],[-50.6514493,-25.4849836],[-50.6516031,-25.4847682],[-50.6517052,-25.484596],[-50.6518738,-25.4843578],[-50.6519279,-25.4841865],[-50.652029,-25.4839135],[-50.65212,-25.4837029],[-50.6522276,-25.4833241],[-50.6523203,-25.4826678],[-50.6523921,-25.4821853],[-50.6521026,-25.4811706],[-50.6517939,-25.4801606],[-50.6517704,-25.4799658],[-50.6516566,-25.4796321],[-50.6515483,-25.4791211],[-50.6512473,-25.4779378],[-50.6511881,-25.4776328],[-50.6507813,-25.4769003],[-50.6500301,-25.475684],[-50.6493749,-25.477144],[-50.6490649,-25.477419],[-50.6487015,-25.4776921],[-50.6480602,-25.478049],[-50.6477099,-25.478149],[-50.6474899,-25.478269],[-50.6472001,-25.478669],[-50.6467552,-25.479284],[-50.6464476,-25.4797538],[-50.6446691,-25.4811932],[-50.6430067,-25.4819436],[-50.641362,-25.4822269],[-50.6410949,-25.482209]]]},"geometry_name":"geom","properties":{"cd_recorte":"6504110706017","quadro":"650","cd_bairro":"4110706017","nm_bairro":"Stroparo","cd_uf":"41","nm_uf":"Paraná","sigla_uf":"PR","cd_mun":"4110706","nm_mun":"Irati"},"bbox":[-50.6523921,-25.4913443,-50.6410949,-25.475684]},{"type":"Feature","id":"qg_2022_650_bairro_agreg.fid-c00e1b3_199822231c8_-2b3d","geometry":{"type":"Polygon","coordinates":[[[-50.614846,-25.4730388],[-50.6200256,-25.478347],[-50.6200508,-25.4783728],[-50.6200638,-25.4783973],[-50.628313,-25.4939597],[-50.6286477,-25.4936945],[-50.6304706,-25.491044],[-50.6311821,-25.4900094],[-50.6325658,-25.4880579],[-50.6331215,-25.4870932],[-50.6339428,-25.4865445],[-50.6339853,-25.4864918],[-50.6344762,-25.4859228],[-50.6360005,-25.4836371],[-50.637203,-25.4818975],[-50.6386501,-25.479804],[-50.6388094,-25.4795881],[-50.6388898,-25.4794793],[-50.6389601,-25.479384],[-50.6394627,-25.4786569],[-50.639523,-25.4785056],[-50.6397416,-25.4779578],[-50.6398531,-25.477493],[-50.6398349,-25.477274],[-50.6395339,-25.476119],[-50.6390198,-25.474429],[-50.6385101,-25.473484],[-50.6381051,-25.472904],[-50.6378048,-25.472589],[-50.637155,-25.472223],[-50.6361449,-25.471564],[-50.6354101,-25.470924],[-50.6347801,-25.470369],[-50.6342549,-25.469909],[-50.6340349,-25.469704],[-50.6332199,-25.468979],[-50.632375,-25.468374],[-50.6314481,-25.4677489],[-50.631125,-25.467553],[-50.6307848,-25.467249],[-50.630445,-25.466804],[-50.6299,-25.465994],[-50.629635,-25.465574],[-50.6294651,-25.465109],[-50.6294201,-25.464734],[-50.629406,-25.4644773],[-50.6293984,-25.4643362],[-50.6291927,-25.4643427],[-50.6287954,-25.4643523],[-50.6285216,-25.4643556],[-50.627695,-25.464314],[-50.6260598,-25.463949],[-50.625715,-25.463879],[-50.6249053,-25.4637796],[-50.6240941,-25.4636176],[-50.6241083,-25.4633278],[-50.6240846,-25.4630782],[-50.6239874,-25.4627329],[-50.6239575,-25.4624719],[-50.6239099,-25.4623536],[-50.6237907,-25.4622555],[-50.6237751,-25.4621437],[-50.6237618,-25.4620327],[-50.6237512,-25.461898],[-50.6237429,-25.461725],[-50.6238181,-25.461604],[-50.6238689,-25.461521],[-50.6240021,-25.461476],[-50.62406,-25.461333],[-50.6242771,-25.46119],[-50.624419,-25.461062],[-50.624294,-25.460987],[-50.6240449,-25.460933],[-50.6238289,-25.460865],[-50.6238458,-25.460631],[-50.624046,-25.460556],[-50.624221,-25.460375],[-50.6239692,-25.4599458],[-50.623702,-25.4592378],[-50.6235553,-25.4586176],[-50.6236539,-25.4580633],[-50.6238309,-25.4575433],[-50.6241937,-25.4569919],[-50.6245949,-25.4563759],[-50.6250604,-25.4555013],[-50.6252779,-25.455238],[-50.6257499,-25.455019],[-50.626084,-25.454871],[-50.626332,-25.454572],[-50.6263838,-25.453979],[-50.6262571,-25.453588],[-50.6263689,-25.4530384],[-50.6266483,-25.4518861],[-50.6262451,-25.4516731],[-50.6253997,-25.4516363],[-50.6244789,-25.4518845],[-50.6236208,-25.451348],[-50.6229869,-25.450753],[-50.6218702,-25.449746],[-50.6217828,-25.4496654],[-50.6217461,-25.4496316],[-50.6211861,-25.4491151],[-50.620954,-25.448901],[-50.6208128,-25.448514],[-50.620828,-25.448298],[-50.6210872,-25.447315],[-50.6214518,-25.446141],[-50.621711,-25.445258],[-50.6220379,-25.444246],[-50.6218981,-25.4439493],[-50.6217341,-25.4435482],[-50.6212084,-25.4433492],[-50.6206397,-25.4432362],[-50.6201027,-25.4431146],[-50.6193432,-25.4428825],[-50.6189355,-25.4426419],[-50.6187549,-25.4423558],[-50.6178673,-25.4432367],[-50.6147443,-25.4441918],[-50.6151492,-25.4452246],[-50.6153099,-25.445539],[-50.6151448,-25.4456416],[-50.6150044,-25.4457732],[-50.6148059,-25.446024],[-50.6145899,-25.446484],[-50.6146511,-25.447368],[-50.6145082,-25.447679],[-50.6140679,-25.447994],[-50.613318,-25.448178],[-50.6120872,-25.448404],[-50.6112368,-25.448264],[-50.6109172,-25.448305],[-50.6106472,-25.448425],[-50.6097568,-25.4496438],[-50.6089793,-25.4508132],[-50.6081909,-25.4513288],[-50.6078334,-25.4517499],[-50.6075749,-25.452385],[-50.6073629,-25.452941],[-50.607005,-25.453338],[-50.6065291,-25.453574],[-50.6062771,-25.453697],[-50.6060392,-25.453892],[-50.6056208,-25.454476],[-50.6053868,-25.454633],[-50.604714,-25.454802],[-50.6043389,-25.454963],[-50.6032793,-25.4558429],[-50.6026971,-25.456224],[-50.6014597,-25.4564367],[-50.6006066,-25.4568975],[-50.6005091,-25.4611869],[-50.6004811,-25.4624182],[-50.603362,-25.4625433],[-50.6062107,-25.4626886],[-50.6062543,-25.4618456],[-50.6077078,-25.4615113],[-50.6091757,-25.4603776],[-50.6092339,-25.4598835],[-50.6093938,-25.4591422],[-50.6110798,-25.4582701],[-50.6126931,-25.4588515],[-50.6157162,-25.4606829],[-50.613507,-25.4634153],[-50.6136717,-25.465455],[-50.611755,-25.4663677],[-50.6116749,-25.467075],[-50.6114555,-25.4690125],[-50.614846,-25.4730388]]]},"geometry_name":"geom","properties":{"cd_recorte":"6504110706014","quadro":"650","cd_bairro":"4110706014","nm_bairro":"Nhapindazal","cd_uf":"41","nm_uf":"Paraná","sigla_uf":"PR","cd_mun":"4110706","nm_mun":"Irati"},"bbox":[-50.6398531,-25.4939597,-50.6004811,-25.4423558]},{"type":"Feature","id":"qg_2022_650_bairro_agreg.fid-c00e1b3_199822231c8_-2b3c","geometry":{"type":"Polygon","coordinates":[[[-50.6738234,-25.4901806],[-50.676911,-25.4921392],[-50.6785622,-25.4904785],[-50.6777715,-25.4898894],[-50.6761304,-25.4888616],[-50.6759418,-25.4880134],[-50.6741365,-25.4863471],[-50.6731279,-25.4873082],[-50.6728608,-25.4868216],[-50.6726279,-25.486296],[-50.6713322,-25.4837986],[-50.6700585,-25.4814766],[-50.6696913,-25.4808034],[-50.6691663,-25.479923],[-50.669018,-25.4797652],[-50.6689377,-25.4797051],[-50.6687101,-25.479539],[-50.6685049,-25.479449],[-50.667255,-25.479424],[-50.666085,-25.479399],[-50.6656711,-25.4793938],[-50.66534,-25.4793868],[-50.6653296,-25.4830092],[-50.6636333,-25.4837243],[-50.6631973,-25.4837655],[-50.6632563,-25.4839793],[-50.6631125,-25.4845203],[-50.6630498,-25.484691],[-50.662993,-25.485355],[-50.6627246,-25.4853974],[-50.6627449,-25.485711],[-50.6629012,-25.48587],[-50.6630369,-25.486094],[-50.6628169,-25.486152],[-50.6630999,-25.486451],[-50.6630722,-25.486725],[-50.6631539,-25.486883],[-50.6629609,-25.487032],[-50.663308,-25.487406],[-50.6632522,-25.487606],[-50.663097,-25.487721],[-50.66316,-25.488004],[-50.6632829,-25.4882891],[-50.6633117,-25.4885775],[-50.6633115,-25.4888928],[-50.6632518,-25.4892316],[-50.663301,-25.4895114],[-50.6633982,-25.4899251],[-50.663753,-25.490124],[-50.6640083,-25.4899204],[-50.6642468,-25.4897223],[-50.6645029,-25.4897003],[-50.6648441,-25.4897738],[-50.6651027,-25.4900748],[-50.6653161,-25.4901467],[-50.6655911,-25.4903815],[-50.6658823,-25.4905447],[-50.6661042,-25.4905759],[-50.6662839,-25.4907565],[-50.6663212,-25.49088],[-50.6665522,-25.4909815],[-50.6668284,-25.4911673],[-50.6669381,-25.491332],[-50.6670503,-25.4914819],[-50.6672347,-25.4914552],[-50.6674711,-25.4916183],[-50.667726,-25.4918967],[-50.6677606,-25.492329],[-50.6681292,-25.4925907],[-50.6683695,-25.4927073],[-50.6686309,-25.4929439],[-50.6688216,-25.493087],[-50.668844,-25.493164],[-50.6690308,-25.4933502],[-50.6693347,-25.4932932],[-50.6696922,-25.4934894],[-50.6701551,-25.4937039],[-50.6705555,-25.4942233],[-50.670627,-25.4940743],[-50.6706363,-25.4937945],[-50.6706664,-25.4935315],[-50.6707729,-25.4933409],[-50.6717026,-25.4923807],[-50.6724294,-25.4916327],[-50.6729953,-25.491045],[-50.673453,-25.4905651],[-50.6738222,-25.4901818],[-50.6738234,-25.4901806]]]},"geometry_name":"geom","properties":{"cd_recorte":"6504110706002","quadro":"650","cd_bairro":"4110706002","nm_bairro":"Alto da Lagoa","cd_uf":"41","nm_uf":"Paraná","sigla_uf":"PR","cd_mun":"4110706","nm_mun":"Irati"},"bbox":[-50.6785622,-25.4942233,-50.6627246,-25.4793868]},{"type":"Feature","id":"qg_2022_650_bairro_agreg.fid-c00e1b3_199822231c8_-2b3b","geometry":{"type":"Polygon","coordinates":[[[-50.6489691,-25.5515712],[-50.66139,-25.5445827],[-50.6624618,-25.5439739],[-50.6629167,-25.5437156],[-50.6646596,-25.5427259],[-50.6643019,-25.5421632],[-50.6641083,-25.5419625],[-50.6639871,-25.5418368],[-50.6629824,-25.5412859],[-50.6616997,-25.5404632],[-50.658993,-25.5387996],[-50.6574946,-25.5378622],[-50.6571428,-25.5375301],[-50.6569077,-25.5370743],[-50.657352,-25.5371562],[-50.6576456,-25.5368893],[-50.6577843,-25.5365087],[-50.6576732,-25.5361275],[-50.6575098,-25.5358559],[-50.6573129,-25.5354063],[-50.6569947,-25.5349188],[-50.6564195,-25.5343294],[-50.6560918,-25.5336617],[-50.6558906,-25.5331933],[-50.6556717,-25.5328854],[-50.6555192,-25.5326299],[-50.6555753,-25.5325227],[-50.656422,-25.5318577],[-50.6565801,-25.5315857],[-50.6566929,-25.5310589],[-50.6565705,-25.5307967],[-50.6562009,-25.5307124],[-50.655895,-25.5306015],[-50.6554443,-25.53046],[-50.6553601,-25.5304277],[-50.6550112,-25.5303538],[-50.6548531,-25.5302817],[-50.6545708,-25.530224],[-50.654333,-25.5301936],[-50.6538878,-25.530086],[-50.6535161,-25.5301822],[-50.6533182,-25.5301745],[-50.6531524,-25.5303156],[-50.6529654,-25.5304063],[-50.6527117,-25.5303435],[-50.6524668,-25.5299901],[-50.6521031,-25.5297793],[-50.6518227,-25.529627],[-50.6518065,-25.5294737],[-50.6519623,-25.5293521],[-50.6525132,-25.5293321],[-50.6527328,-25.5291632],[-50.6530303,-25.5286767],[-50.653145,-25.5281945],[-50.6532099,-25.5274949],[-50.6532455,-25.5271477],[-50.6530595,-25.5270877],[-50.6528735,-25.5269964],[-50.6524831,-25.5271559],[-50.6518952,-25.5276475],[-50.6512113,-25.5274302],[-50.650321,-25.5272387],[-50.6492516,-25.5267193],[-50.6439284,-25.537582],[-50.6395232,-25.5428529],[-50.6394603,-25.5462301],[-50.640232,-25.5469517],[-50.6402526,-25.5471158],[-50.6409976,-25.5476983],[-50.6416684,-25.5469563],[-50.642186,-25.5473344],[-50.6421929,-25.5473775],[-50.6422066,-25.5479898],[-50.6430474,-25.5483726],[-50.6438472,-25.5480172],[-50.6451664,-25.5489571],[-50.6451866,-25.5489591],[-50.6479785,-25.5521474],[-50.6489691,-25.5515712]]]},"geometry_name":"geom","properties":{"cd_recorte":"6504110706016","quadro":"650","cd_bairro":"4110706016","nm_bairro":"Riozinho","cd_uf":"41","nm_uf":"Paraná","sigla_uf":"PR","cd_mun":"4110706","nm_mun":"Irati"},"bbox":[-50.6646596,-25.5521474,-50.6394603,-25.5267193]},{"type":"Feature","id":"qg_2022_650_bairro_agreg.fid-c00e1b3_199822231c8_-2b3a","geometry":{"type":"Polygon","coordinates":[[[-50.6498724,-25.5020376],[-50.6502101,-25.502979],[-50.6504657,-25.503717],[-50.6508952,-25.504939],[-50.651302,-25.506019],[-50.651365,-25.506214],[-50.6521051,-25.50831],[-50.6529101,-25.51048],[-50.6530255,-25.5107419],[-50.653091,-25.5109189],[-50.6582764,-25.5110469],[-50.659539,-25.5110781],[-50.6597726,-25.510446],[-50.6598647,-25.5098858],[-50.660687,-25.5099364],[-50.6608479,-25.5086755],[-50.6609626,-25.5074318],[-50.661037,-25.5072035],[-50.6611077,-25.5067465],[-50.6611826,-25.506216],[-50.6607932,-25.5049508],[-50.6604757,-25.5038394],[-50.6604512,-25.503264],[-50.6604695,-25.5026846],[-50.6605205,-25.5012177],[-50.6605716,-25.4996447],[-50.6605103,-25.4991204],[-50.6603655,-25.4984369],[-50.6603818,-25.4979922],[-50.6604342,-25.4972083],[-50.6603744,-25.4967477],[-50.6599906,-25.4967463],[-50.6595545,-25.4967625],[-50.6590682,-25.4968333],[-50.6585889,-25.4970668],[-50.6576564,-25.497606],[-50.6573337,-25.497786],[-50.6565591,-25.4980306],[-50.656388,-25.4979049],[-50.6564498,-25.4974591],[-50.6566086,-25.4970008],[-50.6560188,-25.4968219],[-50.6562584,-25.4957264],[-50.6562821,-25.4950992],[-50.6556763,-25.494922],[-50.6550942,-25.4947701],[-50.6544959,-25.4946226],[-50.6541335,-25.4945448],[-50.65375,-25.494565],[-50.6522909,-25.494399],[-50.6515201,-25.494299],[-50.6509949,-25.49423],[-50.6505,-25.4941471],[-50.6499461,-25.4940037],[-50.6496785,-25.4944032],[-50.6495948,-25.4947869],[-50.6492866,-25.4954618],[-50.6490721,-25.4960954],[-50.648456,-25.4962458],[-50.647879,-25.4964324],[-50.648284,-25.4975607],[-50.6483863,-25.4978454],[-50.648845,-25.499179],[-50.6491801,-25.500124],[-50.649525,-25.501069],[-50.6498724,-25.5020376]]]},"geometry_name":"geom","properties":{"cd_recorte":"6504110706010","quadro":"650","cd_bairro":"4110706010","nm_bairro":"Jardim Aeroporto","cd_uf":"41","nm_uf":"Paraná","sigla_uf":"PR","cd_mun":"4110706","nm_mun":"Irati"},"bbox":[-50.6611826,-25.5110781,-50.647879,-25.4940037]},{"type":"Feature","id":"qg_2022_650_bairro_agreg.fid-c00e1b3_199822231c8_-2b39","geometry":{"type":"Polygon","coordinates":[[[-50.6464351,-25.492379],[-50.6467934,-25.4933897],[-50.647135,-25.494409],[-50.6474219,-25.4951619],[-50.6475168,-25.495423],[-50.647879,-25.4964324],[-50.648456,-25.4962458],[-50.6490721,-25.4960954],[-50.6492866,-25.4954618],[-50.6495948,-25.4947869],[-50.6496785,-25.4944032],[-50.6499461,-25.4940037],[-50.6505,-25.4941471],[-50.6509949,-25.49423],[-50.6515201,-25.494299],[-50.6522909,-25.494399],[-50.65375,-25.494565],[-50.6541335,-25.4945448],[-50.6544959,-25.4946226],[-50.6550942,-25.4947701],[-50.6556763,-25.494922],[-50.6562821,-25.4950992],[-50.656297,-25.493667],[-50.656315,-25.492916],[-50.6563162,-25.4928757],[-50.656352,-25.491664],[-50.656396,-25.490761],[-50.6564651,-25.488753],[-50.6564831,-25.488328],[-50.6552454,-25.4871624],[-50.6546129,-25.4864789],[-50.6539602,-25.4857766],[-50.6535679,-25.485417],[-50.653191,-25.4852285],[-50.6527347,-25.4849395],[-50.6520957,-25.4844858],[-50.6518738,-25.4843578],[-50.6517052,-25.484596],[-50.6516031,-25.4847682],[-50.6514493,-25.4849836],[-50.6509443,-25.4852862],[-50.6501387,-25.485754],[-50.64988,-25.485904],[-50.6494501,-25.486144],[-50.6492849,-25.486299],[-50.6491999,-25.486514],[-50.6490451,-25.487389],[-50.648935,-25.487759],[-50.64889,-25.487869],[-50.64854,-25.488284],[-50.6478949,-25.488924],[-50.64763,-25.489489],[-50.647235,-25.490624],[-50.6468581,-25.4908359],[-50.6465693,-25.4910906],[-50.6460788,-25.4913443],[-50.6464351,-25.492379]]]},"geometry_name":"geom","properties":{"cd_recorte":"6504110706012","quadro":"650","cd_bairro":"4110706012","nm_bairro":"Jardim Virgínia","cd_uf":"41","nm_uf":"Paraná","sigla_uf":"PR","cd_mun":"4110706","nm_mun":"Irati"},"bbox":[-50.6564831,-25.4964324,-50.6460788,-25.4843578]},{"type":"Feature","id":"qg_2022_650_bairro_agreg.fid-c00e1b3_199822231c8_-2b38","geometry":{"type":"Polygon","coordinates":[[[-50.6507277,-25.453344],[-50.6505288,-25.4540268],[-50.6503605,-25.4543061],[-50.6503175,-25.4544479],[-50.6503427,-25.4546058],[-50.6504911,-25.4546814],[-50.6504289,-25.4549691],[-50.650234,-25.4551345],[-50.650141,-25.455271],[-50.6499063,-25.4552894],[-50.6496505,-25.4555074],[-50.6492477,-25.4555251],[-50.6491009,-25.455578],[-50.6487929,-25.4557942],[-50.6485306,-25.4557749],[-50.6477983,-25.455623],[-50.647256,-25.4556486],[-50.6468838,-25.4556092],[-50.6466393,-25.4558031],[-50.646141,-25.455662],[-50.645675,-25.4555869],[-50.6453347,-25.4556004],[-50.6450704,-25.4555802],[-50.6447528,-25.455636],[-50.644494,-25.455846],[-50.6439417,-25.4556794],[-50.6435802,-25.4555681],[-50.6433398,-25.455496],[-50.6432819,-25.455307],[-50.6429708,-25.4552271],[-50.6425511,-25.455313],[-50.6421663,-25.4554064],[-50.6419123,-25.4554988],[-50.6417496,-25.4558077],[-50.641717,-25.456126],[-50.6415497,-25.4561634],[-50.6413521,-25.4561368],[-50.6412412,-25.4560177],[-50.6409717,-25.4560221],[-50.6407201,-25.45589],[-50.6406499,-25.4559113],[-50.6406056,-25.4560169],[-50.640442,-25.4560051],[-50.640165,-25.4560063],[-50.6398646,-25.4560632],[-50.639522,-25.456045],[-50.6391271,-25.4559767],[-50.6389704,-25.455967],[-50.6389199,-25.4560285],[-50.6388012,-25.4561139],[-50.6387909,-25.4562872],[-50.6387148,-25.4566015],[-50.6387749,-25.4567657],[-50.6387256,-25.4568508],[-50.6386819,-25.4569612],[-50.6388669,-25.457017],[-50.6391544,-25.4571039],[-50.6394972,-25.457197],[-50.6398331,-25.4574603],[-50.6400051,-25.4576247],[-50.6401593,-25.4578999],[-50.6402609,-25.4583199],[-50.6403598,-25.458878],[-50.6404451,-25.459405],[-50.6405391,-25.4598491],[-50.6405531,-25.4601252],[-50.6407163,-25.4604218],[-50.6410962,-25.4607844],[-50.6413238,-25.4610006],[-50.6415269,-25.4613671],[-50.6417597,-25.4617366],[-50.6419722,-25.4620777],[-50.6421333,-25.4622573],[-50.6423149,-25.4623472],[-50.642452,-25.4623495],[-50.642662,-25.4623899],[-50.6428947,-25.4624085],[-50.643069,-25.4624718],[-50.6433412,-25.4625048],[-50.643451,-25.4625304],[-50.6435737,-25.4625243],[-50.6437284,-25.462551],[-50.6439256,-25.4626155],[-50.6440788,-25.462617],[-50.6442491,-25.4626975],[-50.6444816,-25.4626822],[-50.6447932,-25.462482],[-50.6450868,-25.4622769],[-50.6452477,-25.4619808],[-50.6451936,-25.4619109],[-50.6450747,-25.4615426],[-50.6450433,-25.4610287],[-50.6450114,-25.4599994],[-50.6450273,-25.4583941],[-50.6453681,-25.4584139],[-50.6457975,-25.4585428],[-50.6461472,-25.4589693],[-50.646413,-25.4591796],[-50.6465526,-25.4590606],[-50.6467696,-25.458953],[-50.6469608,-25.4589822],[-50.647611,-25.4592091],[-50.6485776,-25.4593712],[-50.6488875,-25.4594944],[-50.6492783,-25.4596307],[-50.6497267,-25.4596865],[-50.6510267,-25.4598543],[-50.6511833,-25.4598355],[-50.6513045,-25.4597451],[-50.651472,-25.4595913],[-50.6515676,-25.4595231],[-50.6519473,-25.4593932],[-50.6520987,-25.459455],[-50.6526691,-25.4600132],[-50.653311,-25.460636],[-50.6538046,-25.4609306],[-50.6541194,-25.4611312],[-50.6541749,-25.4606683],[-50.6547705,-25.4607146],[-50.6556596,-25.4607883],[-50.6565891,-25.4608519],[-50.656594,-25.461638],[-50.6569041,-25.4617139],[-50.6572718,-25.4620312],[-50.6577269,-25.4622632],[-50.6578654,-25.4623643],[-50.6582008,-25.4627471],[-50.6585598,-25.463186],[-50.658737,-25.4633846],[-50.6589228,-25.4635532],[-50.6592248,-25.463585],[-50.6595673,-25.463599],[-50.6598252,-25.4634818],[-50.6599634,-25.4633648],[-50.6600439,-25.4631938],[-50.6601419,-25.4629611],[-50.6601795,-25.4628258],[-50.6602231,-25.4627],[-50.6602655,-25.4625057],[-50.6603419,-25.4623074],[-50.6605863,-25.4620562],[-50.6612599,-25.461663],[-50.6618998,-25.4618185],[-50.662152,-25.46182],[-50.6623601,-25.461782],[-50.662593,-25.461533],[-50.6629494,-25.4613948],[-50.6635834,-25.4583331],[-50.6640505,-25.4575129],[-50.6662051,-25.4565008],[-50.6657286,-25.4561206],[-50.6643401,-25.4547055],[-50.6659854,-25.4534223],[-50.6673256,-25.4536132],[-50.6684352,-25.4538641],[-50.6692951,-25.4535485],[-50.6631575,-25.4508028],[-50.6630851,-25.4507705],[-50.6615051,-25.4511502],[-50.6610003,-25.4512831],[-50.6594252,-25.4517051],[-50.6561823,-25.4525074],[-50.6553688,-25.4527067],[-50.6547899,-25.4527589],[-50.6539524,-25.4527971],[-50.653265,-25.4528125],[-50.6527044,-25.4528876],[-50.6520221,-25.4530147],[-50.6516161,-25.4531195],[-50.6512334,-25.4531933],[-50.6507277,-25.453344]]]},"geometry_name":"geom","properties":{"cd_recorte":"6504110706006","quadro":"650","cd_bairro":"4110706006","nm_bairro":"Colina Nossa Senhora das Graças","cd_uf":"41","nm_uf":"Paraná","sigla_uf":"PR","cd_mun":"4110706","nm_mun":"Irati"},"bbox":[-50.6692951,-25.463599,-50.6386819,-25.4507705]},{"type":"Feature","id":"qg_2022_650_bairro_agreg.fid-c00e1b3_199822231c8_-2b37","geometry":{"type":"Polygon","coordinates":[[[-50.6412794,-25.5045153],[-50.6425728,-25.5054076],[-50.6429701,-25.5051407],[-50.6433139,-25.5050486],[-50.6447575,-25.5059633],[-50.6448317,-25.5060157],[-50.6449309,-25.5060628],[-50.6448697,-25.5062721],[-50.6442254,-25.5072608],[-50.6439924,-25.5076803],[-50.643907,-25.5078229],[-50.6436532,-25.5082464],[-50.6435513,-25.5084253],[-50.6434897,-25.5093086],[-50.6433125,-25.5100977],[-50.6431354,-25.5105683],[-50.6429564,-25.5111985],[-50.6429002,-25.5116062],[-50.6429779,-25.5120828],[-50.6434323,-25.512939],[-50.6441398,-25.5134122],[-50.6441913,-25.5134637],[-50.6456333,-25.5133782],[-50.6463895,-25.5134644],[-50.647063,-25.5137745],[-50.6477392,-25.5137565],[-50.6487781,-25.5131655],[-50.65033,-25.5124358],[-50.6508851,-25.511739],[-50.6518949,-25.511044],[-50.6530255,-25.5107419],[-50.6529101,-25.51048],[-50.6521051,-25.50831],[-50.651365,-25.506214],[-50.651302,-25.506019],[-50.6508952,-25.504939],[-50.6504657,-25.503717],[-50.6502101,-25.502979],[-50.6498724,-25.5020376],[-50.649525,-25.501069],[-50.6491801,-25.500124],[-50.648845,-25.499179],[-50.6483863,-25.4978454],[-50.648284,-25.4975607],[-50.647879,-25.4964324],[-50.6475168,-25.495423],[-50.6474219,-25.4951619],[-50.647135,-25.494409],[-50.6467934,-25.4933897],[-50.6464351,-25.492379],[-50.6460788,-25.4913443],[-50.6459002,-25.490834],[-50.6456752,-25.490158],[-50.645344,-25.489254],[-50.6451949,-25.488854],[-50.6451301,-25.488679],[-50.6448,-25.487938],[-50.6440649,-25.487244],[-50.643535,-25.486874],[-50.643355,-25.486749],[-50.6428949,-25.486419],[-50.642275,-25.485934],[-50.6419499,-25.485474],[-50.6417551,-25.484809],[-50.64134,-25.483174],[-50.6410949,-25.482209],[-50.6407252,-25.480805],[-50.64043,-25.47964],[-50.6403202,-25.479209],[-50.6398349,-25.477274],[-50.6398531,-25.477493],[-50.6397416,-25.4779578],[-50.639523,-25.4785056],[-50.6394627,-25.4786569],[-50.6389601,-25.479384],[-50.6388898,-25.4794793],[-50.6388094,-25.4795881],[-50.6386501,-25.479804],[-50.637203,-25.4818975],[-50.6360005,-25.4836371],[-50.6344762,-25.4859228],[-50.6339853,-25.4864918],[-50.6339428,-25.4865445],[-50.6331215,-25.4870932],[-50.6325658,-25.4880579],[-50.6311821,-25.4900094],[-50.6304706,-25.491044],[-50.6286477,-25.4936945],[-50.6294128,-25.4931358],[-50.6299199,-25.4929605],[-50.6302353,-25.4929026],[-50.6305596,-25.4928954],[-50.6311033,-25.4930954],[-50.6314857,-25.4932904],[-50.6317963,-25.4935107],[-50.6323494,-25.4941141],[-50.6329175,-25.4945937],[-50.6332943,-25.4949069],[-50.6335883,-25.4951244],[-50.6334042,-25.4957442],[-50.6332282,-25.496683],[-50.6328074,-25.4972523],[-50.6332822,-25.4975554],[-50.6301318,-25.501123],[-50.6290263,-25.5015572],[-50.6287407,-25.5018949],[-50.6292262,-25.5022887],[-50.6297465,-25.5026172],[-50.6312095,-25.5020383],[-50.6319018,-25.5020787],[-50.6321287,-25.5021804],[-50.6323633,-25.5024433],[-50.6324186,-25.5029031],[-50.6320337,-25.5030573],[-50.6316192,-25.5033336],[-50.6318223,-25.504202],[-50.6332159,-25.5048761],[-50.6332201,-25.5048917],[-50.6354667,-25.5042517],[-50.635953,-25.5061619],[-50.6369689,-25.5050918],[-50.637733,-25.5037025],[-50.6387228,-25.504345],[-50.6381324,-25.505578],[-50.6385579,-25.5058515],[-50.6392178,-25.5057039],[-50.6396764,-25.5064824],[-50.6412794,-25.5045153]]]},"geometry_name":"geom","properties":{"cd_recorte":"6504110706019","quadro":"650","cd_bairro":"4110706019","nm_bairro":"Vila São João","cd_uf":"41","nm_uf":"Paraná","sigla_uf":"PR","cd_mun":"4110706","nm_mun":"Irati"},"bbox":[-50.6530255,-25.5137745,-50.6286477,-25.477274]},{"type":"Feature","id":"qg_2022_650_bairro_agreg.fid-c00e1b3_199822231c8_-2b36","geometry":{"type":"Polygon","coordinates":[[[-50.6689377,-25.4797051],[-50.669018,-25.4797652],[-50.6691663,-25.479923],[-50.6696913,-25.4808034],[-50.6700585,-25.4814766],[-50.6713322,-25.4837986],[-50.67616,-25.4822931],[-50.6764271,-25.4823918],[-50.6785206,-25.4825724],[-50.6786019,-25.481942],[-50.6789549,-25.4775462],[-50.6790928,-25.475219],[-50.6805599,-25.4721537],[-50.6816378,-25.4699017],[-50.6827498,-25.4675784],[-50.6812351,-25.4649822],[-50.681063,-25.4625613],[-50.6798814,-25.4625524],[-50.6782462,-25.462235],[-50.6773148,-25.462238],[-50.67666,-25.462291],[-50.6763749,-25.462334],[-50.67567,-25.462439],[-50.6748949,-25.462679],[-50.673965,-25.463249],[-50.6733271,-25.463671],[-50.6731799,-25.463769],[-50.67238,-25.464299],[-50.6705648,-25.465529],[-50.6702902,-25.465714],[-50.6694899,-25.466189],[-50.669356,-25.466245],[-50.6687749,-25.466369],[-50.66703,-25.466714],[-50.6667222,-25.4667712],[-50.6664309,-25.4668256],[-50.6639804,-25.4673349],[-50.6651756,-25.4681667],[-50.6659508,-25.4686942],[-50.6663089,-25.4689169],[-50.6668558,-25.4692729],[-50.6674741,-25.4696661],[-50.667724,-25.4701043],[-50.6682241,-25.4709858],[-50.6685668,-25.4716354],[-50.6687846,-25.4720337],[-50.6691027,-25.4726715],[-50.6693101,-25.4730957],[-50.6698238,-25.4741624],[-50.6703294,-25.4752159],[-50.6706625,-25.4759439],[-50.6690297,-25.4774177],[-50.6689377,-25.4797051]]]},"geometry_name":"geom","properties":{"cd_recorte":"6504110706003","quadro":"650","cd_bairro":"4110706003","nm_bairro":"Camacuã","cd_uf":"41","nm_uf":"Paraná","sigla_uf":"PR","cd_mun":"4110706","nm_mun":"Irati"},"bbox":[-50.6827498,-25.4837986,-50.6639804,-25.462235]},{"type":"Feature","id":"qg_2022_650_bairro_agreg.fid-c00e1b3_199822231c8_-2b35","geometry":{"type":"Polygon","coordinates":[[[-50.6595177,-25.4801608],[-50.6595972,-25.4804265],[-50.6596363,-25.4807334],[-50.6596325,-25.481102],[-50.6595056,-25.4815901],[-50.6593083,-25.4821243],[-50.6589807,-25.4827839],[-50.6588803,-25.4830419],[-50.6588687,-25.4835265],[-50.6589946,-25.4839807],[-50.6595183,-25.4846944],[-50.6599621,-25.485406],[-50.660531,-25.486563],[-50.6607143,-25.4869647],[-50.6609395,-25.4875018],[-50.6612309,-25.4877616],[-50.6614631,-25.4878294],[-50.6617331,-25.487863],[-50.6620814,-25.4878721],[-50.6622832,-25.4878995],[-50.66248,-25.4879557],[-50.6627639,-25.4881427],[-50.6629835,-25.4884039],[-50.6630624,-25.4886354],[-50.6630647,-25.4888879],[-50.662961,-25.4893141],[-50.6627737,-25.4898597],[-50.6627421,-25.4900298],[-50.6628678,-25.4900795],[-50.6630419,-25.4900902],[-50.6632372,-25.4900805],[-50.6633161,-25.4900342],[-50.6633982,-25.4899251],[-50.663301,-25.4895114],[-50.6632518,-25.4892316],[-50.6633115,-25.4888928],[-50.6633117,-25.4885775],[-50.6632829,-25.4882891],[-50.66316,-25.488004],[-50.663097,-25.487721],[-50.6632522,-25.487606],[-50.663308,-25.487406],[-50.6629609,-25.487032],[-50.6631539,-25.486883],[-50.6630722,-25.486725],[-50.6630999,-25.486451],[-50.6628169,-25.486152],[-50.6630369,-25.486094],[-50.6629012,-25.48587],[-50.6627449,-25.485711],[-50.6627246,-25.4853974],[-50.662993,-25.485355],[-50.6630498,-25.484691],[-50.6631125,-25.4845203],[-50.6632563,-25.4839793],[-50.6631973,-25.4837655],[-50.6636333,-25.4837243],[-50.6653296,-25.4830092],[-50.66534,-25.4793868],[-50.6656711,-25.4793938],[-50.666085,-25.479399],[-50.667255,-25.479424],[-50.6685049,-25.479449],[-50.6687101,-25.479539],[-50.6689377,-25.4797051],[-50.6690297,-25.4774177],[-50.6706625,-25.4759439],[-50.6703294,-25.4752159],[-50.6698238,-25.4741624],[-50.6693101,-25.4730957],[-50.6691027,-25.4726715],[-50.6687846,-25.4720337],[-50.6685668,-25.4716354],[-50.6682241,-25.4709858],[-50.667724,-25.4701043],[-50.6674741,-25.4696661],[-50.6668558,-25.4692729],[-50.6663089,-25.4689169],[-50.6659508,-25.4686942],[-50.6651756,-25.4681667],[-50.6639804,-25.4673349],[-50.6629249,-25.467574],[-50.6626411,-25.4676737],[-50.6624,-25.467764],[-50.66163,-25.468064],[-50.6614174,-25.4681402],[-50.661365,-25.468159],[-50.661086,-25.468234],[-50.6609054,-25.468278],[-50.6605356,-25.4682739],[-50.6602331,-25.4681799],[-50.6594304,-25.4679003],[-50.6584104,-25.4674854],[-50.6583135,-25.4674266],[-50.6580344,-25.4673482],[-50.6579667,-25.4675419],[-50.6577428,-25.4684388],[-50.6575177,-25.4689611],[-50.657134,-25.469294],[-50.6564906,-25.4697261],[-50.6562551,-25.4699787],[-50.6561754,-25.4703881],[-50.6561596,-25.4706194],[-50.6562524,-25.4708753],[-50.6563644,-25.4710101],[-50.6566841,-25.4712459],[-50.657015,-25.4714467],[-50.6573454,-25.4717665],[-50.6573895,-25.471868],[-50.6575836,-25.4722564],[-50.6578373,-25.4727429],[-50.6581019,-25.473351],[-50.6582078,-25.4738604],[-50.6582762,-25.4743446],[-50.6583983,-25.4748245],[-50.6584914,-25.4751629],[-50.6586157,-25.4753838],[-50.6589959,-25.475707],[-50.6592991,-25.4759484],[-50.6595193,-25.4761839],[-50.6596438,-25.4764305],[-50.6596574,-25.4767316],[-50.6595978,-25.4769701],[-50.659242,-25.4779612],[-50.6590795,-25.478428],[-50.6590256,-25.4786554],[-50.6590634,-25.4789067],[-50.6592125,-25.479221],[-50.6595177,-25.4801608]]]},"geometry_name":"geom","properties":{"cd_recorte":"6504110706015","quadro":"650","cd_bairro":"4110706015","nm_bairro":"Rio Bonito","cd_uf":"41","nm_uf":"Paraná","sigla_uf":"PR","cd_mun":"4110706","nm_mun":"Irati"},"bbox":[-50.6706625,-25.4900902,-50.6561596,-25.4673349]}],"totalFeatures":19,"numberMatched":19,"numberReturned":19,"timeStamp":"2025-09-25T18:33:15.209Z","crs":{"type":"name","properties":{"name":"urn:ogc:def:crs:EPSG::4674"}},"bbox":[-50.6827498,-25.5521474,-50.6004811,-25.4423558]}