{"type":"FeatureCollection","features":[{"type":"Feature","id":"qg_2022_030_munic.fid-c00e1b3_199824e30e7_2b16","geometry":{"type":"MultiPolygon","coordinates":[[[[-50.63366323,-25.39085382],[-50.60192036,-25.41067619],[-50.60160971,-25.41118839],[-50.59991605,-25.41152348],[-50.59943464,-25.413726],[-50.59854311,-25.41481177],[-50.59855175,-25.4165928],[-50.59813747,-25.41739474],[-50.59850678,-25.41851236],[-50.59829137,-25.42200321],[-50.59783976,-25.42317759],[-50.59764999,-25.42543643],[-50.59820985,-25.42656747],[-50.59740625,-25.42777518],[-50.59737039,-25.428768],[-50.59633617,-25.43000734],[-50.59525379,-25.4322861],[-50.59481754,-25.43255823],[-50.59474487,-25.43422195],[-50.5944083,-25.43473263],[-50.59438189,-25.43503498],[-50.59288917,-25.43620236],[-50.59267268,-25.43728657],[-50.59189543,-25.43928382],[-50.59066149,-25.44125245],[-50.58979049,-25.44205729],[-50.58816588,-25.44521606],[-50.58683435,-25.44616258],[-50.5859287,-25.4473471],[-50.58452937,-25.44791061],[-50.5832256,-25.44956195],[-50.58047336,-25.45157632],[-50.57968428,-25.45194118],[-50.58408452,-25.46558933],[-50.59510059,-25.49974268],[-50.60766874,-25.53946422],[-50.61395575,-25.55932665],[-50.62187039,-25.58432282],[-50.63172035,-25.58123863],[-50.67995827,-25.56612151],[-50.68014305,-25.56606348],[-50.71942424,-25.55373753],[-50.71967391,-25.55498573],[-50.72029568,-25.55635045],[-50.72026149,-25.55797013],[-50.72069572,-25.55851007],[-50.72116535,-25.55873699],[-50.72169678,-25.55885168],[-50.72238603,-25.55865428],[-50.72384196,-25.5575353],[-50.72635028,-25.55702865],[-50.72760178,-25.55555518],[-50.72777593,-25.55460502],[-50.72684699,-25.55076988],[-50.72691117,-25.55020321],[-50.72747585,-25.54960623],[-50.72803807,-25.54946548],[-50.72871017,-25.54956705],[-50.73068001,-25.55033599],[-50.73217941,-25.55127568],[-50.73321164,-25.55230144],[-50.73432908,-25.55275557],[-50.73606567,-25.55453103],[-50.73756771,-25.555303],[-50.73928897,-25.55547927],[-50.74103217,-25.55627912],[-50.74155468,-25.55635566],[-50.74252498,-25.55629066],[-50.74387371,-25.55555683],[-50.74590475,-25.55624128],[-50.74618349,-25.55649816],[-50.74621525,-25.55698041],[-50.74569597,-25.55807263],[-50.74469592,-25.55861132],[-50.74446862,-25.55891828],[-50.74412716,-25.56064839],[-50.74346552,-25.56258509],[-50.74379393,-25.56325067],[-50.74657614,-25.56388147],[-50.74760695,-25.56445263],[-50.74829652,-25.56453736],[-50.75094077,-25.56415956],[-50.75238074,-25.56373518],[-50.75369586,-25.56387885],[-50.75429621,-25.56450354],[-50.7547827,-25.56694998],[-50.75514259,-25.56755853],[-50.75555199,-25.56784443],[-50.7572384,-25.56773297],[-50.75761772,-25.56747354],[-50.75842947,-25.56620197],[-50.75912115,-25.56569154],[-50.76015405,-25.56585506],[-50.76104199,-25.56681794],[-50.76297403,-25.57071028],[-50.76355263,-25.57136873],[-50.76435037,-25.57187511],[-50.76525542,-25.57205651],[-50.76533448,-25.57285542],[-50.76498511,-25.57481446],[-50.76542376,-25.57538415],[-50.7666731,-25.57635047],[-50.76670445,-25.5767768],[-50.76632714,-25.57725723],[-50.76502804,-25.57806629],[-50.76471198,-25.57849036],[-50.76499297,-25.58010983],[-50.76530726,-25.58056585],[-50.76652303,-25.58070902],[-50.76667996,-25.58090817],[-50.76655389,-25.5819307],[-50.76622161,-25.58232826],[-50.76896333,-25.58304074],[-50.76883733,-25.585654],[-50.77005234,-25.58716151],[-50.77103273,-25.58999035],[-50.77021817,-25.59069741],[-50.76977705,-25.59166159],[-50.76911968,-25.59200238],[-50.76908565,-25.59378624],[-50.76950734,-25.59417519],[-50.76985163,-25.59414671],[-50.77013292,-25.59372097],[-50.77025938,-25.59286888],[-50.77048019,-25.59284038],[-50.77154299,-25.59338234],[-50.77873175,-25.59127721],[-50.78129759,-25.59068525],[-50.78239155,-25.59065969],[-50.78306562,-25.59144101],[-50.78462673,-25.59167008],[-50.78488116,-25.5920968],[-50.7842531,-25.59272057],[-50.78321972,-25.59297472],[-50.78296844,-25.59328572],[-50.78309283,-25.59388363],[-50.78232334,-25.59480547],[-50.78185166,-25.59724794],[-50.78260134,-25.59747543],[-50.78285138,-25.59773162],[-50.78313025,-25.59869634],[-50.78388304,-25.59858482],[-50.78503883,-25.59963733],[-50.78522751,-25.59958196],[-50.78524361,-25.59905477],[-50.78640163,-25.59905675],[-50.78809033,-25.59846527],[-50.78887623,-25.59849333],[-50.7889687,-25.5987217],[-50.7876385,-25.59961053],[-50.78757615,-25.5999311],[-50.78838493,-25.60137546],[-50.78876103,-25.60146127],[-50.79075176,-25.60056076],[-50.79198847,-25.59970502],[-50.79275639,-25.5995487],[-50.7946333,-25.59966466],[-50.7948525,-25.59992105],[-50.79484884,-25.60031956],[-50.79456932,-25.60083107],[-50.79522782,-25.60074538],[-50.79547669,-25.60085995],[-50.7955999,-25.60154169],[-50.79472347,-25.60199504],[-50.79472372,-25.60261998],[-50.79573981,-25.60249343],[-50.79589594,-25.60306136],[-50.79483109,-25.60337261],[-50.79486312,-25.60362762],[-50.79841239,-25.60503813],[-50.79878676,-25.60574971],[-50.79919368,-25.60546463],[-50.79953815,-25.60546765],[-50.79988264,-25.60569431],[-50.79991387,-25.60609178],[-50.80034972,-25.60629069],[-50.80197819,-25.60646605],[-50.80254121,-25.60697524],[-50.80346537,-25.60693681],[-50.80371455,-25.60719024],[-50.80371487,-25.60781429],[-50.80390098,-25.6080429],[-50.80446511,-25.6080994],[-50.80433865,-25.60880995],[-50.80493064,-25.61028919],[-50.80461751,-25.61094156],[-50.80399172,-25.61076918],[-50.80372375,-25.61152083],[-50.80334691,-25.61194726],[-50.80274887,-25.61436],[-50.80177681,-25.61398887],[-50.80152816,-25.61367773],[-50.80140676,-25.61273992],[-50.80107738,-25.6124685],[-50.7980071,-25.61340234],[-50.79794349,-25.61436856],[-50.79645261,-25.61440717],[-50.79615833,-25.61464962],[-50.79615898,-25.61484893],[-50.79698679,-25.61517636],[-50.79698605,-25.61580128],[-50.79585757,-25.6168506],[-50.79582454,-25.61730438],[-50.79613675,-25.61795779],[-50.79719641,-25.61903969],[-50.79715106,-25.6201046],[-50.79740041,-25.62050143],[-50.79824478,-25.62084455],[-50.79887322,-25.62013507],[-50.79912453,-25.61922616],[-50.79943911,-25.6188579],[-50.80106627,-25.61920099],[-50.80455957,-25.61723387],[-50.80584466,-25.61680833],[-50.81002438,-25.6162872],[-50.81140277,-25.6159475],[-50.81281064,-25.61592226],[-50.81359441,-25.61603492],[-50.81384453,-25.61629197],[-50.8137185,-25.61668782],[-50.81321881,-25.61660299],[-50.81318788,-25.61683047],[-50.81438717,-25.61926077],[-50.81516919,-25.620341],[-50.81610642,-25.62105218],[-50.81698399,-25.62142207],[-50.81782847,-25.62153783],[-50.81845494,-25.6214243],[-50.81883076,-25.62099781],[-50.81830157,-25.62025946],[-50.81825486,-25.61916637],[-50.81907188,-25.61734898],[-50.81957365,-25.61664115],[-50.82067074,-25.61579115],[-50.82120339,-25.61553399],[-50.82170506,-25.61550611],[-50.82284577,-25.61620542],[-50.8241307,-25.61646057],[-50.8245043,-25.61705755],[-50.82472068,-25.6185908],[-50.82437378,-25.62040941],[-50.82467142,-25.62056557],[-50.82520361,-25.61968614],[-50.82533101,-25.6186347],[-50.82505291,-25.61653559],[-50.82527447,-25.6155385],[-50.82558645,-25.61545329],[-50.82601023,-25.61569695],[-50.8281675,-25.61595475],[-50.82898209,-25.61584344],[-50.82898369,-25.61533035],[-50.82704497,-25.61362451],[-50.82668598,-25.61292684],[-50.82671839,-25.6123035],[-50.82753168,-25.6125042],[-50.82862673,-25.6136128],[-50.83003357,-25.61426643],[-50.83037964,-25.6142099],[-50.8305064,-25.61378429],[-50.83011371,-25.61311746],[-50.83061517,-25.61204075],[-50.83061599,-25.61167013],[-50.82992968,-25.6115254],[-50.82980298,-25.6110438],[-50.82924006,-25.61135535],[-50.82893015,-25.60868562],[-50.82925814,-25.60889833],[-50.82935068,-25.60969302],[-50.83126561,-25.60637528],[-50.83110983,-25.60608964],[-50.83049878,-25.60652821],[-50.82981229,-25.60522197],[-50.82937368,-25.60516377],[-50.82940634,-25.60468111],[-50.83000238,-25.60405644],[-50.82997055,-25.60371577],[-50.82971939,-25.60334691],[-50.82881327,-25.60323169],[-50.82865645,-25.60306146],[-50.82870343,-25.60267741],[-50.82973778,-25.60219751],[-50.83017569,-25.60228184],[-50.83042586,-25.60253706],[-50.83049055,-25.60299116],[-50.83158332,-25.60361813],[-50.83129293,-25.60462276],[-50.83223971,-25.60432943],[-50.83447968,-25.60261305],[-50.83520038,-25.60224447],[-50.83707933,-25.60213448],[-50.83751652,-25.60179222],[-50.8382382,-25.60165089],[-50.83756491,-25.60305579],[-50.83771941,-25.60342797],[-50.83796839,-25.60331341],[-50.83856592,-25.60194925],[-50.83878598,-25.6019495],[-50.8389067,-25.60228126],[-50.83922359,-25.60212127],[-50.83938068,-25.60141133],[-50.84010311,-25.60090027],[-50.840232,-25.60054323],[-50.840414,-25.60047592],[-50.84050783,-25.60061863],[-50.84049328,-25.6010584],[-50.8407427,-25.60111608],[-50.84111915,-25.60088703],[-50.84121421,-25.60060411],[-50.84093244,-25.6000353],[-50.84112015,-25.59975077],[-50.84074592,-25.59921424],[-50.84093365,-25.59892881],[-50.84152913,-25.59892813],[-50.84206058,-25.5992417],[-50.84221493,-25.59958231],[-50.84202725,-25.6005477],[-50.84238706,-25.60087561],[-50.84279497,-25.6004344],[-50.84279601,-25.59971298],[-50.84323562,-25.59920211],[-50.84442452,-25.59852072],[-50.84501258,-25.59849913],[-50.84548947,-25.59869157],[-50.8456152,-25.59803686],[-50.84544323,-25.5974569],[-50.84629033,-25.59742915],[-50.8464126,-25.59808199],[-50.84685344,-25.5975991],[-50.8475397,-25.59785737],[-50.84754219,-25.59734519],[-50.84694701,-25.59703117],[-50.84701098,-25.59683234],[-50.84729199,-25.59674822],[-50.848042,-25.59700515],[-50.84868286,-25.59758979],[-50.84761636,-25.5994895],[-50.8481772,-25.59963234],[-50.8483966,-25.60068226],[-50.84861717,-25.60096657],[-50.84889843,-25.60079768],[-50.84855535,-25.59994529],[-50.84910363,-25.5999598],[-50.84944595,-25.60038561],[-50.84960351,-25.60018699],[-50.84941675,-25.59990431],[-50.84988549,-25.59987652],[-50.85051166,-25.60052848],[-50.85088702,-25.60064387],[-50.85158184,-25.60057223],[-50.85164685,-25.60056553],[-50.85544191,-25.60017725],[-50.85584718,-25.60051963],[-50.85638113,-25.60054913],[-50.8564111,-25.60111612],[-50.85663042,-25.6012588],[-50.85747533,-25.60143025],[-50.85788065,-25.60188535],[-50.85866328,-25.60200135],[-50.85969351,-25.60251134],[-50.85961823,-25.60295342],[-50.85886579,-25.60343418],[-50.8590536,-25.60394413],[-50.85920941,-25.60400248],[-50.8597719,-25.60366465],[-50.86039903,-25.60363481],[-50.86055656,-25.60332255],[-50.86033814,-25.60272627],[-50.86055769,-25.60266966],[-50.86099491,-25.60301],[-50.86115194,-25.60286908],[-50.86132542,-25.6018321],[-50.86204777,-25.60010076],[-50.86261088,-25.60004339],[-50.86408054,-25.60103802],[-50.8648323,-25.60092517],[-50.86448888,-25.60050117],[-50.86495861,-25.60012976],[-50.86520961,-25.59947861],[-50.86629031,-25.59923751],[-50.86694837,-25.59866992],[-50.86723268,-25.59651162],[-50.86751452,-25.59586022],[-50.86832964,-25.59514899],[-50.86873583,-25.59515136],[-50.86895423,-25.59540584],[-50.8684693,-25.5959032],[-50.86846961,-25.59615842],[-50.8690627,-25.5968601],[-50.86990782,-25.59687005],[-50.87028453,-25.59723974],[-50.87172495,-25.5977521],[-50.87153939,-25.59837761],[-50.87159635,-25.59894337],[-50.87214307,-25.59878821],[-50.87280383,-25.59731251],[-50.87324155,-25.59683037],[-50.87452374,-25.59756929],[-50.87477453,-25.59799579],[-50.87658625,-25.59904992],[-50.87722778,-25.60022696],[-50.87663138,-25.60198633],[-50.87651057,-25.60272596],[-50.87638135,-25.60352132],[-50.87653698,-25.60442918],[-50.87691175,-25.60491334],[-50.87789837,-25.60549623],[-50.87852324,-25.60543831],[-50.8784625,-25.60390571],[-50.87899475,-25.60308196],[-50.87909051,-25.60211724],[-50.87971772,-25.6017771],[-50.87971758,-25.60132257],[-50.88011593,-25.60082243],[-50.88079784,-25.60059978],[-50.8813924,-25.60082618],[-50.8814552,-25.60105388],[-50.88089069,-25.60139537],[-50.8812035,-25.60162028],[-50.88170385,-25.60167873],[-50.88189209,-25.6019073],[-50.88183074,-25.60227575],[-50.88198617,-25.60250271],[-50.88223611,-25.60250262],[-50.88248735,-25.60199213],[-50.8829552,-25.60230511],[-50.88314491,-25.60224692],[-50.8832249,-25.60116011],[-50.88290908,-25.6010127],[-50.88266067,-25.60041671],[-50.88316119,-25.60016133],[-50.88356879,-25.60118457],[-50.88460038,-25.60249074],[-50.8847878,-25.60305837],[-50.88642995,-25.60443704],[-50.88685062,-25.60514942],[-50.88764725,-25.60580306],[-50.88805423,-25.60762079],[-50.8884923,-25.60804675],[-50.88880625,-25.60807507],[-50.8893247,-25.6075513],[-50.88967049,-25.60496587],[-50.8910785,-25.6037747],[-50.89176606,-25.60371806],[-50.89231645,-25.60395971],[-50.89284646,-25.6045274],[-50.89375453,-25.60668673],[-50.89487842,-25.60612349],[-50.89550558,-25.6066319],[-50.89575648,-25.60651818],[-50.89564981,-25.60548241],[-50.89591445,-25.60510654],[-50.89665002,-25.60477223],[-50.89746539,-25.60335288],[-50.89718622,-25.60213309],[-50.89637149,-25.60102279],[-50.89588777,-25.59958853],[-50.89601381,-25.59921964],[-50.89623252,-25.59896365],[-50.89732828,-25.59890751],[-50.8978298,-25.59822643],[-50.89902065,-25.59811278],[-50.89961514,-25.59726231],[-50.90050649,-25.59679238],[-50.90141647,-25.5957159],[-50.90295012,-25.59574475],[-50.90341816,-25.59543359],[-50.9036378,-25.59506307],[-50.90345135,-25.59460911],[-50.90052555,-25.59342891],[-50.9000883,-25.59308688],[-50.89999499,-25.59268989],[-50.90012003,-25.59232008],[-50.90159248,-25.59101381],[-50.9015935,-25.59058816],[-50.90093436,-25.58962277],[-50.90087339,-25.58916876],[-50.90251746,-25.58753694],[-50.90314542,-25.58750963],[-50.90348954,-25.58725357],[-50.90396037,-25.58520912],[-50.90488393,-25.58479847],[-50.9062914,-25.5855082],[-50.90710516,-25.58650118],[-50.90868133,-25.58688528],[-50.90875119,-25.5869456],[-50.90901542,-25.58717371],[-50.90926423,-25.58752618],[-50.90877853,-25.58844843],[-50.90941805,-25.58998515],[-50.90987252,-25.59066482],[-50.91090513,-25.59089313],[-50.91077813,-25.59211516],[-50.91118504,-25.59270904],[-50.91267378,-25.59398049],[-50.91335841,-25.59550822],[-50.91451671,-25.59607826],[-50.9148921,-25.59650463],[-50.91564351,-25.59636354],[-50.91617543,-25.59786821],[-50.91669074,-25.59808108],[-50.92044707,-25.59845234],[-50.92091772,-25.59873731],[-50.9237751,-25.60190157],[-50.92412289,-25.60247434],[-50.92396543,-25.60298508],[-50.92412206,-25.6034402],[-50.92449798,-25.60380885],[-50.92484173,-25.60341204],[-50.92493593,-25.60284404],[-50.92528102,-25.60258885],[-50.92603136,-25.60369676],[-50.92643753,-25.60389558],[-50.92684522,-25.60384011],[-50.92714452,-25.60342883],[-50.92673555,-25.6027168],[-50.92695577,-25.60220466],[-50.9274893,-25.60166753],[-50.92802169,-25.60152539],[-50.92852208,-25.60220597],[-50.9296795,-25.6023484],[-50.93024237,-25.6020653],[-50.93035201,-25.60171046],[-50.92991408,-25.60131257],[-50.92985183,-25.60094331],[-50.92999598,-25.60079663],[-50.9302283,-25.60074558],[-50.93119799,-25.60114199],[-50.93188694,-25.60102927],[-50.93245002,-25.60065958],[-50.93307616,-25.59980872],[-50.93335896,-25.59980834],[-50.93351543,-25.60003708],[-50.93337547,-25.60169717],[-50.93365583,-25.6020656],[-50.93437678,-25.60186966],[-50.93481503,-25.60104552],[-50.9344388,-25.60021965],[-50.93453292,-25.5999655],[-50.93594316,-25.59936913],[-50.93638055,-25.59939813],[-50.93714572,-25.60043505],[-50.93911767,-25.60131953],[-50.94052659,-25.60265128],[-50.94086967,-25.60364689],[-50.94068343,-25.60415616],[-50.94088627,-25.6045978],[-50.94119986,-25.60479645],[-50.94154189,-25.60473867],[-50.94235664,-25.60414423],[-50.9444843,-25.60556581],[-50.94514247,-25.60494103],[-50.94534663,-25.60396135],[-50.94575346,-25.60370469],[-50.94634881,-25.60359176],[-50.94725671,-25.60387584],[-50.94929123,-25.60296769],[-50.95039016,-25.60200305],[-50.95109321,-25.60164793],[-50.95331486,-25.60125047],[-50.95365877,-25.60088245],[-50.95378528,-25.60037011],[-50.95341157,-25.59951818],[-50.95356713,-25.59923463],[-50.95425735,-25.59914888],[-50.95500682,-25.59931869],[-50.9554771,-25.59914991],[-50.9556328,-25.59882126],[-50.95564959,-25.59851226],[-50.95477283,-25.59762913],[-50.95524257,-25.59689215],[-50.9553679,-25.59595411],[-50.95583665,-25.59572757],[-50.95662008,-25.59632466],[-50.95687005,-25.59632264],[-50.95857734,-25.59472393],[-50.95895334,-25.59477773],[-50.96014227,-25.59560148],[-50.96023609,-25.5958289],[-50.95995403,-25.59631186],[-50.96003126,-25.59648662],[-50.96045379,-25.59670914],[-50.96083048,-25.59653929],[-50.96170657,-25.59662331],[-50.96225423,-25.59729215],[-50.96222303,-25.59746285],[-50.96266026,-25.59757654],[-50.96265954,-25.597802],[-50.96303679,-25.59768897],[-50.96375613,-25.59782926],[-50.96344357,-25.59723475],[-50.96366295,-25.59706434],[-50.9651062,-25.5974009],[-50.96541743,-25.59737849],[-50.96566621,-25.59695075],[-50.96591605,-25.59695412],[-50.96615165,-25.59756056],[-50.96683973,-25.59736197],[-50.96721559,-25.59742207],[-50.96762264,-25.5981006],[-50.9680634,-25.59807455],[-50.96893732,-25.59844258],[-50.96940596,-25.59841711],[-50.97070802,-25.59681166],[-50.97164681,-25.59618624],[-50.97202357,-25.59522271],[-50.97264619,-25.59525001],[-50.97280379,-25.59456694],[-50.97317853,-25.59399929],[-50.97311817,-25.59323325],[-50.9735245,-25.59263648],[-50.97357133,-25.59200253],[-50.9746342,-25.5915483],[-50.97485673,-25.59069791],[-50.97523087,-25.59046935],[-50.97598361,-25.59046867],[-50.97612326,-25.58994395],[-50.97700058,-25.58966083],[-50.98272643,-25.58934874],[-50.98454217,-25.58991736],[-50.98588759,-25.58994506],[-50.98839048,-25.58943558],[-50.99039347,-25.58960484],[-50.99385491,-25.5913733],[-50.99494699,-25.59034412],[-50.99770638,-25.58845353],[-50.99591121,-25.5862639],[-50.99551115,-25.58530058],[-50.99449483,-25.5846953],[-50.99091768,-25.58099353],[-50.99056636,-25.57995455],[-50.98946829,-25.57852143],[-50.98854462,-25.57652549],[-50.98711923,-25.57484753],[-50.9864523,-25.57317614],[-50.98583899,-25.57313917],[-50.98540756,-25.57295532],[-50.98638896,-25.57260484],[-50.98698588,-25.57226267],[-50.98854885,-25.57186371],[-50.98936356,-25.57141057],[-50.99105333,-25.57095646],[-50.99346287,-25.57109792],[-50.99577896,-25.57155309],[-51.00042467,-25.57068597],[-51.00527682,-25.56952077],[-51.00810072,-25.56837083],[-51.00917678,-25.56793193],[-51.01069038,-25.56659012],[-51.01102689,-25.56646801],[-51.01232107,-25.56686509],[-51.0160265,-25.56893833],[-51.01811895,-25.56893944],[-51.02034196,-25.56933642],[-51.02461055,-25.56869263],[-51.02970757,-25.5687239],[-51.03132132,-25.56835706],[-51.03352362,-25.56414464],[-51.03479907,-25.56267778],[-51.03601115,-25.56188337],[-51.03738998,-25.5617949],[-51.03868399,-25.56203842],[-51.04043385,-25.56301267],[-51.04386357,-25.56554505],[-51.04470513,-25.56585245],[-51.04527656,-25.56585044],[-51.04576377,-25.56506207],[-51.04579698,-25.56411482],[-51.04522618,-25.56186204],[-51.04431543,-25.55926598],[-51.04443423,-25.55754931],[-51.04466774,-25.55667375],[-51.04503703,-25.55618694],[-51.05051093,-25.55397656],[-51.05601097,-25.55264225],[-51.05846421,-25.55224505],[-51.06446688,-25.55008712],[-51.06547067,-25.5498619],[-51.066041,-25.55022867],[-51.06932358,-25.5585263],[-51.06972853,-25.55898266],[-51.07174369,-25.55892102],[-51.07478593,-25.55849654],[-51.07621498,-25.55809244],[-51.07816453,-25.55754115],[-51.08039754,-25.5569092],[-51.0930138,-25.55468055],[-51.09570152,-25.55388421],[-51.0988745,-25.55269244],[-51.09904596,-25.55127707],[-51.09931062,-25.55049581],[-51.09840041,-25.54717124],[-51.09854978,-25.54613515],[-51.10056339,-25.54290272],[-51.10160268,-25.54165152],[-51.10277917,-25.54073584],[-51.10561737,-25.5390863],[-51.10655562,-25.5378944],[-51.10887379,-25.53609653],[-51.11120478,-25.53496452],[-51.11567129,-25.53325303],[-51.11917618,-25.53113287],[-51.12002543,-25.52990845],[-51.1216918,-25.52655339],[-51.12327212,-25.52525671],[-51.12570717,-25.52187337],[-51.12694054,-25.52176945],[-51.12847168,-25.52190587],[-51.13015436,-25.52232303],[-51.13160821,-25.52336619],[-51.13582098,-25.5246806],[-51.13957532,-25.52724331],[-51.14141056,-25.52647723],[-51.14133162,-25.52481246],[-51.14094721,-25.52314714],[-51.14094449,-25.5215115],[-51.14094447,-25.52150008],[-51.14094389,-25.52085336],[-51.14162937,-25.51926301],[-51.14251985,-25.51764089],[-51.14253619,-25.51761112],[-51.14430193,-25.51439388],[-51.14636368,-25.51022537],[-51.14628718,-25.5090432],[-51.14574545,-25.50792774],[-51.14107753,-25.50383932],[-51.13908687,-25.50307714],[-51.13610053,-25.50155229],[-51.13311567,-25.50080582],[-51.13273585,-25.50280618],[-51.13323684,-25.50487697],[-51.13472524,-25.50609213],[-51.13513909,-25.50693183],[-51.1354206,-25.50835883],[-51.13289941,-25.51204195],[-51.1320554,-25.51368508],[-51.13166406,-25.51491132],[-51.13165992,-25.51583846],[-51.13149599,-25.51637193],[-51.13111123,-25.51686049],[-51.13006954,-25.51744173],[-51.1295649,-25.51753197],[-51.1281883,-25.5172597],[-51.12775248,-25.51692556],[-51.12741465,-25.51573556],[-51.12650646,-25.51463902],[-51.12323057,-25.51369361],[-51.12175318,-25.51372777],[-51.12087885,-25.51342469],[-51.11987094,-25.51263193],[-51.11916563,-25.51241785],[-51.11880171,-25.51199129],[-51.11881299,-25.5118941],[-51.11856929,-25.51172425],[-51.1165353,-25.51148496],[-51.11451389,-25.51184299],[-51.11337172,-25.51150755],[-51.11212703,-25.51071639],[-51.1110677,-25.51120154],[-51.11049757,-25.51041282],[-51.10908467,-25.51087115],[-51.10867976,-25.51086948],[-51.10757704,-25.51038324],[-51.10651798,-25.51069067],[-51.10598164,-25.51056825],[-51.10349378,-25.50926004],[-51.10218651,-25.50950391],[-51.10053793,-25.50916919],[-51.10023536,-25.5089251],[-51.0998324,-25.50784922],[-51.0987891,-25.50696362],[-51.09698057,-25.50418141],[-51.09667109,-25.50401835],[-51.09653812,-25.50317691],[-51.09630025,-25.50276722],[-51.09495637,-25.50164115],[-51.09441788,-25.50032897],[-51.09411764,-25.50023735],[-51.09314226,-25.50054273],[-51.09295768,-25.50118397],[-51.09221955,-25.50142821],[-51.09070036,-25.5024588],[-51.09017709,-25.50328183],[-51.08986851,-25.5034119],[-51.08943274,-25.5041131],[-51.08886329,-25.50454015],[-51.08810422,-25.50466129],[-51.0875362,-25.50366869],[-51.08690313,-25.50335127],[-51.08648346,-25.50227233],[-51.08629072,-25.50106621],[-51.08598845,-25.50085276],[-51.08479686,-25.50112854],[-51.0839569,-25.50097476],[-51.08375423,-25.50042776],[-51.08338481,-25.50027611],[-51.08093398,-25.50058096],[-51.08066483,-25.50039702],[-51.08026112,-25.49948344],[-51.07954449,-25.49920852],[-51.0792422,-25.49887329],[-51.0788711,-25.49698265],[-51.07833396,-25.49640373],[-51.07806421,-25.49579316],[-51.07829872,-25.49539376],[-51.07816486,-25.49463526],[-51.07858458,-25.49509188],[-51.07885319,-25.49509182],[-51.0790548,-25.4945718],[-51.07875193,-25.49405527],[-51.07804711,-25.49411611],[-51.07811372,-25.4938712],[-51.07851681,-25.49365825],[-51.07838156,-25.49295745],[-51.07770903,-25.49283493],[-51.07733979,-25.49317032],[-51.07724155,-25.49426964],[-51.0770061,-25.49454365],[-51.0763203,-25.49427023],[-51.07562584,-25.4933283],[-51.07320748,-25.49098557],[-51.07173444,-25.48576462],[-51.07101027,-25.48420515],[-51.06953772,-25.48286435],[-51.06910748,-25.48169678],[-51.06878786,-25.48134044],[-51.06932317,-25.48088392],[-51.06935765,-25.48061042],[-51.06905425,-25.48048801],[-51.06838414,-25.48100678],[-51.06752767,-25.48112949],[-51.0662883,-25.48161794],[-51.06551233,-25.48112982],[-51.06541256,-25.48085544],[-51.06564745,-25.48027658],[-51.0655134,-25.48006194],[-51.06430404,-25.48009369],[-51.06397253,-25.47961355],[-51.06290996,-25.4788446],[-51.06287608,-25.47847864],[-51.06324385,-25.47808102],[-51.06260684,-25.47731967],[-51.06210313,-25.47733575],[-51.06100983,-25.47676821],[-51.05998793,-25.47674145],[-51.05924841,-25.47704593],[-51.05886267,-25.4767108],[-51.05863163,-25.47598643],[-51.05814793,-25.47583424],[-51.05762929,-25.47585091],[-51.05681463,-25.47515723],[-51.05651231,-25.47552187],[-51.0562768,-25.47555323],[-51.05624218,-25.47497349],[-51.05597509,-25.47491312],[-51.05543724,-25.47518735],[-51.05530338,-25.47504757],[-51.05531856,-25.47442464],[-51.05471425,-25.4741203],[-51.05481518,-25.473693],[-51.05511679,-25.47360254],[-51.05513492,-25.47338915],[-51.05488165,-25.47161898],[-51.05461281,-25.47134482],[-51.05417539,-25.47125397],[-51.05167457,-25.47171249],[-51.05113896,-25.47201742],[-51.05069912,-25.47426702],[-51.05043266,-25.47479201],[-51.05006461,-25.4749145],[-51.04962794,-25.47491474],[-51.04935911,-25.47464057],[-51.04843501,-25.47317621],[-51.04799177,-25.4731195],[-51.04739331,-25.47326892],[-51.04615149,-25.47381668],[-51.0458165,-25.4736043],[-51.04561581,-25.47290307],[-51.04584856,-25.47204912],[-51.04637,-25.47142915],[-51.04648662,-25.4710121],[-51.04633566,-25.47067716],[-51.04536214,-25.47119603],[-51.04499441,-25.47207884],[-51.04452169,-25.47253653],[-51.0431648,-25.47281092],[-51.04305325,-25.47283347],[-51.0425087,-25.47281169],[-51.04177088,-25.47247755],[-51.04126635,-25.4719587],[-51.04118109,-25.47137885],[-51.04147153,-25.47024106],[-51.04171795,-25.46927645],[-51.04208799,-25.4689096],[-51.04544332,-25.46714349],[-51.04559456,-25.46396723],[-51.04525835,-25.4636024],[-51.04458523,-25.4635122],[-51.0430221,-25.4640661],[-51.04188365,-25.46384747],[-51.04140858,-25.46395515],[-51.04077716,-25.46439611],[-51.04047406,-25.46430432],[-51.04000366,-25.46271828],[-51.04000322,-25.46033989],[-51.03955197,-25.4600034],[-51.03834106,-25.46067438],[-51.03672932,-25.46049307],[-51.03619147,-25.46064637],[-51.03595923,-25.46095105],[-51.03592361,-25.46147074],[-51.03638806,-25.46212048],[-51.03642707,-25.46272014],[-51.03624201,-25.46325035],[-51.03543835,-25.46430563],[-51.03574036,-25.46537419],[-51.03557251,-25.46564859],[-51.03466618,-25.46549592],[-51.03416261,-25.46583209],[-51.03419667,-25.46610606],[-51.03470121,-25.46650047],[-51.03473394,-25.46686911],[-51.03444926,-25.46708073],[-51.03391134,-25.46715465],[-51.03339765,-25.46745725],[-51.03169221,-25.46707827],[-51.029647,-25.46619815],[-51.02937325,-25.46636939],[-51.02897206,-25.46731461],[-51.02850605,-25.46794284],[-51.0274478,-25.46878998],[-51.02710998,-25.46873535],[-51.02667499,-25.4684253],[-51.02640663,-25.46708323],[-51.02617194,-25.46696032],[-51.02536676,-25.46714335],[-51.0246949,-25.46696109],[-51.02439188,-25.46650309],[-51.02445906,-25.46607694],[-51.02591838,-25.46509814],[-51.02605436,-25.46482671],[-51.02521322,-25.46174315],[-51.02403865,-25.45951959],[-51.02358592,-25.45924526],[-51.02311919,-25.4593774],[-51.02293414,-25.459582],[-51.02295394,-25.46023178],[-51.02388742,-25.46162251],[-51.02355331,-25.46250864],[-51.0230833,-25.46281389],[-51.02274525,-25.46381899],[-51.02235806,-25.46415388],[-51.0214875,-25.46400365],[-51.02049066,-25.46179449],[-51.02038009,-25.45982426],[-51.0214637,-25.45830936],[-51.02197207,-25.45717242],[-51.02214102,-25.45641012],[-51.02200687,-25.45592126],[-51.02140221,-25.45567812],[-51.01848298,-25.4556081],[-51.01769247,-25.45604573],[-51.01725657,-25.45650137],[-51.0169209,-25.4588197],[-51.01668584,-25.45927671],[-51.01598292,-25.45942839],[-51.0157122,-25.45915412],[-51.01567821,-25.45875839],[-51.01633147,-25.45723389],[-51.01673591,-25.45543376],[-51.01723778,-25.45452128],[-51.01660162,-25.45430634],[-51.01505735,-25.45558637],[-51.01453594,-25.4556777],[-51.01416795,-25.45555748],[-51.01399981,-25.45491551],[-51.01477176,-25.45406175],[-51.01672897,-25.45277206],[-51.01749048,-25.45205786],[-51.01840019,-25.4506567],[-51.01917522,-25.44802078],[-51.02095102,-25.44375373],[-51.02087482,-25.44268882],[-51.02034145,-25.44250123],[-51.01926358,-25.44290148],[-51.01736036,-25.44434834],[-51.01619641,-25.44472969],[-51.0138464,-25.44421117],[-51.01277944,-25.44336244],[-51.01252028,-25.44330667],[-51.01219395,-25.44343352],[-51.01189973,-25.44439439],[-51.01169087,-25.44451642],[-51.01004144,-25.44442155],[-51.00832561,-25.44387526],[-51.00765406,-25.44308324],[-51.00741879,-25.44174002],[-51.00782097,-25.44091844],[-51.00777085,-25.43984866],[-51.00804416,-25.43945287],[-51.00809227,-25.4391959],[-51.00790463,-25.43866085],[-51.00733435,-25.43860055],[-51.00391085,-25.43951572],[-51.00278454,-25.43930066],[-51.00241719,-25.43899644],[-51.00231639,-25.43856958],[-51.00248456,-25.43808328],[-51.00303986,-25.43758411],[-51.00312207,-25.43707531],[-51.00255095,-25.43576401],[-51.00244919,-25.43433241],[-51.00216521,-25.43399472],[-51.00166163,-25.43381129],[-50.99984862,-25.43390328],[-50.99894268,-25.43414726],[-50.99857341,-25.43448245],[-50.99770086,-25.43658682],[-50.99733275,-25.43707536],[-50.99689209,-25.4373216],[-50.99627439,-25.43740909],[-50.99298792,-25.43728961],[-50.99147342,-25.43689156],[-50.99030001,-25.43637331],[-50.98947725,-25.43555016],[-50.98897398,-25.43463525],[-50.98890267,-25.43306538],[-50.98853742,-25.43287842],[-50.98803256,-25.43286718],[-50.98732816,-25.43332265],[-50.98708318,-25.43317783],[-50.98692153,-25.43280113],[-50.98650771,-25.43284767],[-50.98551443,-25.43368322],[-50.98421407,-25.43419139],[-50.97854242,-25.43019952],[-50.96160589,-25.41827396],[-50.93300731,-25.39812772],[-50.93289131,-25.39804601],[-50.92212705,-25.39046314],[-50.92251183,-25.38991112],[-50.92183986,-25.3897158],[-50.91952082,-25.38967722],[-50.91940977,-25.38982281],[-50.91979292,-25.39027454],[-50.91907386,-25.39107209],[-50.91906159,-25.39143799],[-50.91758014,-25.39235124],[-50.91767948,-25.39262749],[-50.91821684,-25.39291741],[-50.91844276,-25.39337578],[-50.91784778,-25.39363209],[-50.91727621,-25.39363184],[-50.91634332,-25.39236052],[-50.91578603,-25.39125217],[-50.91330131,-25.39045787],[-50.91108717,-25.38926607],[-50.91009683,-25.38978551],[-50.91026525,-25.38914421],[-50.91016574,-25.38899242],[-50.90989602,-25.38908416],[-50.90939215,-25.38978245],[-50.90925781,-25.39033428],[-50.90885386,-25.39070007],[-50.90838552,-25.39039443],[-50.90761407,-25.3881371],[-50.90722873,-25.38804603],[-50.90625217,-25.38849269],[-50.90586119,-25.38838887],[-50.90586358,-25.38619108],[-50.90572889,-25.38597722],[-50.90512499,-25.38576522],[-50.90502384,-25.38552229],[-50.90579598,-25.38478907],[-50.90579717,-25.38439137],[-50.9056622,-25.38414954],[-50.90494219,-25.38408662],[-50.90487427,-25.38390482],[-50.905244,-25.38347699],[-50.90504322,-25.38277563],[-50.90477435,-25.38256165],[-50.90302953,-25.38250062],[-50.90252712,-25.38201297],[-50.90209014,-25.38192081],[-50.90176086,-25.38212672],[-50.90178806,-25.38277393],[-50.90151921,-25.38298742],[-50.90103429,-25.38286539],[-50.90043104,-25.38146203],[-50.90059942,-25.38109581],[-50.90127045,-25.38097465],[-50.90137176,-25.38082166],[-50.90096898,-25.38036406],[-50.90055317,-25.38022183],[-50.89989469,-25.38024134],[-50.89855215,-25.38112486],[-50.8980324,-25.38127716],[-50.8966216,-25.38121497],[-50.89585269,-25.38042227],[-50.89461065,-25.38075683],[-50.89430964,-25.38063414],[-50.8938726,-25.37996297],[-50.89357906,-25.37993693],[-50.89326891,-25.38005485],[-50.89288065,-25.38124342],[-50.8924132,-25.38121643],[-50.89194376,-25.37986997],[-50.89090379,-25.3791067],[-50.89020061,-25.37803939],[-50.88954417,-25.3778632],[-50.8894774,-25.37880062],[-50.88931011,-25.3790451],[-50.88810261,-25.37935057],[-50.88659209,-25.38081212],[-50.88675764,-25.38160384],[-50.88742944,-25.38187958],[-50.88758103,-25.38224713],[-50.88741161,-25.38245819],[-50.88700871,-25.3821232],[-50.88644031,-25.38200116],[-50.88565592,-25.38231736],[-50.88499488,-25.38282285],[-50.88462609,-25.38324975],[-50.88502799,-25.38416551],[-50.88412194,-25.3848056],[-50.88350071,-25.38581155],[-50.88272773,-25.38614601],[-50.88239272,-25.38599282],[-50.88219158,-25.38507859],[-50.88239451,-25.38453095],[-50.88202509,-25.38428595],[-50.88152282,-25.38437542],[-50.88111922,-25.38422258],[-50.8810524,-25.38376753],[-50.88179069,-25.38242317],[-50.88110415,-25.38202535],[-50.88050248,-25.37995098],[-50.88013259,-25.37964734],[-50.87945118,-25.37974654],[-50.87868738,-25.37941651],[-50.87704711,-25.37915718],[-50.87632681,-25.37875953],[-50.87589091,-25.37824074],[-50.87458398,-25.3778135],[-50.87357744,-25.37668287],[-50.87285445,-25.37654487],[-50.87260394,-25.37720241],[-50.87184874,-25.37765804],[-50.87057354,-25.37765801],[-50.86949982,-25.37790034],[-50.86913048,-25.37780772],[-50.86900257,-25.37768055],[-50.86876323,-25.37744188],[-50.86856186,-25.37661782],[-50.86863097,-25.37640465],[-50.86915478,-25.37621107],[-50.86873797,-25.37576301],[-50.86873055,-25.37555002],[-50.8695251,-25.37564897],[-50.86962276,-25.37548511],[-50.86949182,-25.37520546],[-50.86851324,-25.37472743],[-50.86841323,-25.3744818],[-50.86864807,-25.37423969],[-50.86838123,-25.37387328],[-50.86794336,-25.37393341],[-50.86612958,-25.37496984],[-50.8653739,-25.37594399],[-50.86503822,-25.37701094],[-50.86473592,-25.37728588],[-50.86396427,-25.37722346],[-50.86362985,-25.37701072],[-50.86326172,-25.37710209],[-50.8628886,-25.37777142],[-50.8622913,-25.37788496],[-50.86079392,-25.37725243],[-50.86031803,-25.37739831],[-50.85921811,-25.37819103],[-50.85633071,-25.37803925],[-50.85596153,-25.37782575],[-50.85562752,-25.37736771],[-50.85542522,-25.37654452],[-50.85453853,-25.37562917],[-50.854103,-25.37559822],[-50.85396846,-25.37584245],[-50.85413432,-25.37626896],[-50.85383264,-25.37663407],[-50.8532619,-25.37645143],[-50.8528611,-25.37596309],[-50.85220842,-25.37614214],[-50.85182429,-25.37608433],[-50.8507981,-25.37541308],[-50.85039467,-25.3758689],[-50.85006415,-25.37588979],[-50.84999431,-25.37563218],[-50.85052994,-25.3751377],[-50.84992663,-25.3748317],[-50.84989363,-25.37464793],[-50.85066441,-25.37443714],[-50.85066496,-25.37422432],[-50.84974389,-25.37402246],[-50.84897848,-25.37471583],[-50.8475616,-25.37473783],[-50.84709149,-25.37504341],[-50.84702259,-25.37574446],[-50.84658638,-25.37635198],[-50.84621723,-25.37644418],[-50.84578272,-25.37610661],[-50.84504283,-25.37619899],[-50.84474125,-25.37568029],[-50.84450726,-25.37562027],[-50.84428069,-25.37569477],[-50.84395294,-25.3761062],[-50.84358482,-25.37619661],[-50.84301466,-25.37564871],[-50.84234403,-25.37552431],[-50.84229711,-25.37522661],[-50.84254513,-25.37497671],[-50.84332445,-25.37516385],[-50.84336595,-25.37502045],[-50.84304924,-25.37470163],[-50.84331754,-25.37439805],[-50.84321815,-25.37424531],[-50.8420353,-25.37405854],[-50.84189266,-25.37384896],[-50.8419939,-25.37366355],[-50.84239738,-25.37366498],[-50.84273091,-25.37391021],[-50.84283212,-25.3737257],[-50.84236353,-25.37320883],[-50.84247906,-25.37308505],[-50.84333537,-25.37302494],[-50.84350488,-25.37265973],[-50.8414977,-25.37233624],[-50.8411576,-25.37238216],[-50.84105523,-25.37268749],[-50.84144909,-25.37340206],[-50.84043234,-25.37454723],[-50.84092245,-25.37496266],[-50.8408968,-25.37510821],[-50.8397621,-25.37478988],[-50.83888885,-25.37515622],[-50.83858557,-25.37512356],[-50.83858733,-25.37478902],[-50.83833362,-25.37476103],[-50.83769763,-25.37521453],[-50.83756601,-25.37454435],[-50.83626183,-25.37344588],[-50.83588915,-25.37207251],[-50.83548707,-25.37197911],[-50.83476528,-25.3724073],[-50.83416341,-25.3721626],[-50.83379251,-25.37319804],[-50.83288351,-25.37478195],[-50.83258029,-25.37611734],[-50.83291672,-25.37705075],[-50.83276333,-25.3778627],[-50.83289488,-25.3788395],[-50.83262571,-25.37932701],[-50.83134752,-25.37993531],[-50.83104672,-25.38060611],[-50.82980533,-25.38090856],[-50.82911566,-25.38170175],[-50.8274067,-25.38133488],[-50.82705357,-25.3815356],[-50.82696159,-25.38277181],[-50.82676273,-25.38319229],[-50.82723296,-25.38413941],[-50.82696437,-25.38456559],[-50.82657092,-25.38455892],[-50.82611314,-25.38423793],[-50.82557162,-25.3849901],[-50.82432927,-25.38547826],[-50.82252339,-25.38721589],[-50.82001472,-25.38800404],[-50.81858104,-25.38878955],[-50.81857054,-25.38879531],[-50.81823555,-25.38879528],[-50.81763247,-25.38836742],[-50.8173281,-25.38833739],[-50.81685781,-25.38940219],[-50.81610242,-25.39004328],[-50.81569787,-25.39114016],[-50.81542908,-25.39123084],[-50.81489262,-25.3908026],[-50.81465844,-25.39086247],[-50.81448972,-25.39138187],[-50.81408777,-25.39131997],[-50.81395098,-25.39107803],[-50.81294692,-25.39074067],[-50.8126799,-25.39000803],[-50.81175873,-25.38988348],[-50.81138771,-25.39000621],[-50.81115406,-25.39031047],[-50.81078213,-25.39107256],[-50.81067989,-25.39235182],[-50.81034441,-25.39259706],[-50.80943748,-25.39253503],[-50.80846471,-25.39165092],[-50.80789665,-25.39140413],[-50.80714217,-25.39140401],[-50.80573058,-25.39185857],[-50.80529642,-25.39173642],[-50.80475859,-25.3912477],[-50.80412095,-25.39164238],[-50.80388535,-25.39228386],[-50.80341429,-25.39276963],[-50.80237154,-25.39340982],[-50.80064635,-25.39380521],[-50.80000579,-25.39453528],[-50.79973473,-25.39602909],[-50.79899296,-25.39791848],[-50.79895875,-25.3986491],[-50.79971101,-25.4003915],[-50.79896745,-25.40343876],[-50.79846324,-25.40453702],[-50.79748754,-25.4054185],[-50.79636231,-25.4060893],[-50.79145657,-25.4077608],[-50.78986367,-25.40851965],[-50.78946023,-25.4090375],[-50.78887348,-25.40938181],[-50.78821603,-25.41017999],[-50.78784635,-25.41159856],[-50.78698277,-25.41267088],[-50.78658132,-25.41483635],[-50.78635329,-25.4152994],[-50.78563878,-25.41607286],[-50.78310384,-25.41287562],[-50.78333672,-25.41106991],[-50.78426134,-25.4094218],[-50.78562393,-25.40790228],[-50.78678573,-25.40720531],[-50.78733855,-25.40544083],[-50.78567266,-25.40452882],[-50.78455946,-25.4041447],[-50.78364553,-25.40333205],[-50.78175686,-25.40040414],[-50.78270168,-25.39889083],[-50.78495035,-25.39802914],[-50.78595681,-25.39640083],[-50.78786208,-25.39502748],[-50.78883976,-25.39407036],[-50.79098292,-25.38982812],[-50.79142212,-25.38788078],[-50.7904556,-25.38635372],[-50.7885931,-25.38510471],[-50.78744921,-25.38397145],[-50.78672695,-25.38166874],[-50.78575353,-25.38243116],[-50.78379156,-25.38276349],[-50.78037012,-25.38213323],[-50.7795567,-25.3817349],[-50.77727787,-25.38003838],[-50.77622121,-25.37824595],[-50.77523079,-25.37586969],[-50.77409243,-25.37457324],[-50.77322427,-25.37216178],[-50.77246403,-25.37114955],[-50.77167044,-25.36858912],[-50.77141328,-25.36678622],[-50.75037264,-25.36113672],[-50.73040146,-25.3557714],[-50.72702524,-25.35486415],[-50.72718993,-25.35568571],[-50.72686523,-25.35836757],[-50.72716331,-25.36058171],[-50.72680284,-25.36186143],[-50.72592131,-25.36418373],[-50.72530489,-25.36518723],[-50.7236047,-25.36687091],[-50.72236161,-25.36726709],[-50.72052183,-25.36730913],[-50.71805808,-25.36712443],[-50.71496925,-25.36653349],[-50.71439839,-25.36629081],[-50.7108535,-25.36364264],[-50.70743121,-25.36289261],[-50.70688074,-25.36298592],[-50.70505297,-25.36329575],[-50.70461554,-25.36399655],[-50.70424535,-25.36408747],[-50.70396146,-25.36451396],[-50.70294271,-25.36510166],[-50.70259867,-25.3654736],[-50.70201354,-25.36542805],[-50.70147178,-25.36557824],[-50.70056304,-25.36496995],[-50.69763939,-25.36532649],[-50.69711642,-25.36518763],[-50.6961256,-25.36555137],[-50.69594205,-25.36543002],[-50.69599158,-25.36510741],[-50.69513417,-25.3657176],[-50.69438682,-25.36589923],[-50.69425127,-25.36638764],[-50.69393158,-25.36663115],[-50.69233665,-25.36665939],[-50.69111179,-25.36609175],[-50.69048444,-25.36682881],[-50.69005265,-25.36699135],[-50.68950663,-25.36689613],[-50.6899479,-25.36511066],[-50.68916098,-25.36430126],[-50.68842445,-25.36437759],[-50.68783005,-25.36594679],[-50.68791876,-25.36750339],[-50.68759562,-25.36812735],[-50.68705928,-25.36866085],[-50.68622089,-25.36846255],[-50.68606929,-25.3689551],[-50.68502141,-25.36954922],[-50.68470863,-25.36953858],[-50.68414145,-25.36912635],[-50.68285445,-25.36846887],[-50.68205019,-25.36771314],[-50.68033809,-25.36770074],[-50.68011868,-25.36820077],[-50.68012309,-25.36963824],[-50.67987061,-25.36982101],[-50.67958585,-25.36962162],[-50.67936436,-25.36823607],[-50.67913859,-25.36809663],[-50.67747231,-25.3683341],[-50.67671961,-25.36798348],[-50.67633043,-25.36873036],[-50.67565028,-25.36899636],[-50.67533094,-25.36897112],[-50.67487986,-25.36842171],[-50.67491124,-25.36727631],[-50.67469956,-25.36680444],[-50.67384333,-25.36649656],[-50.6731553,-25.36661539],[-50.67310722,-25.36586767],[-50.67287302,-25.36574606],[-50.67234321,-25.36582156],[-50.67210355,-25.36695053],[-50.67192018,-25.36704107],[-50.67072823,-25.36679864],[-50.67071654,-25.3676956],[-50.63366323,-25.39085382]]]]},"geometry_name":"geom","properties":{"cd_recorte":"03014110706","quadro":"030","cd_uf":"41","sigla_uf":"PR","cd_mun":"4110706","nm_mun":"Irati","area_km2":999.517},"bbox":[-51.14636368,-25.62153783,-50.57968428,-25.35486415]}],"totalFeatures":1,"numberMatched":1,"numberReturned":1,"timeStamp":"2025-09-25T19:23:22.783Z","crs":{"type":"name","properties":{"name":"urn:ogc:def:crs:EPSG::4674"}},"bbox":[-51.14636368,-25.62153783,-50.57968428,-25.35486415]}