{"type":"FeatureCollection","features":[{"type":"Feature","id":"qg_2022_630_distrito_agreg.fid-c00e1b3_199824e30e7_-2046","geometry":{"type":"Polygon","coordinates":[[[-50.9190844,-25.5009998],[-50.9202266,-25.5047385],[-50.9199975,-25.5059187],[-50.9201235,-25.5066356],[-50.9206601,-25.5069355],[-50.9214483,-25.5070052],[-50.9223421,-25.5078104],[-50.9243531,-25.5081583],[-50.9259832,-25.5086542],[-50.9274093,-25.5083296],[-50.927842,-25.5077065],[-50.9282744,-25.507684],[-50.929468,-25.5094198],[-50.9303092,-25.5099506],[-50.9315831,-25.5103695],[-50.9317093,-25.5108068],[-50.9321926,-25.5112471],[-50.9328535,-25.5124496],[-50.9334387,-25.5127973],[-50.9337182,-25.513467],[-50.9338699,-25.5151332],[-50.9334884,-25.5156176],[-50.9335641,-25.5162424],[-50.9333357,-25.5164964],[-50.9328006,-25.5165655],[-50.9329793,-25.5170518],[-50.9329029,-25.5176301],[-50.9325204,-25.5181136],[-50.9325469,-25.518832],[-50.9322133,-25.5195474],[-50.9322395,-25.5205887],[-50.9326704,-25.5217224],[-50.9340951,-25.5235721],[-50.9340934,-25.5255156],[-50.93282,-25.5267164],[-50.9333539,-25.5277115],[-50.9334453,-25.52819],[-50.9336323,-25.5291685],[-50.9333524,-25.5311332],[-50.9338339,-25.5318034],[-50.9353134,-25.5324061],[-50.9354911,-25.5328914],[-50.9361278,-25.5328227],[-50.9364581,-25.5329847],[-50.9377791,-25.5356692],[-50.939002,-25.536501],[-50.9398695,-25.5363162],[-50.9404281,-25.5370114],[-50.9409117,-25.537173],[-50.9418777,-25.5372653],[-50.9427955,-25.5369409],[-50.9450856,-25.537683],[-50.9504852,-25.5406904],[-50.9523416,-25.5420557],[-50.9548117,-25.5424948],[-50.9574856,-25.5421959],[-50.9589385,-25.5415731],[-50.9606435,-25.5411331],[-50.9621965,-25.5414332],[-50.9628843,-25.5423358],[-50.9625021,-25.5432839],[-50.9627318,-25.5445567],[-50.9621977,-25.545921],[-50.9608961,-25.5473307],[-50.9604116,-25.5492957],[-50.9610731,-25.5517932],[-50.9605395,-25.55251],[-50.9615288,-25.5535749],[-50.9630085,-25.5551694],[-50.9635396,-25.5567641],[-50.9650188,-25.5594481],[-50.9647891,-25.5605806],[-50.9637947,-25.5612508],[-50.9639471,-25.5636557],[-50.9615011,-25.5644888],[-50.9606117,-25.5652965],[-50.9602789,-25.5660598],[-50.960457,-25.56673],[-50.9612459,-25.56754],[-50.9624427,-25.5683963],[-50.963793,-25.5686967],[-50.964786,-25.5692286],[-50.9653721,-25.5702238],[-50.9654472,-25.5713103],[-50.9647097,-25.5722114],[-50.9633588,-25.5728823],[-50.9625181,-25.573691],[-50.9625429,-25.5749163],[-50.963586,-25.5756333],[-50.9650395,-25.57575],[-50.9664901,-25.5761435],[-50.9668209,-25.576999],[-50.9665156,-25.579866],[-50.9667955,-25.5815989],[-50.9680932,-25.5824095],[-50.971532,-25.5825258],[-50.9738502,-25.5822725],[-50.9752519,-25.5818794],[-50.9764495,-25.5812087],[-50.9783073,-25.58077],[-50.9796591,-25.5801458],[-50.98004,-25.5792896],[-50.9805763,-25.5786658],[-50.9828682,-25.5772321],[-50.983861,-25.576191],[-50.9840401,-25.5746895],[-50.9847784,-25.5735097],[-50.9854076,-25.5729553],[-50.986389,-25.5726048],[-50.9869859,-25.5722627],[-50.9885489,-25.5718637],[-50.9893636,-25.5714106],[-50.9910533,-25.5709565],[-50.9934629,-25.5710979],[-50.995779,-25.5715531],[-51.0004247,-25.570686],[-51.0052768,-25.5695208],[-51.0081007,-25.5683708],[-51.0091768,-25.5679319],[-51.0106904,-25.5665901],[-51.0110269,-25.566468],[-51.0123211,-25.5668651],[-51.0160265,-25.5689383],[-51.018119,-25.5689394],[-51.020342,-25.5693364],[-51.0246106,-25.5686926],[-51.0297076,-25.5687239],[-51.0313213,-25.5683571],[-51.0335236,-25.5641446],[-51.0347991,-25.5626778],[-51.0360111,-25.5618834],[-51.03739,-25.5617949],[-51.038684,-25.5620384],[-51.0404339,-25.5630127],[-51.0438636,-25.5655451],[-51.0447051,-25.5658524],[-51.0452766,-25.5658504],[-51.0457638,-25.5650621],[-51.045797,-25.5641148],[-51.0452262,-25.561862],[-51.0443154,-25.559266],[-51.0444342,-25.5575493],[-51.0446677,-25.5566737],[-51.045037,-25.5561869],[-51.0505109,-25.5539766],[-51.056011,-25.5526423],[-51.0584642,-25.5522451],[-51.0644669,-25.5500871],[-51.0654707,-25.5498619],[-51.066041,-25.5502287],[-51.0693236,-25.5585263],[-51.0697285,-25.5589827],[-51.0717437,-25.558921],[-51.0747859,-25.5584965],[-51.076215,-25.5580924],[-51.0781645,-25.5575411],[-51.0803975,-25.5569092],[-51.0930138,-25.5546806],[-51.0957015,-25.5538842],[-51.0988745,-25.5526924],[-51.099046,-25.5512771],[-51.0993106,-25.5504958],[-51.0984004,-25.5471712],[-51.0985498,-25.5461352],[-51.1005634,-25.5429027],[-51.1016027,-25.5416515],[-51.1027792,-25.5407358],[-51.1056174,-25.5390863],[-51.1065556,-25.5378944],[-51.1088738,-25.5360965],[-51.1112048,-25.5349645],[-51.1156713,-25.533253],[-51.1191762,-25.5311329],[-51.1200254,-25.5299085],[-51.1216918,-25.5265534],[-51.1232721,-25.5252567],[-51.1257072,-25.5218734],[-51.1269405,-25.5217695],[-51.1284717,-25.5219059],[-51.1301544,-25.522323],[-51.1316082,-25.5233662],[-51.135821,-25.5246806],[-51.1395753,-25.5272433],[-51.1414106,-25.5264772],[-51.1413316,-25.5248125],[-51.1409472,-25.5231471],[-51.1409445,-25.5215115],[-51.1409445,-25.5215001],[-51.1409439,-25.5208534],[-51.1416294,-25.519263],[-51.1425198,-25.5176409],[-51.1425362,-25.5176111],[-51.1443019,-25.5143939],[-51.1463637,-25.5102254],[-51.1462872,-25.5090432],[-51.1457455,-25.5079277],[-51.1410775,-25.5038393],[-51.1390869,-25.5030771],[-51.1361005,-25.5015523],[-51.1331157,-25.5008058],[-51.1327359,-25.5028062],[-51.1332368,-25.504877],[-51.1347252,-25.5060921],[-51.1351391,-25.5069318],[-51.1354206,-25.5083588],[-51.1328994,-25.5120419],[-51.1320554,-25.5136851],[-51.1316641,-25.5149113],[-51.1316599,-25.5158385],[-51.131496,-25.5163719],[-51.1311112,-25.5168605],[-51.1300695,-25.5174417],[-51.1295649,-25.517532],[-51.1281883,-25.5172597],[-51.1277525,-25.5169256],[-51.1274147,-25.5157356],[-51.1265065,-25.514639],[-51.1232306,-25.5136936],[-51.1217532,-25.5137278],[-51.1208788,-25.5134247],[-51.1198709,-25.5126319],[-51.1191656,-25.5124178],[-51.1188017,-25.5119913],[-51.118813,-25.5118941],[-51.1185693,-25.5117243],[-51.1165353,-25.511485],[-51.1145139,-25.511843],[-51.1133717,-25.5115075],[-51.112127,-25.5107164],[-51.1110677,-25.5112015],[-51.1104976,-25.5104128],[-51.1090847,-25.5108711],[-51.1086798,-25.5108695],[-51.107577,-25.5103832],[-51.106518,-25.5106907],[-51.1059816,-25.5105683],[-51.1034938,-25.50926],[-51.1021865,-25.5095039],[-51.1005379,-25.5091692],[-51.1002354,-25.5089251],[-51.0998324,-25.5078492],[-51.0987891,-25.5069636],[-51.0969806,-25.5041814],[-51.0966711,-25.5040184],[-51.0965381,-25.5031769],[-51.0963002,-25.5027672],[-51.0949564,-25.5016412],[-51.0944179,-25.500329],[-51.0941176,-25.5002373],[-51.0931423,-25.5005427],[-51.0929577,-25.501184],[-51.0922195,-25.5014282],[-51.0907004,-25.5024588],[-51.0901771,-25.5032818],[-51.0898685,-25.5034119],[-51.0894327,-25.5041131],[-51.0888633,-25.5045402],[-51.0881042,-25.5046613],[-51.0875362,-25.5036687],[-51.0869031,-25.5033513],[-51.0864835,-25.5022723],[-51.0862907,-25.5010662],[-51.0859884,-25.5008528],[-51.0847969,-25.5011285],[-51.0839569,-25.5009748],[-51.0837542,-25.5004278],[-51.0833848,-25.5002761],[-51.080934,-25.500581],[-51.0806648,-25.500397],[-51.0802611,-25.4994834],[-51.0795445,-25.4992085],[-51.0792422,-25.4988733],[-51.0788711,-25.4969826],[-51.078334,-25.4964037],[-51.0780642,-25.4957932],[-51.0782987,-25.4953938],[-51.0781649,-25.4946353],[-51.0785846,-25.4950919],[-51.0788532,-25.4950918],[-51.0790548,-25.4945718],[-51.0787519,-25.4940553],[-51.0780471,-25.4941161],[-51.0781137,-25.4938712],[-51.0785168,-25.4936582],[-51.0783816,-25.4929575],[-51.077709,-25.4928349],[-51.0773398,-25.4931703],[-51.0772415,-25.4942696],[-51.0770061,-25.4945436],[-51.0763203,-25.4942702],[-51.0756258,-25.4933283],[-51.0732075,-25.4909856],[-51.0717344,-25.4857646],[-51.0710103,-25.4842052],[-51.0695377,-25.4828644],[-51.0691075,-25.4816968],[-51.0687879,-25.4813404],[-51.0693232,-25.4808839],[-51.0693577,-25.4806104],[-51.0690542,-25.480488],[-51.0683841,-25.4810068],[-51.0675277,-25.4811295],[-51.0662883,-25.4816179],[-51.0655123,-25.4811298],[-51.0654126,-25.4808554],[-51.0656475,-25.4802766],[-51.0655134,-25.4800619],[-51.064304,-25.4800937],[-51.0639725,-25.4796136],[-51.06291,-25.4788446],[-51.0628761,-25.4784786],[-51.0632438,-25.478081],[-51.0626068,-25.4773197],[-51.0621031,-25.4773358],[-51.0610098,-25.4767682],[-51.0599879,-25.4767414],[-51.0592484,-25.4770459],[-51.0588627,-25.4767108],[-51.0586316,-25.4759864],[-51.0581479,-25.4758342],[-51.0576293,-25.4758509],[-51.0568146,-25.4751572],[-51.0565123,-25.4755219],[-51.0562768,-25.4755532],[-51.0562422,-25.4749735],[-51.0559751,-25.4749131],[-51.0554372,-25.4751873],[-51.0553034,-25.4750476],[-51.0553186,-25.4744246],[-51.0547143,-25.4741203],[-51.0548152,-25.473693],[-51.0551168,-25.4736025],[-51.0551349,-25.4733891],[-51.0548817,-25.471619],[-51.0546128,-25.4713448],[-51.0541754,-25.471254],[-51.0516746,-25.4717125],[-51.051139,-25.4720174],[-51.0506991,-25.474267],[-51.0504327,-25.474792],[-51.0500646,-25.4749145],[-51.0496279,-25.4749147],[-51.0493591,-25.4746406],[-51.048435,-25.4731762],[-51.0479918,-25.4731195],[-51.0473933,-25.4732689],[-51.0461515,-25.4738167],[-51.0458165,-25.4736043],[-51.0456158,-25.4729031],[-51.0458486,-25.4720491],[-51.04637,-25.4714292],[-51.0464866,-25.4710121],[-51.0463357,-25.4706772],[-51.0453621,-25.471196],[-51.0449944,-25.4720788],[-51.0445217,-25.4725365],[-51.0431648,-25.4728109],[-51.0430532,-25.4728335],[-51.0425087,-25.4728117],[-51.0417709,-25.4724776],[-51.0412664,-25.4719587],[-51.0411811,-25.4713789],[-51.0414715,-25.4702411],[-51.041718,-25.4692764],[-51.042088,-25.4689096],[-51.0454433,-25.4671435],[-51.0455946,-25.4639672],[-51.0452584,-25.4636024],[-51.0445852,-25.4635122],[-51.0430221,-25.4640661],[-51.0418837,-25.4638475],[-51.0414086,-25.4639552],[-51.0407772,-25.4643961],[-51.0404741,-25.4643043],[-51.0400037,-25.4627183],[-51.0400032,-25.4603399],[-51.039552,-25.4600034],[-51.0383411,-25.4606744],[-51.0367293,-25.4604931],[-51.0361915,-25.4606464],[-51.0359592,-25.4609511],[-51.0359236,-25.4614707],[-51.0363881,-25.4621205],[-51.0364271,-25.4627201],[-51.036242,-25.4632504],[-51.0354384,-25.4643056],[-51.0357404,-25.4653742],[-51.0355725,-25.4656486],[-51.0346662,-25.4654959],[-51.0341626,-25.4658321],[-51.0341967,-25.4661061],[-51.0347012,-25.4665005],[-51.0347339,-25.4668691],[-51.0344493,-25.4670807],[-51.0339113,-25.4671547],[-51.0333976,-25.4674572],[-51.0316922,-25.4670783],[-51.029647,-25.4661981],[-51.0293733,-25.4663694],[-51.0289721,-25.4673146],[-51.028506,-25.4679428],[-51.0274478,-25.46879],[-51.02711,-25.4687353],[-51.026675,-25.4684253],[-51.0264066,-25.4670832],[-51.0261719,-25.4669603],[-51.0253668,-25.4671433],[-51.0246949,-25.4669611],[-51.0243919,-25.4665031],[-51.0244591,-25.4660769],[-51.0259184,-25.4650981],[-51.0260544,-25.4648267],[-51.0252132,-25.4617432],[-51.0240387,-25.4595196],[-51.0235859,-25.4592453],[-51.0231192,-25.4593774],[-51.0229341,-25.459582],[-51.0229539,-25.4602318],[-51.0238874,-25.4616225],[-51.0235533,-25.4625086],[-51.0230833,-25.4628139],[-51.0227453,-25.463819],[-51.0223581,-25.4641539],[-51.0214875,-25.4640036],[-51.0204907,-25.4617945],[-51.0203801,-25.4598243],[-51.0214637,-25.4583094],[-51.0219721,-25.4571724],[-51.022141,-25.4564101],[-51.0220069,-25.4559213],[-51.0214022,-25.4556781],[-51.018483,-25.4556081],[-51.0176925,-25.4560457],[-51.0172566,-25.4565014],[-51.0169209,-25.4588197],[-51.0166858,-25.4592767],[-51.0159829,-25.4594284],[-51.0157122,-25.4591541],[-51.0156782,-25.4587584],[-51.0163315,-25.4572339],[-51.0167359,-25.4554338],[-51.0172378,-25.4545213],[-51.0166016,-25.4543063],[-51.0150573,-25.4555864],[-51.0145359,-25.4556777],[-51.0141679,-25.4555575],[-51.0139998,-25.4549155],[-51.0147718,-25.4540617],[-51.016729,-25.4527721],[-51.0174905,-25.4520579],[-51.0184002,-25.4506567],[-51.0191752,-25.4480208],[-51.020951,-25.4437537],[-51.0208748,-25.4426888],[-51.0203415,-25.4425012],[-51.0192636,-25.4429015],[-51.0173604,-25.4443483],[-51.0161964,-25.4447297],[-51.0138464,-25.4442112],[-51.0127794,-25.4433624],[-51.0125203,-25.4433067],[-51.012194,-25.4434335],[-51.0118997,-25.4443944],[-51.0116909,-25.4445164],[-51.0100414,-25.4444216],[-51.0083256,-25.4438753],[-51.0076541,-25.4430832],[-51.0074188,-25.44174],[-51.007821,-25.4409184],[-51.0077709,-25.4398487],[-51.0080442,-25.4394529],[-51.0080923,-25.4391959],[-51.0079046,-25.4386609],[-51.0073343,-25.4386005],[-51.0039108,-25.4395157],[-51.0027845,-25.4393007],[-51.0024172,-25.4389964],[-51.0023164,-25.4385696],[-51.0024846,-25.4380833],[-51.0030399,-25.4375841],[-51.0031221,-25.4370753],[-51.002551,-25.435764],[-51.0024492,-25.4343324],[-51.0021652,-25.4339947],[-51.0016616,-25.4338113],[-50.9998486,-25.4339033],[-50.9989427,-25.4341473],[-50.9985734,-25.4344824],[-50.9977009,-25.4365868],[-50.9973327,-25.4370754],[-50.9968921,-25.4373216],[-50.9962744,-25.4374091],[-50.9929879,-25.4372896],[-50.9914734,-25.4368916],[-50.9903,-25.4363733],[-50.9894772,-25.4355502],[-50.988974,-25.4346353],[-50.9889027,-25.4330654],[-50.9885374,-25.4328784],[-50.9880326,-25.4328672],[-50.9873282,-25.4333226],[-50.9870832,-25.4331778],[-50.9869215,-25.4328011],[-50.9865077,-25.4328477],[-50.9855144,-25.4336832],[-50.9842141,-25.4341914],[-50.9785424,-25.4301995],[-50.9616059,-25.418274],[-50.9330073,-25.3981277],[-50.9328913,-25.398046],[-50.9221271,-25.3904631],[-50.9225118,-25.3899111],[-50.9218399,-25.3897158],[-50.9195208,-25.3896772],[-50.9194098,-25.3898228],[-50.9197929,-25.3902745],[-50.9190739,-25.3910721],[-50.9190616,-25.391438],[-50.9175801,-25.3923512],[-50.9176795,-25.3926275],[-50.9182168,-25.3929174],[-50.9184428,-25.3933758],[-50.9178478,-25.3936321],[-50.9172762,-25.3936318],[-50.9163433,-25.3923605],[-50.915786,-25.3912522],[-50.9133013,-25.3904579],[-50.9110872,-25.3892661],[-50.9100968,-25.3897855],[-50.9102653,-25.3891442],[-50.9101657,-25.3889924],[-50.909896,-25.3890842],[-50.9093922,-25.3897824],[-50.9092578,-25.3903343],[-50.9088539,-25.3907001],[-50.9083855,-25.3903944],[-50.9076141,-25.3881371],[-50.9072287,-25.388046],[-50.9062522,-25.3884927],[-50.9051194,-25.389139],[-50.9043328,-25.3893461],[-50.9041022,-25.3899716],[-50.9044324,-25.3907812],[-50.9044449,-25.3911855],[-50.9038338,-25.3918789],[-50.9034145,-25.3915201],[-50.9029818,-25.3917284],[-50.9029426,-25.3920179],[-50.9026767,-25.3921909],[-50.9023327,-25.3921539],[-50.9016097,-25.3903395],[-50.9013434,-25.3901427],[-50.90058,-25.3903737],[-50.8985196,-25.3902113],[-50.8980246,-25.3908692],[-50.8977309,-25.3909261],[-50.8973875,-25.3907529],[-50.8967517,-25.3899197],[-50.8956357,-25.3892487],[-50.8948199,-25.3893172],[-50.8945008,-25.3896288],[-50.8943099,-25.3914916],[-50.8947944,-25.3915145],[-50.8952896,-25.3905779],[-50.8954808,-25.3906821],[-50.8956066,-25.3915144],[-50.8952758,-25.3925545],[-50.8949306,-25.3929125],[-50.8945375,-25.3929691],[-50.8931903,-25.392322],[-50.8930764,-25.392032],[-50.8933055,-25.3914307],[-50.8931029,-25.3909223],[-50.8901912,-25.3904244],[-50.889885,-25.3910483],[-50.8902401,-25.3915789],[-50.8899605,-25.3921348],[-50.890189,-25.3927592],[-50.8892085,-25.3933942],[-50.8892088,-25.3940417],[-50.8895767,-25.3944237],[-50.8910636,-25.3952443],[-50.8913053,-25.3957427],[-50.8913688,-25.3962148],[-50.8908973,-25.3978931],[-50.8909581,-25.3985058],[-50.8913271,-25.3990033],[-50.8930322,-25.3995363],[-50.8928888,-25.4019529],[-50.8937021,-25.4019069],[-50.8941857,-25.4023933],[-50.8951025,-25.4025795],[-50.8954959,-25.4028223],[-50.8958621,-25.4034289],[-50.8960156,-25.4043835],[-50.8956841,-25.4050989],[-50.8950846,-25.4055282],[-50.8948695,-25.4059313],[-50.8951353,-25.4075846],[-50.8945751,-25.4083024],[-50.8944857,-25.4091915],[-50.8934552,-25.4089028],[-50.8912796,-25.4096514],[-50.8911655,-25.4095255],[-50.8913821,-25.4089123],[-50.8910009,-25.4087726],[-50.889741,-25.4098705],[-50.8886215,-25.4099858],[-50.8857728,-25.4094971],[-50.8850999,-25.4095316],[-50.8848617,-25.4097475],[-50.8846911,-25.4101569],[-50.8847546,-25.411208],[-50.8850711,-25.4128155],[-50.8857077,-25.4132321],[-50.8859222,-25.4139374],[-50.8858932,-25.4169201],[-50.8861834,-25.419244],[-50.8872746,-25.422668],[-50.8883541,-25.4245757],[-50.8893064,-25.4257457],[-50.8904887,-25.4265192],[-50.891441,-25.4274574],[-50.8921649,-25.4288102],[-50.8925837,-25.4303945],[-50.8934354,-25.4314939],[-50.8947963,-25.4322459],[-50.8983933,-25.4348686],[-50.9042418,-25.4386182],[-50.9049793,-25.4395672],[-50.9050041,-25.4409313],[-50.903756,-25.4422948],[-50.9028132,-25.4438901],[-50.9034225,-25.4456481],[-50.9035492,-25.446641],[-50.9042367,-25.4464345],[-50.9049741,-25.4459486],[-50.905763,-25.4460175],[-50.9055834,-25.4472439],[-50.9041321,-25.4493949],[-50.9006705,-25.4524902],[-50.8994202,-25.4548609],[-50.8990373,-25.4559495],[-50.898807,-25.4576374],[-50.8995427,-25.4604812],[-50.9050344,-25.465273],[-50.9072994,-25.466706],[-50.9086482,-25.4682567],[-50.9087725,-25.4708233],[-50.9093054,-25.4728583],[-50.9108052,-25.4764432],[-50.9118986,-25.477993],[-50.9141117,-25.4791271],[-50.9158148,-25.4804472],[-50.916959,-25.4817654],[-50.9176951,-25.48313],[-50.9186885,-25.4838471],[-50.9202419,-25.4845651],[-50.9213342,-25.4855421],[-50.9228598,-25.4873923],[-50.9236497,-25.488758],[-50.9239784,-25.490538],[-50.9235958,-25.4923183],[-50.9229074,-25.4932933],[-50.9217203,-25.4937283],[-50.9212271,-25.4947723],[-50.9211504,-25.4954416],[-50.9203608,-25.4954657],[-50.919928,-25.4960906],[-50.9180949,-25.4969675],[-50.9190844,-25.5009998]]]},"geometry_name":"geom","properties":{"cd_recorte":"6301411070620","quadro":630,"cd_dist":"411070620","nm_dist":"Itapará","cd_uf":"41","nm_uf":"Paraná","sigla_uf":"PR","cd_mun":"4110706","nm_mun":"Irati"},"bbox":[-51.1463637,-25.5825258,-50.8846911,-25.388046]},{"type":"Feature","id":"qg_2022_630_distrito_agreg.fid-c00e1b3_199824e30e7_-2045","geometry":{"type":"Polygon","coordinates":[[[-50.6076687,-25.5394642],[-50.6139558,-25.5593267],[-50.6218704,-25.5843228],[-50.6317204,-25.5812386],[-50.6799583,-25.5661215],[-50.680143,-25.5660635],[-50.7194242,-25.5537375],[-50.7196739,-25.5549857],[-50.7202957,-25.5563505],[-50.7202615,-25.5579701],[-50.7206957,-25.5585101],[-50.7211654,-25.558737],[-50.7216968,-25.5588517],[-50.722386,-25.5586543],[-50.723842,-25.5575353],[-50.7263503,-25.5570287],[-50.7276018,-25.5555552],[-50.7277759,-25.554605],[-50.726847,-25.5507699],[-50.7269112,-25.5502032],[-50.7274759,-25.5496062],[-50.7280381,-25.5494655],[-50.7287102,-25.549567],[-50.73068,-25.550336],[-50.7321794,-25.5512757],[-50.7332116,-25.5523014],[-50.7343291,-25.5527556],[-50.7360657,-25.554531],[-50.7375677,-25.555303],[-50.739289,-25.5554793],[-50.7410322,-25.5562791],[-50.7415547,-25.5563557],[-50.742525,-25.5562907],[-50.7438737,-25.5555568],[-50.7459048,-25.5562413],[-50.7461835,-25.5564982],[-50.7462152,-25.5569804],[-50.745696,-25.5580726],[-50.7446959,-25.5586113],[-50.7444686,-25.5589183],[-50.7441272,-25.5606484],[-50.7434655,-25.5625851],[-50.7437939,-25.5632507],[-50.7465761,-25.5638815],[-50.747607,-25.5644526],[-50.7482965,-25.5645374],[-50.7509408,-25.5641596],[-50.7523807,-25.5637352],[-50.7536959,-25.5638788],[-50.7542962,-25.5645035],[-50.7547827,-25.56695],[-50.7551426,-25.5675585],[-50.755552,-25.5678444],[-50.7572384,-25.567733],[-50.7576177,-25.5674735],[-50.7584295,-25.566202],[-50.7591212,-25.5656915],[-50.7601541,-25.5658551],[-50.761042,-25.5668179],[-50.762974,-25.5707103],[-50.7635526,-25.5713687],[-50.7643504,-25.5718751],[-50.7652554,-25.5720565],[-50.7653154,-25.5717125],[-50.7649837,-25.5712768],[-50.7639685,-25.5707485],[-50.7636937,-25.5704187],[-50.7635081,-25.5689546],[-50.7632627,-25.5684929],[-50.762305,-25.5675691],[-50.7622224,-25.5661984],[-50.7617149,-25.5651555],[-50.7609759,-25.5646144],[-50.7602,-25.564443],[-50.7592987,-25.5636818],[-50.7579217,-25.5633962],[-50.7572126,-25.5626699],[-50.7563132,-25.5628006],[-50.7559199,-25.5626557],[-50.7556021,-25.5618903],[-50.7550515,-25.5615985],[-50.7537911,-25.5604236],[-50.7542152,-25.5587241],[-50.7552355,-25.5570649],[-50.7549015,-25.556787],[-50.7558336,-25.5558139],[-50.7557625,-25.5543506],[-50.7555742,-25.5542842],[-50.7548617,-25.5546102],[-50.7544426,-25.5538335],[-50.7539197,-25.5538084],[-50.7533978,-25.5534893],[-50.7531684,-25.5520658],[-50.752588,-25.5519591],[-50.7523261,-25.5524069],[-50.7520226,-25.5523668],[-50.7515004,-25.5516537],[-50.7511668,-25.5515092],[-50.750324,-25.5516123],[-50.7492342,-25.5525999],[-50.7488726,-25.5526117],[-50.7481231,-25.551173],[-50.7486746,-25.5494755],[-50.748299,-25.5482345],[-50.748896,-25.5474334],[-50.748869,-25.5469576],[-50.7483168,-25.5468759],[-50.7479104,-25.546297],[-50.7482365,-25.5449119],[-50.747683,-25.5445813],[-50.7457517,-25.5448559],[-50.7439078,-25.5448393],[-50.7436033,-25.5446152],[-50.7433139,-25.5439829],[-50.7433737,-25.5436118],[-50.7441434,-25.5432313],[-50.7438702,-25.5422161],[-50.7445103,-25.5412943],[-50.7440918,-25.5400947],[-50.7441949,-25.5396335],[-50.7447639,-25.5383557],[-50.7453458,-25.5383298],[-50.7455342,-25.5381329],[-50.7455059,-25.5371575],[-50.7452166,-25.536445],[-50.7453194,-25.536064],[-50.7460896,-25.5354436],[-50.7460471,-25.5352478],[-50.7450876,-25.5352527],[-50.7447713,-25.535059],[-50.7453524,-25.5345859],[-50.7455281,-25.5337178],[-50.7466325,-25.533139],[-50.7466921,-25.5324793],[-50.7461993,-25.5318976],[-50.7463597,-25.5315963],[-50.7467216,-25.5314249],[-50.7475654,-25.5315058],[-50.7479415,-25.5311372],[-50.7472811,-25.5283948],[-50.7465407,-25.5286173],[-50.7463643,-25.52925],[-50.7460359,-25.5295466],[-50.7450574,-25.5297738],[-50.7443892,-25.5301945],[-50.7441577,-25.5298521],[-50.744391,-25.5294308],[-50.7438544,-25.5288093],[-50.7440881,-25.5281526],[-50.7445831,-25.5276252],[-50.7442359,-25.5271775],[-50.7444395,-25.52686],[-50.7439765,-25.5268344],[-50.7430166,-25.5273325],[-50.7410847,-25.5273428],[-50.7410433,-25.5267756],[-50.7405216,-25.5267478],[-50.7403634,-25.5260481],[-50.7409026,-25.5246921],[-50.7414693,-25.5246001],[-50.7413822,-25.5243628],[-50.7418309,-25.5242943],[-50.7415724,-25.5237701],[-50.7416745,-25.5235992],[-50.7422991,-25.5237988],[-50.7429229,-25.52347],[-50.7433002,-25.5235758],[-50.7433745,-25.5232203],[-50.7410663,-25.5232025],[-50.740284,-25.5229109],[-50.7394989,-25.5229097],[-50.7387576,-25.5234217],[-50.738511,-25.5233026],[-50.7373834,-25.5213234],[-50.7371951,-25.5212579],[-50.7371363,-25.5216263],[-50.7365575,-25.5210994],[-50.7367788,-25.5195055],[-50.7364596,-25.5192396],[-50.7370826,-25.5192012],[-50.7370973,-25.5190617],[-50.7363016,-25.5187528],[-50.7365359,-25.5183306],[-50.7365206,-25.5173157],[-50.7366813,-25.5172237],[-50.7373493,-25.5176191],[-50.7374213,-25.5174223],[-50.7365529,-25.5162343],[-50.7366578,-25.5147461],[-50.7376613,-25.5138116],[-50.7377048,-25.5134546],[-50.7372274,-25.5125981],[-50.7372722,-25.5122682],[-50.7378258,-25.5115573],[-50.737768,-25.5107137],[-50.7374353,-25.5105413],[-50.7363908,-25.5105668],[-50.7344764,-25.5099029],[-50.7333587,-25.5102838],[-50.7319664,-25.5090418],[-50.7313447,-25.5088169],[-50.7308825,-25.5090537],[-50.7307219,-25.5089608],[-50.7305335,-25.5077609],[-50.731002,-25.5062591],[-50.7310329,-25.5052318],[-50.7308032,-25.5044927],[-50.7302514,-25.5046237],[-50.7300049,-25.5045046],[-50.7303676,-25.5038589],[-50.7302245,-25.5035951],[-50.7290635,-25.5037],[-50.7282951,-25.503526],[-50.728005,-25.5031814],[-50.7281227,-25.5024716],[-50.7279209,-25.501917],[-50.7279673,-25.5009018],[-50.7277779,-25.5007308],[-50.7269654,-25.5007559],[-50.7268083,-25.5005306],[-50.7263569,-25.5004114],[-50.7258974,-25.4986446],[-50.7261464,-25.4974986],[-50.7257116,-25.4970227],[-50.7260915,-25.4962583],[-50.7246235,-25.4970083],[-50.7234913,-25.4971896],[-50.7202444,-25.4957067],[-50.7196209,-25.4956937],[-50.7184303,-25.4960855],[-50.7180684,-25.4959665],[-50.7178218,-25.4955588],[-50.7176797,-25.4943446],[-50.7170143,-25.4931304],[-50.7160583,-25.4926536],[-50.7157823,-25.4921921],[-50.7156295,-25.4897269],[-50.7152252,-25.4889351],[-50.7154149,-25.4887644],[-50.7153426,-25.4884607],[-50.7149231,-25.4881565],[-50.7150247,-25.4879333],[-50.7157814,-25.4876184],[-50.7160595,-25.4863928],[-50.7178772,-25.4841159],[-50.7179834,-25.4824429],[-50.7187418,-25.4812569],[-50.7188136,-25.4808482],[-50.7184085,-25.4801619],[-50.7179155,-25.4798172],[-50.7179317,-25.4795155],[-50.7184569,-25.4788573],[-50.7185023,-25.4775525],[-50.7188087,-25.477223],[-50.7189835,-25.4765371],[-50.7198719,-25.4754712],[-50.719685,-25.4741135],[-50.7208232,-25.4714274],[-50.7207805,-25.4709124],[-50.72039,-25.4705322],[-50.7183895,-25.4696561],[-50.7163812,-25.4681567],[-50.7086824,-25.4637336],[-50.6871539,-25.4513606],[-50.7277225,-25.4236491],[-50.7410175,-25.4145621],[-50.7690755,-25.4155136],[-50.7856388,-25.4160729],[-50.7831038,-25.4128756],[-50.7833367,-25.4110699],[-50.7842613,-25.4094218],[-50.7856239,-25.4079023],[-50.7867857,-25.4072053],[-50.7873385,-25.4054408],[-50.7856727,-25.4045288],[-50.7845595,-25.4041447],[-50.7836455,-25.4033321],[-50.7817569,-25.4004041],[-50.7827017,-25.3988908],[-50.7849503,-25.3980291],[-50.7859568,-25.3964008],[-50.7878621,-25.3950275],[-50.7888398,-25.3940704],[-50.7909829,-25.3898281],[-50.7914221,-25.3878808],[-50.7904556,-25.3863537],[-50.7885931,-25.3851047],[-50.7874492,-25.3839715],[-50.786727,-25.3816687],[-50.7857535,-25.3824312],[-50.7837916,-25.3827635],[-50.7803701,-25.3821332],[-50.7795567,-25.3817349],[-50.7772779,-25.3800384],[-50.7762212,-25.3782459],[-50.7752308,-25.3758697],[-50.7740924,-25.3745732],[-50.7732243,-25.3721618],[-50.772464,-25.3711496],[-50.7716704,-25.3685891],[-50.7714133,-25.3667862],[-50.7503726,-25.3611367],[-50.7304015,-25.3557714],[-50.7270252,-25.3548642],[-50.7271899,-25.3556857],[-50.7268652,-25.3583676],[-50.7271633,-25.3605817],[-50.7268028,-25.3618614],[-50.7259213,-25.3641837],[-50.7253049,-25.3651872],[-50.7236047,-25.3668709],[-50.7223616,-25.3672671],[-50.7205218,-25.3673091],[-50.7180581,-25.3671244],[-50.7149692,-25.3665335],[-50.7143984,-25.3662908],[-50.7108535,-25.3636426],[-50.7074312,-25.3628926],[-50.7068807,-25.3629859],[-50.705053,-25.3632958],[-50.7046155,-25.3639966],[-50.7042454,-25.3640875],[-50.7039615,-25.364514],[-50.7029427,-25.3651017],[-50.7025987,-25.3654736],[-50.7020135,-25.365428],[-50.7014718,-25.3655782],[-50.700563,-25.36497],[-50.6976394,-25.3653265],[-50.6971164,-25.3651876],[-50.6961256,-25.3655514],[-50.6959421,-25.36543],[-50.6959916,-25.3651074],[-50.6951342,-25.3657176],[-50.6943868,-25.3658992],[-50.6942513,-25.3663876],[-50.6939316,-25.3666312],[-50.6923367,-25.3666594],[-50.6911118,-25.3660917],[-50.6904844,-25.3668288],[-50.6900527,-25.3669914],[-50.6895066,-25.3668961],[-50.6899479,-25.3651107],[-50.689161,-25.3643013],[-50.6884245,-25.3643776],[-50.68783,-25.3659468],[-50.6879188,-25.3675034],[-50.6875956,-25.3681273],[-50.6870593,-25.3686608],[-50.6862209,-25.3684625],[-50.6860693,-25.3689551],[-50.6850214,-25.3695492],[-50.6847086,-25.3695386],[-50.6841415,-25.3691263],[-50.6828545,-25.3684689],[-50.6820502,-25.3677131],[-50.6803381,-25.3677007],[-50.6801187,-25.3682008],[-50.6801231,-25.3696382],[-50.6798706,-25.369821],[-50.6795859,-25.3696216],[-50.6793644,-25.3682361],[-50.6791386,-25.3680966],[-50.6774723,-25.3683341],[-50.6767196,-25.3679835],[-50.6763304,-25.3687304],[-50.6756503,-25.3689964],[-50.6753309,-25.3689711],[-50.6748799,-25.3684217],[-50.6749112,-25.3672763],[-50.6746996,-25.3668044],[-50.6738433,-25.3664966],[-50.6731553,-25.3666154],[-50.6731072,-25.3658677],[-50.672873,-25.3657461],[-50.6723432,-25.3658216],[-50.6721035,-25.3669505],[-50.6719202,-25.3670411],[-50.6707282,-25.3667986],[-50.6707165,-25.3676956],[-50.6336632,-25.3908538],[-50.6019204,-25.4106762],[-50.6016097,-25.4111884],[-50.599916,-25.4115235],[-50.5994346,-25.413726],[-50.5985431,-25.4148118],[-50.5985517,-25.4165928],[-50.5981375,-25.4173947],[-50.5985068,-25.4185124],[-50.5982914,-25.4220032],[-50.5978398,-25.4231776],[-50.59765,-25.4254364],[-50.5982098,-25.4265675],[-50.5974063,-25.4277752],[-50.5973704,-25.428768],[-50.5963362,-25.4300073],[-50.5952538,-25.4322861],[-50.5948175,-25.4325582],[-50.5947449,-25.434222],[-50.5944083,-25.4347326],[-50.5943819,-25.435035],[-50.5928892,-25.4362024],[-50.5926727,-25.4372866],[-50.5918954,-25.4392838],[-50.5906615,-25.4412524],[-50.5897905,-25.4420573],[-50.5881659,-25.4452161],[-50.5868343,-25.4461626],[-50.5859287,-25.4473471],[-50.5845294,-25.4479106],[-50.5832256,-25.4495619],[-50.5804734,-25.4515763],[-50.5796843,-25.4519412],[-50.5840845,-25.4655893],[-50.5951006,-25.4997427],[-50.6076687,-25.5394642]]]},"geometry_name":"geom","properties":{"cd_recorte":"6301411070605","quadro":630,"cd_dist":"411070605","nm_dist":"Irati","cd_uf":"41","nm_uf":"Paraná","sigla_uf":"PR","cd_mun":"4110706","nm_mun":"Irati"},"bbox":[-50.7914221,-25.5843228,-50.5796843,-25.3548642]},{"type":"Feature","id":"qg_2022_630_distrito_agreg.fid-c00e1b3_199824e30e7_-2044","geometry":{"type":"Polygon","coordinates":[[[-50.7773143,-25.5279241],[-50.7763603,-25.5295489],[-50.7760105,-25.5292328],[-50.7758966,-25.5286522],[-50.7752292,-25.5284924],[-50.7749249,-25.5287427],[-50.7749074,-25.5292843],[-50.7753987,-25.5305233],[-50.7747448,-25.5318273],[-50.7747279,-25.5322346],[-50.7756392,-25.534069],[-50.7763044,-25.5348348],[-50.7762629,-25.5350855],[-50.7758985,-25.5352037],[-50.7752747,-25.5350827],[-50.7746234,-25.5347275],[-50.7741158,-25.5341338],[-50.7726085,-25.5330762],[-50.7727116,-25.5323489],[-50.7724932,-25.5321791],[-50.7721307,-25.5322974],[-50.7708361,-25.5334421],[-50.7701377,-25.5345476],[-50.767272,-25.5372728],[-50.7663401,-25.5392487],[-50.7652518,-25.5389695],[-50.7650054,-25.5391408],[-50.7649454,-25.5398528],[-50.7653371,-25.5403151],[-50.7665691,-25.5411737],[-50.7679158,-25.5425064],[-50.7686723,-25.5426133],[-50.7703184,-25.5422095],[-50.7708482,-25.5422743],[-50.771036,-25.5424715],[-50.7708612,-25.5434199],[-50.7703808,-25.5442245],[-50.7694494,-25.5449606],[-50.7690297,-25.5447629],[-50.7679439,-25.543719],[-50.7675227,-25.5436529],[-50.7672751,-25.5439027],[-50.7678101,-25.5451824],[-50.7688099,-25.5456454],[-50.7697093,-25.5464389],[-50.7697805,-25.5467146],[-50.7684435,-25.5479512],[-50.768192,-25.5503859],[-50.7677542,-25.5512329],[-50.7678977,-25.5518917],[-50.767245,-25.5527349],[-50.767488,-25.5536582],[-50.7653968,-25.5548403],[-50.765062,-25.5552225],[-50.7650755,-25.5556836],[-50.7657407,-25.5564495],[-50.7665793,-25.5579532],[-50.7659948,-25.5604039],[-50.7660381,-25.5608657],[-50.7664004,-25.5612759],[-50.7672996,-25.561302],[-50.7681713,-25.5608298],[-50.7689999,-25.5599995],[-50.769218,-25.5601459],[-50.769361,-25.5609363],[-50.7686752,-25.5627148],[-50.7686019,-25.56344],[-50.7688597,-25.564627],[-50.7683083,-25.5651433],[-50.7674079,-25.5652731],[-50.7668843,-25.5658261],[-50.7676354,-25.5676985],[-50.7689405,-25.5684397],[-50.7696064,-25.5692578],[-50.7693874,-25.5694811],[-50.768736,-25.5694938],[-50.7673695,-25.5691454],[-50.7664109,-25.569328],[-50.7668442,-25.5703566],[-50.7666562,-25.57087],[-50.7653154,-25.5717125],[-50.7652554,-25.5720565],[-50.7653345,-25.5728554],[-50.7649851,-25.5748145],[-50.7654238,-25.5753841],[-50.7666731,-25.5763505],[-50.7667044,-25.5767768],[-50.7663271,-25.5772572],[-50.765028,-25.5780663],[-50.764712,-25.5784904],[-50.764993,-25.5801098],[-50.7653073,-25.5805659],[-50.766523,-25.580709],[-50.76668,-25.5809082],[-50.7665539,-25.5819307],[-50.7662216,-25.5823283],[-50.7689633,-25.5830407],[-50.7688373,-25.585654],[-50.7700523,-25.5871615],[-50.7710327,-25.5899903],[-50.7702182,-25.5906974],[-50.769777,-25.5916616],[-50.7691197,-25.5920024],[-50.7690857,-25.5937862],[-50.7695073,-25.5941752],[-50.7698516,-25.5941467],[-50.7701329,-25.593721],[-50.7702594,-25.5928689],[-50.7704802,-25.5928404],[-50.771543,-25.5933823],[-50.7787318,-25.5912772],[-50.7812976,-25.5906852],[-50.7823915,-25.5906597],[-50.7830656,-25.591441],[-50.7846267,-25.5916701],[-50.7848812,-25.5920968],[-50.7842531,-25.5927206],[-50.7832197,-25.5929747],[-50.7829684,-25.5932857],[-50.7830928,-25.5938836],[-50.7823233,-25.5948055],[-50.7818517,-25.5972479],[-50.7826013,-25.5974754],[-50.7828514,-25.5977316],[-50.7831302,-25.5986963],[-50.783883,-25.5985848],[-50.7850388,-25.5996373],[-50.7852275,-25.599582],[-50.7852436,-25.5990548],[-50.7864016,-25.5990567],[-50.7880903,-25.5984653],[-50.7888762,-25.5984933],[-50.7889687,-25.5987217],[-50.7876385,-25.5996105],[-50.7875762,-25.5999311],[-50.7883849,-25.6013755],[-50.788761,-25.6014613],[-50.7907518,-25.6005608],[-50.7919885,-25.599705],[-50.7927564,-25.5995487],[-50.7946333,-25.5996647],[-50.7948525,-25.5999211],[-50.7948488,-25.6003196],[-50.7945693,-25.6008311],[-50.7952278,-25.6007454],[-50.7954767,-25.6008599],[-50.7955999,-25.6015417],[-50.7947235,-25.601995],[-50.7947237,-25.60262],[-50.7957398,-25.6024934],[-50.7958959,-25.6030614],[-50.7948311,-25.6033726],[-50.7948631,-25.6036276],[-50.7984124,-25.6050381],[-50.7987868,-25.6057497],[-50.7991937,-25.6054646],[-50.7995382,-25.6054676],[-50.7998826,-25.6056943],[-50.7999139,-25.6060918],[-50.8003497,-25.6062907],[-50.8019782,-25.6064661],[-50.8025412,-25.6069752],[-50.8034654,-25.6069368],[-50.8037145,-25.6071902],[-50.8037149,-25.6078143],[-50.803901,-25.6080429],[-50.8044651,-25.6080994],[-50.8043386,-25.60881],[-50.8049306,-25.6102892],[-50.8046175,-25.6109416],[-50.8039917,-25.6107692],[-50.8037237,-25.6115208],[-50.8033469,-25.6119473],[-50.8027489,-25.61436],[-50.8017768,-25.6139889],[-50.8015282,-25.6136777],[-50.8014068,-25.6127399],[-50.8010774,-25.6124685],[-50.7980071,-25.6134023],[-50.7979435,-25.6143686],[-50.7964526,-25.6144072],[-50.7961583,-25.6146496],[-50.796159,-25.6148489],[-50.7969868,-25.6151764],[-50.7969861,-25.6158013],[-50.7958576,-25.6168506],[-50.7958245,-25.6173044],[-50.7961367,-25.6179578],[-50.7971964,-25.6190397],[-50.7971511,-25.6201046],[-50.7974004,-25.6205014],[-50.7982448,-25.6208446],[-50.7988732,-25.6201351],[-50.7991245,-25.6192262],[-50.7994391,-25.6188579],[-50.8010663,-25.619201],[-50.8045596,-25.6172339],[-50.8058447,-25.6168083],[-50.8100244,-25.6162872],[-50.8114028,-25.6159475],[-50.8128106,-25.6159223],[-50.8135944,-25.6160349],[-50.8138445,-25.616292],[-50.8137185,-25.6166878],[-50.8132188,-25.616603],[-50.8131879,-25.6168305],[-50.8143872,-25.6192608],[-50.8151692,-25.620341],[-50.8161064,-25.6210522],[-50.816984,-25.6214221],[-50.8178285,-25.6215378],[-50.8184549,-25.6214243],[-50.8188308,-25.6209978],[-50.8183016,-25.6202595],[-50.8182549,-25.6191664],[-50.8190719,-25.617349],[-50.8195737,-25.6166412],[-50.8206707,-25.6157912],[-50.8212034,-25.615534],[-50.8217051,-25.6155061],[-50.8228458,-25.6162054],[-50.8241307,-25.6164606],[-50.8245043,-25.6170576],[-50.8247207,-25.6185908],[-50.8243738,-25.6204094],[-50.8246714,-25.6205656],[-50.8252036,-25.6196861],[-50.825331,-25.6186347],[-50.8250529,-25.6165356],[-50.8252745,-25.6155385],[-50.8255865,-25.6154533],[-50.8260102,-25.6156969],[-50.8281675,-25.6159547],[-50.8289821,-25.6158434],[-50.8289837,-25.6153304],[-50.827045,-25.6136245],[-50.826686,-25.6129268],[-50.8267184,-25.6123035],[-50.8275317,-25.6125042],[-50.8286267,-25.6136128],[-50.8300336,-25.6142664],[-50.8303796,-25.6142099],[-50.8305064,-25.6137843],[-50.8301137,-25.6131175],[-50.8306152,-25.6120408],[-50.830616,-25.6116701],[-50.8299297,-25.6115254],[-50.829803,-25.6110438],[-50.8292401,-25.6113554],[-50.8289302,-25.6086856],[-50.8292581,-25.6088983],[-50.8293507,-25.609693],[-50.8312656,-25.6063753],[-50.8311098,-25.6060896],[-50.8304988,-25.6065282],[-50.8298123,-25.605222],[-50.8293737,-25.6051638],[-50.8294063,-25.6046811],[-50.8300024,-25.6040564],[-50.8299705,-25.6037158],[-50.8297194,-25.6033469],[-50.8288133,-25.6032317],[-50.8286565,-25.6030615],[-50.8287034,-25.6026774],[-50.8297378,-25.6021975],[-50.8301757,-25.6022818],[-50.8304259,-25.6025371],[-50.8304906,-25.6029912],[-50.8315833,-25.6036181],[-50.8312929,-25.6046228],[-50.8322397,-25.6043294],[-50.8344797,-25.6026131],[-50.8352004,-25.6022445],[-50.8370793,-25.6021345],[-50.8375165,-25.6017922],[-50.8382382,-25.6016509],[-50.8375649,-25.6030558],[-50.8377194,-25.603428],[-50.8379684,-25.6033134],[-50.8385659,-25.6019493],[-50.838786,-25.6019495],[-50.8389067,-25.6022813],[-50.8392236,-25.6021213],[-50.8393807,-25.6014113],[-50.8401031,-25.6009003],[-50.840232,-25.6005432],[-50.840414,-25.6004759],[-50.8405078,-25.6006186],[-50.8404933,-25.6010584],[-50.8407427,-25.6011161],[-50.8411191,-25.600887],[-50.8412142,-25.6006041],[-50.8409324,-25.6000353],[-50.8411202,-25.5997508],[-50.8407459,-25.5992142],[-50.8409337,-25.5989288],[-50.8415291,-25.5989281],[-50.8420606,-25.5992417],[-50.8422149,-25.5995823],[-50.8420272,-25.6005477],[-50.8423871,-25.6008756],[-50.842795,-25.6004344],[-50.842796,-25.599713],[-50.8432356,-25.5992021],[-50.8444245,-25.5985207],[-50.8450126,-25.5984991],[-50.8454895,-25.5986916],[-50.8456152,-25.5980369],[-50.8454432,-25.5974569],[-50.8462903,-25.5974292],[-50.8464126,-25.598082],[-50.8468534,-25.5975991],[-50.8475397,-25.5978574],[-50.8475422,-25.5973452],[-50.846947,-25.5970312],[-50.847011,-25.5968323],[-50.847292,-25.5967482],[-50.848042,-25.5970051],[-50.8486829,-25.5975898],[-50.8476164,-25.5994895],[-50.8481772,-25.5996323],[-50.8483966,-25.6006823],[-50.8486172,-25.6009666],[-50.8488984,-25.6007977],[-50.8485553,-25.5999453],[-50.8491036,-25.5999598],[-50.849446,-25.6003856],[-50.8496035,-25.600187],[-50.8494168,-25.5999043],[-50.8498855,-25.5998765],[-50.8505117,-25.6005285],[-50.850887,-25.6006439],[-50.8515818,-25.6005722],[-50.8516469,-25.6005655],[-50.8554419,-25.6001772],[-50.8558472,-25.6005196],[-50.8563811,-25.6005491],[-50.8564111,-25.6011161],[-50.8566304,-25.6012588],[-50.8574753,-25.6014303],[-50.8578806,-25.6018854],[-50.8586633,-25.6020014],[-50.8596935,-25.6025113],[-50.8596182,-25.6029534],[-50.8588658,-25.6034342],[-50.8590536,-25.6039441],[-50.8592094,-25.6040025],[-50.8597719,-25.6036646],[-50.860399,-25.6036348],[-50.8605566,-25.6033226],[-50.8603381,-25.6027263],[-50.8605577,-25.6026697],[-50.8609949,-25.60301],[-50.8611519,-25.6028691],[-50.8613254,-25.6018321],[-50.8620478,-25.6001008],[-50.8626109,-25.6000434],[-50.8640805,-25.601038],[-50.8648323,-25.6009252],[-50.8644889,-25.6005012],[-50.8649586,-25.6001298],[-50.8652096,-25.5994786],[-50.8662903,-25.5992375],[-50.8669484,-25.5986699],[-50.8672327,-25.5965116],[-50.8675145,-25.5958602],[-50.8683296,-25.595149],[-50.8687358,-25.5951514],[-50.8689542,-25.5954058],[-50.8684693,-25.5959032],[-50.8684696,-25.5961584],[-50.8690627,-25.5968601],[-50.8699078,-25.5968701],[-50.8702845,-25.5972397],[-50.871725,-25.5977521],[-50.8715394,-25.5983776],[-50.8715964,-25.5989434],[-50.8721431,-25.5987882],[-50.8728038,-25.5973125],[-50.8732416,-25.5968304],[-50.8745237,-25.5975693],[-50.8747745,-25.5979958],[-50.8765862,-25.5990499],[-50.8772278,-25.600227],[-50.8766314,-25.6019863],[-50.8765106,-25.602726],[-50.8763814,-25.6035213],[-50.876537,-25.6044292],[-50.8769118,-25.6049133],[-50.8778984,-25.6054962],[-50.8785232,-25.6054383],[-50.8784625,-25.6039057],[-50.8789947,-25.603082],[-50.8790905,-25.6021172],[-50.8797177,-25.6017771],[-50.8797176,-25.6013226],[-50.8801159,-25.6008224],[-50.8807978,-25.6005998],[-50.8813924,-25.6008262],[-50.8814552,-25.6010539],[-50.8808907,-25.6013954],[-50.8812035,-25.6016203],[-50.8817038,-25.6016787],[-50.8818921,-25.6019073],[-50.8818307,-25.6022757],[-50.8819862,-25.6025027],[-50.8822361,-25.6025026],[-50.8824873,-25.6019921],[-50.8829552,-25.6023051],[-50.8831449,-25.6022469],[-50.8832249,-25.6011601],[-50.8829091,-25.6010127],[-50.8826607,-25.6004167],[-50.8831612,-25.6001613],[-50.8835688,-25.6011846],[-50.8846004,-25.6024907],[-50.8847878,-25.6030584],[-50.8864299,-25.604437],[-50.8868506,-25.6051494],[-50.8876472,-25.6058031],[-50.8880542,-25.6076208],[-50.8884923,-25.6080468],[-50.8888062,-25.6080751],[-50.8893247,-25.6075513],[-50.8896705,-25.6049659],[-50.8910785,-25.6037747],[-50.8917661,-25.6037181],[-50.8923165,-25.6039597],[-50.8928465,-25.6045274],[-50.8937545,-25.6066867],[-50.8948784,-25.6061235],[-50.8955056,-25.6066319],[-50.8957565,-25.6065182],[-50.8956498,-25.6054824],[-50.8959145,-25.6051065],[-50.89665,-25.6047722],[-50.8974654,-25.6033529],[-50.8971862,-25.6021331],[-50.8963715,-25.6010228],[-50.8958878,-25.5995885],[-50.8960138,-25.5992196],[-50.8962325,-25.5989636],[-50.8973283,-25.5989075],[-50.8978298,-25.5982264],[-50.8990206,-25.5981128],[-50.8996151,-25.5972623],[-50.9005065,-25.5967924],[-50.9014165,-25.5957159],[-50.9029501,-25.5957447],[-50.9034182,-25.5954336],[-50.9036378,-25.5950631],[-50.9034514,-25.5946091],[-50.9005256,-25.5934289],[-50.9000883,-25.5930869],[-50.899995,-25.5926899],[-50.90012,-25.5923201],[-50.9015925,-25.5910138],[-50.9015935,-25.5905882],[-50.9009344,-25.5896228],[-50.9008734,-25.5891688],[-50.9025175,-25.5875369],[-50.9031454,-25.5875096],[-50.9034895,-25.5872536],[-50.9039604,-25.5852091],[-50.9048839,-25.5847985],[-50.9062914,-25.5855082],[-50.9071052,-25.5865012],[-50.9086813,-25.5868853],[-50.9087512,-25.5869456],[-50.9090154,-25.5871737],[-50.9092642,-25.5875262],[-50.9087785,-25.5884484],[-50.909418,-25.5899852],[-50.9098725,-25.5906648],[-50.9109051,-25.5908931],[-50.9107781,-25.5921152],[-50.911185,-25.592709],[-50.9126738,-25.5939805],[-50.9133584,-25.5955082],[-50.9145167,-25.5960783],[-50.9148921,-25.5965046],[-50.9156435,-25.5963635],[-50.9161754,-25.5978682],[-50.9166907,-25.5980811],[-50.9204471,-25.5984523],[-50.9209177,-25.5987373],[-50.9237751,-25.6019016],[-50.9241229,-25.6024743],[-50.9239654,-25.6029851],[-50.9241221,-25.6034402],[-50.924498,-25.6038088],[-50.9248417,-25.603412],[-50.9249359,-25.602844],[-50.925281,-25.6025889],[-50.9260314,-25.6036968],[-50.9264375,-25.6038956],[-50.9268452,-25.6038401],[-50.9271445,-25.6034288],[-50.9267356,-25.6027168],[-50.9269558,-25.6022047],[-50.9274893,-25.6016675],[-50.9280217,-25.6015254],[-50.9285221,-25.602206],[-50.9296795,-25.6023484],[-50.9302424,-25.6020653],[-50.930352,-25.6017105],[-50.9299141,-25.6013126],[-50.9298518,-25.6009433],[-50.929996,-25.6007966],[-50.9302283,-25.6007456],[-50.931198,-25.601142],[-50.9318869,-25.6010293],[-50.93245,-25.6006596],[-50.9330762,-25.5998087],[-50.933359,-25.5998083],[-50.9335154,-25.6000371],[-50.9333755,-25.6016972],[-50.9336558,-25.6020656],[-50.9343768,-25.6018697],[-50.934815,-25.6010455],[-50.9344388,-25.6002197],[-50.9345329,-25.5999655],[-50.9359432,-25.5993691],[-50.9363805,-25.5993981],[-50.9371457,-25.600435],[-50.9391177,-25.6013195],[-50.9405266,-25.6026513],[-50.9408697,-25.6036469],[-50.9406834,-25.6041562],[-50.9408863,-25.6045978],[-50.9411999,-25.6047965],[-50.9415419,-25.6047387],[-50.9423566,-25.6041442],[-50.9444843,-25.6055658],[-50.9451425,-25.604941],[-50.9453466,-25.6039614],[-50.9457535,-25.6037047],[-50.9463488,-25.6035918],[-50.9472567,-25.6038758],[-50.9492912,-25.6029677],[-50.9503902,-25.602003],[-50.9510932,-25.6016479],[-50.9533149,-25.6012505],[-50.9536588,-25.6008824],[-50.9537853,-25.6003701],[-50.9534116,-25.5995182],[-50.9535671,-25.5992346],[-50.9542574,-25.5991489],[-50.9550068,-25.5993187],[-50.9554771,-25.5991499],[-50.9556328,-25.5988213],[-50.9556496,-25.5985123],[-50.9547728,-25.5976291],[-50.9552426,-25.5968922],[-50.9553679,-25.5959541],[-50.9558366,-25.5957276],[-50.9566201,-25.5963247],[-50.9568701,-25.5963226],[-50.9585773,-25.5947239],[-50.9589533,-25.5947777],[-50.9601423,-25.5956015],[-50.9602361,-25.5958289],[-50.959954,-25.5963119],[-50.9600313,-25.5964866],[-50.9604538,-25.5967091],[-50.9608305,-25.5965393],[-50.9617066,-25.5966233],[-50.9622542,-25.5972921],[-50.962223,-25.5974629],[-50.9626603,-25.5975765],[-50.9626595,-25.597802],[-50.9630368,-25.597689],[-50.9637561,-25.5978293],[-50.9634436,-25.5972348],[-50.963663,-25.5970643],[-50.9651062,-25.5974009],[-50.9654174,-25.5973785],[-50.9656662,-25.5969508],[-50.965916,-25.5969541],[-50.9661517,-25.5975606],[-50.9668397,-25.597362],[-50.9672156,-25.5974221],[-50.9676226,-25.5981006],[-50.9680634,-25.5980746],[-50.9689373,-25.5984426],[-50.969406,-25.5984171],[-50.970708,-25.5968117],[-50.9716468,-25.5961862],[-50.9720236,-25.5952227],[-50.9726462,-25.59525],[-50.9728038,-25.5945669],[-50.9731785,-25.5939993],[-50.9731182,-25.5932332],[-50.9735245,-25.5926365],[-50.9735713,-25.5920025],[-50.9746342,-25.5915483],[-50.9748567,-25.5906979],[-50.9752309,-25.5904694],[-50.9759836,-25.5904687],[-50.9761233,-25.5899439],[-50.9770006,-25.5896608],[-50.9827264,-25.5893487],[-50.9845422,-25.5899174],[-50.9858876,-25.5899451],[-50.9883905,-25.5894356],[-50.9903935,-25.5896048],[-50.9938549,-25.5913733],[-50.994947,-25.5903441],[-50.9977064,-25.5884535],[-50.9959112,-25.5862639],[-50.9955112,-25.5853006],[-50.9944948,-25.5846953],[-50.9909177,-25.5809935],[-50.9905664,-25.5799546],[-50.9894683,-25.5785214],[-50.9885446,-25.5765255],[-50.9871192,-25.5748475],[-50.9864523,-25.5731761],[-50.985839,-25.5731392],[-50.9854076,-25.5729553],[-50.9847784,-25.5735097],[-50.9840401,-25.5746895],[-50.983861,-25.576191],[-50.9828682,-25.5772321],[-50.9805763,-25.5786658],[-50.98004,-25.5792896],[-50.9796591,-25.5801458],[-50.9783073,-25.58077],[-50.9764495,-25.5812087],[-50.9752519,-25.5818794],[-50.9738502,-25.5822725],[-50.971532,-25.5825258],[-50.9680932,-25.5824095],[-50.9667955,-25.5815989],[-50.9665156,-25.579866],[-50.9668209,-25.576999],[-50.9664901,-25.5761435],[-50.9650395,-25.57575],[-50.963586,-25.5756333],[-50.9625429,-25.5749163],[-50.9625181,-25.573691],[-50.9633588,-25.5728823],[-50.9647097,-25.5722114],[-50.9654472,-25.5713103],[-50.9653721,-25.5702238],[-50.964786,-25.5692286],[-50.963793,-25.5686967],[-50.9624427,-25.5683963],[-50.9612459,-25.56754],[-50.960457,-25.56673],[-50.9602789,-25.5660598],[-50.9606117,-25.5652965],[-50.9615011,-25.5644888],[-50.9639471,-25.5636557],[-50.9637947,-25.5612508],[-50.9647891,-25.5605806],[-50.9650188,-25.5594481],[-50.9635396,-25.5567641],[-50.9630085,-25.5551694],[-50.9615288,-25.5535749],[-50.9605395,-25.55251],[-50.9610731,-25.5517932],[-50.9604116,-25.5492957],[-50.9608961,-25.5473307],[-50.9621977,-25.545921],[-50.9627318,-25.5445567],[-50.9625021,-25.5432839],[-50.9628843,-25.5423358],[-50.9621965,-25.5414332],[-50.9606435,-25.5411331],[-50.9589385,-25.5415731],[-50.9574856,-25.5421959],[-50.9548117,-25.5424948],[-50.9523416,-25.5420557],[-50.9504852,-25.5406904],[-50.9450856,-25.537683],[-50.9427955,-25.5369409],[-50.9418777,-25.5372653],[-50.9409117,-25.537173],[-50.9404281,-25.5370114],[-50.9398695,-25.5363162],[-50.939002,-25.536501],[-50.9377791,-25.5356692],[-50.9364581,-25.5329847],[-50.9361278,-25.5328227],[-50.9354911,-25.5328914],[-50.9353134,-25.5324061],[-50.9338339,-25.5318034],[-50.9333524,-25.5311332],[-50.9336323,-25.5291685],[-50.9334453,-25.52819],[-50.9333539,-25.5277115],[-50.93282,-25.5267164],[-50.9340934,-25.5255156],[-50.9340951,-25.5235721],[-50.9326704,-25.5217224],[-50.9322395,-25.5205887],[-50.9322133,-25.5195474],[-50.9325469,-25.518832],[-50.9325204,-25.5181136],[-50.9329029,-25.5176301],[-50.9329793,-25.5170518],[-50.9328006,-25.5165655],[-50.9333357,-25.5164964],[-50.9335641,-25.5162424],[-50.9334884,-25.5156176],[-50.9338699,-25.5151332],[-50.9337182,-25.513467],[-50.9334387,-25.5127973],[-50.9328535,-25.5124496],[-50.9321926,-25.5112471],[-50.9317093,-25.5108068],[-50.9315831,-25.5103695],[-50.9303092,-25.5099506],[-50.929468,-25.5094198],[-50.9282744,-25.507684],[-50.927842,-25.5077065],[-50.9274093,-25.5083296],[-50.9259832,-25.5086542],[-50.9243531,-25.5081583],[-50.9223421,-25.5078104],[-50.9214483,-25.5070052],[-50.9206601,-25.5069355],[-50.9201235,-25.5066356],[-50.9199975,-25.5059187],[-50.9202266,-25.5047385],[-50.9190844,-25.5009998],[-50.9171233,-25.5033404],[-50.9159951,-25.5042321],[-50.9155538,-25.505186],[-50.915742,-25.5064634],[-50.9156399,-25.508007],[-50.9164372,-25.5097066],[-50.9164067,-25.5110164],[-50.9161889,-25.5117513],[-50.9152005,-25.5133584],[-50.9143591,-25.5141217],[-50.9135593,-25.5159799],[-50.9126585,-25.51743],[-50.91023,-25.519584],[-50.9082391,-25.5226002],[-50.9060608,-25.5234155],[-50.9057567,-25.5232441],[-50.9055111,-25.5223091],[-50.9029143,-25.5222146],[-50.9028986,-25.522438],[-50.9034786,-25.5231771],[-50.9035507,-25.5237432],[-50.9034194,-25.5242039],[-50.9030269,-25.5244536],[-50.9025492,-25.5244156],[-50.9010387,-25.5236757],[-50.900141,-25.5226746],[-50.8995605,-25.5227273],[-50.8994864,-25.5242949],[-50.9007483,-25.5257591],[-50.9005285,-25.5262983],[-50.899601,-25.5268775],[-50.8990359,-25.5266807],[-50.8977153,-25.524979],[-50.8971208,-25.5247274],[-50.8959379,-25.5247511],[-50.8957418,-25.5248714],[-50.895784,-25.5252024],[-50.896959,-25.5267973],[-50.8969297,-25.5275092],[-50.8965657,-25.5278126],[-50.8947509,-25.5283766],[-50.8935144,-25.5318703],[-50.8930208,-25.5324488],[-50.8921786,-25.5329243],[-50.8915093,-25.533793],[-50.8912046,-25.5339128],[-50.8906965,-25.533819],[-50.8899137,-25.5331071],[-50.8892179,-25.532921],[-50.8876189,-25.535029],[-50.8867478,-25.5355029],[-50.8858772,-25.5352652],[-50.884659,-25.53392],[-50.8847754,-25.5334192],[-50.8858355,-25.5325642],[-50.8859232,-25.5317508],[-50.8856788,-25.5305408],[-50.8860547,-25.5294368],[-50.885724,-25.5287931],[-50.8858833,-25.5281733],[-50.8854057,-25.5271315],[-50.8862794,-25.5252074],[-50.8859593,-25.5251556],[-50.8852911,-25.5259449],[-50.8848409,-25.5259579],[-50.8845071,-25.5262087],[-50.8841728,-25.5260898],[-50.8839559,-25.5256271],[-50.8845225,-25.5239545],[-50.8852935,-25.5228084],[-50.8853366,-25.5224485],[-50.8851935,-25.5216329],[-50.8855279,-25.5210944],[-50.8854258,-25.5209227],[-50.8843809,-25.5210006],[-50.8816529,-25.5207885],[-50.8779244,-25.5193221],[-50.87746,-25.5189272],[-50.8777216,-25.5186622],[-50.8776202,-25.5184652],[-50.8767344,-25.5188197],[-50.8763153,-25.5186728],[-50.8764184,-25.5182629],[-50.8769823,-25.5177004],[-50.8766349,-25.5173576],[-50.874502,-25.5164184],[-50.8741292,-25.5161733],[-50.8739085,-25.5157456],[-50.8740661,-25.5150365],[-50.8738385,-25.5130702],[-50.8708368,-25.5111034],[-50.8699947,-25.5110755],[-50.8695934,-25.5104744],[-50.8689071,-25.5103497],[-50.8685884,-25.5098226],[-50.8688364,-25.5087818],[-50.8683728,-25.5082804],[-50.8664451,-25.5075268],[-50.865586,-25.5080414],[-50.864804,-25.5081185],[-50.8640762,-25.5085926],[-50.8637731,-25.508579],[-50.8635547,-25.5084074],[-50.8636298,-25.5074315],[-50.8627438,-25.5064566],[-50.8622945,-25.5063631],[-50.8598557,-25.5069404],[-50.8578817,-25.5068603],[-50.8575194,-25.5066352],[-50.8570269,-25.5058707],[-50.8551966,-25.5072654],[-50.8549492,-25.5075956],[-50.854731,-25.5086362],[-50.8543384,-25.5089659],[-50.8537432,-25.50924],[-50.8524516,-25.5092799],[-50.8522919,-25.5094514],[-50.8538137,-25.5111533],[-50.8539022,-25.5119182],[-50.8525346,-25.5123903],[-50.8522883,-25.512219],[-50.8521151,-25.5116129],[-50.8514775,-25.5111113],[-50.8507193,-25.5111871],[-50.8504165,-25.5113871],[-50.8497633,-25.5125869],[-50.8494282,-25.5127303],[-50.8491248,-25.512612],[-50.8487645,-25.5117024],[-50.8477031,-25.5117671],[-50.8470082,-25.5114771],[-50.8467608,-25.5115404],[-50.8467744,-25.5118184],[-50.8470255,-25.5121079],[-50.8471653,-25.512964],[-50.8467287,-25.5134912],[-50.8464249,-25.513427],[-50.8460179,-25.5127409],[-50.8456858,-25.5125426],[-50.8429288,-25.5121163],[-50.8423926,-25.511313],[-50.8421174,-25.5112205],[-50.8416836,-25.5115628],[-50.8409565,-25.5115887],[-50.840825,-25.5117851],[-50.8418102,-25.5129192],[-50.8415483,-25.5134997],[-50.8411559,-25.5135129],[-50.8403297,-25.5131813],[-50.8398936,-25.5134181],[-50.8399653,-25.5137227],[-50.8406618,-25.5143293],[-50.8404578,-25.5147505],[-50.8397325,-25.5145924],[-50.8391239,-25.5140103],[-50.8383978,-25.514037],[-50.8370779,-25.5135216],[-50.8368313,-25.5137453],[-50.8368464,-25.5141551],[-50.8370919,-25.5144318],[-50.8381802,-25.5143651],[-50.8385855,-25.514657],[-50.8382802,-25.5154873],[-50.8390343,-25.5155676],[-50.8392376,-25.5159372],[-50.8382066,-25.5163966],[-50.8379588,-25.5166978],[-50.8379147,-25.5170549],[-50.8386528,-25.5182026],[-50.8385808,-25.5184806],[-50.8382754,-25.5187031],[-50.8379998,-25.5186638],[-50.8369425,-25.5170935],[-50.8366671,-25.5171579],[-50.8368544,-25.5181746],[-50.8365314,-25.5184626],[-50.8357508,-25.5185161],[-50.8340797,-25.5201619],[-50.8333406,-25.519962],[-50.8330049,-25.5205031],[-50.8321489,-25.5204377],[-50.8310626,-25.5215983],[-50.8294436,-25.5217825],[-50.8288521,-25.5225552],[-50.8286366,-25.5224621],[-50.8287375,-25.5215012],[-50.8279679,-25.5215918],[-50.827664,-25.5214202],[-50.8275619,-25.5210627],[-50.8281889,-25.5186784],[-50.8282193,-25.5178611],[-50.8289329,-25.5165319],[-50.8290787,-25.5158722],[-50.8288769,-25.515371],[-50.8275715,-25.5147629],[-50.8276586,-25.5142877],[-50.8281675,-25.5139317],[-50.8281533,-25.5135247],[-50.8274428,-25.513641],[-50.8270649,-25.5134055],[-50.8260198,-25.5137193],[-50.8253675,-25.5135492],[-50.8248878,-25.5140078],[-50.8242635,-25.5140204],[-50.8244662,-25.514601],[-50.8241761,-25.5150745],[-50.8238117,-25.5151938],[-50.8229416,-25.5150604],[-50.8226079,-25.5148088],[-50.8221613,-25.5137449],[-50.8220746,-25.5129567],[-50.8215621,-25.5124315],[-50.8224168,-25.5117503],[-50.8222065,-25.5111595],[-50.821045,-25.5112489],[-50.8187958,-25.5118666],[-50.8191933,-25.5108688],[-50.8180305,-25.5101375],[-50.8168858,-25.5097005],[-50.8152295,-25.5094617],[-50.8147807,-25.5094998],[-50.8140824,-25.5098688],[-50.8143875,-25.5106347],[-50.8137466,-25.5113576],[-50.813297,-25.5112387],[-50.8115019,-25.5097334],[-50.8101511,-25.5094551],[-50.8091341,-25.5097973],[-50.8076685,-25.5110722],[-50.807053,-25.5113961],[-50.8067209,-25.5120598],[-50.8074213,-25.5127802],[-50.8075908,-25.5134052],[-50.8065303,-25.5137339],[-50.8067916,-25.5143149],[-50.8067469,-25.5147251],[-50.8061073,-25.5153551],[-50.8060628,-25.5156057],[-50.8065991,-25.5164362],[-50.8062496,-25.5168579],[-50.8050018,-25.5171202],[-50.8043488,-25.5170528],[-50.8035949,-25.5162879],[-50.8031041,-25.5154701],[-50.8024065,-25.5152844],[-50.8014188,-25.515758],[-50.800518,-25.5167051],[-50.7996163,-25.5171246],[-50.7979186,-25.5174266],[-50.7971337,-25.5179794],[-50.7945629,-25.5191227],[-50.7938216,-25.5202409],[-50.7934291,-25.5203343],[-50.7926755,-25.5201212],[-50.7922376,-25.5202361],[-50.7917744,-25.5205154],[-50.7914393,-25.5210293],[-50.7914827,-25.5214902],[-50.7921784,-25.5218607],[-50.7922938,-25.5223096],[-50.7912926,-25.5222408],[-50.7905779,-25.5244165],[-50.7885786,-25.5222518],[-50.7878819,-25.5223294],[-50.7873292,-25.5230919],[-50.7873273,-25.5245447],[-50.7870339,-25.5253589],[-50.7844945,-25.5255007],[-50.7831591,-25.5258673],[-50.7828248,-25.5260918],[-50.7825039,-25.5267764],[-50.7818353,-25.5271441],[-50.7814115,-25.5283702],[-50.7801636,-25.5288163],[-50.7797131,-25.5288028],[-50.7794686,-25.5286053],[-50.7797588,-25.5275765],[-50.7795857,-25.5273139],[-50.7777565,-25.5276533],[-50.7773143,-25.5279241]]]},"geometry_name":"geom","properties":{"cd_recorte":"6301411070615","quadro":630,"cd_dist":"411070615","nm_dist":"Guamirim","cd_uf":"41","nm_uf":"Paraná","sigla_uf":"PR","cd_mun":"4110706","nm_mun":"Irati"},"bbox":[-50.9977064,-25.6215378,-50.764712,-25.5009998]},{"type":"Feature","id":"qg_2022_630_distrito_agreg.fid-c00e1b3_199824e30e7_-2043","geometry":{"type":"Polygon","coordinates":[[[-50.7308825,-25.5090537],[-50.7313447,-25.5088169],[-50.7319664,-25.5090418],[-50.7333587,-25.5102838],[-50.7344764,-25.5099029],[-50.7363908,-25.5105668],[-50.7374353,-25.5105413],[-50.737768,-25.5107137],[-50.7378258,-25.5115573],[-50.7372722,-25.5122682],[-50.7372274,-25.5125981],[-50.7377048,-25.5134546],[-50.7376613,-25.5138116],[-50.7366578,-25.5147461],[-50.7365529,-25.5162343],[-50.7374213,-25.5174223],[-50.7373493,-25.5176191],[-50.7366813,-25.5172237],[-50.7365206,-25.5173157],[-50.7365359,-25.5183306],[-50.7363016,-25.5187528],[-50.7370973,-25.5190617],[-50.7370826,-25.5192012],[-50.7364596,-25.5192396],[-50.7367788,-25.5195055],[-50.7365575,-25.5210994],[-50.7371363,-25.5216263],[-50.7371951,-25.5212579],[-50.7373834,-25.5213234],[-50.738511,-25.5233026],[-50.7387576,-25.5234217],[-50.7394989,-25.5229097],[-50.740284,-25.5229109],[-50.7410663,-25.5232025],[-50.7433745,-25.5232203],[-50.7433002,-25.5235758],[-50.7429229,-25.52347],[-50.7422991,-25.5237988],[-50.7416745,-25.5235992],[-50.7415724,-25.5237701],[-50.7418309,-25.5242943],[-50.7413822,-25.5243628],[-50.7414693,-25.5246001],[-50.7409026,-25.5246921],[-50.7403634,-25.5260481],[-50.7405216,-25.5267478],[-50.7410433,-25.5267756],[-50.7410847,-25.5273428],[-50.7430166,-25.5273325],[-50.7439765,-25.5268344],[-50.7444395,-25.52686],[-50.7442359,-25.5271775],[-50.7445831,-25.5276252],[-50.7440881,-25.5281526],[-50.7438544,-25.5288093],[-50.744391,-25.5294308],[-50.7441577,-25.5298521],[-50.7443892,-25.5301945],[-50.7450574,-25.5297738],[-50.7460359,-25.5295466],[-50.7463643,-25.52925],[-50.7465407,-25.5286173],[-50.7472811,-25.5283948],[-50.7479415,-25.5311372],[-50.7475654,-25.5315058],[-50.7467216,-25.5314249],[-50.7463597,-25.5315963],[-50.7461993,-25.5318976],[-50.7466921,-25.5324793],[-50.7466325,-25.533139],[-50.7455281,-25.5337178],[-50.7453524,-25.5345859],[-50.7447713,-25.535059],[-50.7450876,-25.5352527],[-50.7460471,-25.5352478],[-50.7460896,-25.5354436],[-50.7453194,-25.536064],[-50.7452166,-25.536445],[-50.7455059,-25.5371575],[-50.7455342,-25.5381329],[-50.7453458,-25.5383298],[-50.7447639,-25.5383557],[-50.7441949,-25.5396335],[-50.7440918,-25.5400947],[-50.7445103,-25.5412943],[-50.7438702,-25.5422161],[-50.7441434,-25.5432313],[-50.7433737,-25.5436118],[-50.7433139,-25.5439829],[-50.7436033,-25.5446152],[-50.7439078,-25.5448393],[-50.7457517,-25.5448559],[-50.747683,-25.5445813],[-50.7482365,-25.5449119],[-50.7479104,-25.546297],[-50.7483168,-25.5468759],[-50.748869,-25.5469576],[-50.748896,-25.5474334],[-50.748299,-25.5482345],[-50.7486746,-25.5494755],[-50.7481231,-25.551173],[-50.7488726,-25.5526117],[-50.7492342,-25.5525999],[-50.750324,-25.5516123],[-50.7511668,-25.5515092],[-50.7515004,-25.5516537],[-50.7520226,-25.5523668],[-50.7523261,-25.5524069],[-50.752588,-25.5519591],[-50.7531684,-25.5520658],[-50.7533978,-25.5534893],[-50.7539197,-25.5538084],[-50.7544426,-25.5538335],[-50.7548617,-25.5546102],[-50.7555742,-25.5542842],[-50.7557625,-25.5543506],[-50.7558336,-25.5558139],[-50.7549015,-25.556787],[-50.7552355,-25.5570649],[-50.7542152,-25.5587241],[-50.7537911,-25.5604236],[-50.7550515,-25.5615985],[-50.7556021,-25.5618903],[-50.7559199,-25.5626557],[-50.7563132,-25.5628006],[-50.7572126,-25.5626699],[-50.7579217,-25.5633962],[-50.7592987,-25.5636818],[-50.7602,-25.564443],[-50.7609759,-25.5646144],[-50.7617149,-25.5651555],[-50.7622224,-25.5661984],[-50.762305,-25.5675691],[-50.7632627,-25.5684929],[-50.7635081,-25.5689546],[-50.7636937,-25.5704187],[-50.7639685,-25.5707485],[-50.7649837,-25.5712768],[-50.7653154,-25.5717125],[-50.7666562,-25.57087],[-50.7668442,-25.5703566],[-50.7664109,-25.569328],[-50.7673695,-25.5691454],[-50.768736,-25.5694938],[-50.7693874,-25.5694811],[-50.7696064,-25.5692578],[-50.7689405,-25.5684397],[-50.7676354,-25.5676985],[-50.7668843,-25.5658261],[-50.7674079,-25.5652731],[-50.7683083,-25.5651433],[-50.7688597,-25.564627],[-50.7686019,-25.56344],[-50.7686752,-25.5627148],[-50.769361,-25.5609363],[-50.769218,-25.5601459],[-50.7689999,-25.5599995],[-50.7681713,-25.5608298],[-50.7672996,-25.561302],[-50.7664004,-25.5612759],[-50.7660381,-25.5608657],[-50.7659948,-25.5604039],[-50.7665793,-25.5579532],[-50.7657407,-25.5564495],[-50.7650755,-25.5556836],[-50.765062,-25.5552225],[-50.7653968,-25.5548403],[-50.767488,-25.5536582],[-50.767245,-25.5527349],[-50.7678977,-25.5518917],[-50.7677542,-25.5512329],[-50.768192,-25.5503859],[-50.7684435,-25.5479512],[-50.7697805,-25.5467146],[-50.7697093,-25.5464389],[-50.7688099,-25.5456454],[-50.7678101,-25.5451824],[-50.7672751,-25.5439027],[-50.7675227,-25.5436529],[-50.7679439,-25.543719],[-50.7690297,-25.5447629],[-50.7694494,-25.5449606],[-50.7703808,-25.5442245],[-50.7708612,-25.5434199],[-50.771036,-25.5424715],[-50.7708482,-25.5422743],[-50.7703184,-25.5422095],[-50.7686723,-25.5426133],[-50.7679158,-25.5425064],[-50.7665691,-25.5411737],[-50.7653371,-25.5403151],[-50.7649454,-25.5398528],[-50.7650054,-25.5391408],[-50.7652518,-25.5389695],[-50.7663401,-25.5392487],[-50.767272,-25.5372728],[-50.7701377,-25.5345476],[-50.7708361,-25.5334421],[-50.7721307,-25.5322974],[-50.7724932,-25.5321791],[-50.7727116,-25.5323489],[-50.7726085,-25.5330762],[-50.7741158,-25.5341338],[-50.7746234,-25.5347275],[-50.7752747,-25.5350827],[-50.7758985,-25.5352037],[-50.7762629,-25.5350855],[-50.7763044,-25.5348348],[-50.7756392,-25.534069],[-50.7747279,-25.5322346],[-50.7747448,-25.5318273],[-50.7753987,-25.5305233],[-50.7749074,-25.5292843],[-50.7749249,-25.5287427],[-50.7752292,-25.5284924],[-50.7758966,-25.5286522],[-50.7760105,-25.5292328],[-50.7763603,-25.5295489],[-50.7773143,-25.5279241],[-50.7777565,-25.5276533],[-50.7795857,-25.5273139],[-50.7797588,-25.5275765],[-50.7794686,-25.5286053],[-50.7797131,-25.5288028],[-50.7801636,-25.5288163],[-50.7814115,-25.5283702],[-50.7818353,-25.5271441],[-50.7825039,-25.5267764],[-50.7828248,-25.5260918],[-50.7831591,-25.5258673],[-50.7844945,-25.5255007],[-50.7870339,-25.5253589],[-50.7873273,-25.5245447],[-50.7873292,-25.5230919],[-50.7878819,-25.5223294],[-50.7885786,-25.5222518],[-50.7905779,-25.5244165],[-50.7912926,-25.5222408],[-50.7922938,-25.5223096],[-50.7921784,-25.5218607],[-50.7914827,-25.5214902],[-50.7914393,-25.5210293],[-50.7917744,-25.5205154],[-50.7922376,-25.5202361],[-50.7926755,-25.5201212],[-50.7934291,-25.5203343],[-50.7938216,-25.5202409],[-50.7945629,-25.5191227],[-50.7971337,-25.5179794],[-50.7979186,-25.5174266],[-50.7996163,-25.5171246],[-50.800518,-25.5167051],[-50.8014188,-25.515758],[-50.8024065,-25.5152844],[-50.8031041,-25.5154701],[-50.8035949,-25.5162879],[-50.8043488,-25.5170528],[-50.8050018,-25.5171202],[-50.8062496,-25.5168579],[-50.8065991,-25.5164362],[-50.8060628,-25.5156057],[-50.8061073,-25.5153551],[-50.8067469,-25.5147251],[-50.8067916,-25.5143149],[-50.8065303,-25.5137339],[-50.8075908,-25.5134052],[-50.8074213,-25.5127802],[-50.8067209,-25.5120598],[-50.807053,-25.5113961],[-50.8076685,-25.5110722],[-50.8091341,-25.5097973],[-50.8101511,-25.5094551],[-50.8115019,-25.5097334],[-50.813297,-25.5112387],[-50.8137466,-25.5113576],[-50.8143875,-25.5106347],[-50.8140824,-25.5098688],[-50.8147807,-25.5094998],[-50.8152295,-25.5094617],[-50.8168858,-25.5097005],[-50.8180305,-25.5101375],[-50.8191933,-25.5108688],[-50.8187958,-25.5118666],[-50.821045,-25.5112489],[-50.8222065,-25.5111595],[-50.8224168,-25.5117503],[-50.8215621,-25.5124315],[-50.8220746,-25.5129567],[-50.8221613,-25.5137449],[-50.8226079,-25.5148088],[-50.8229416,-25.5150604],[-50.8238117,-25.5151938],[-50.8241761,-25.5150745],[-50.8244662,-25.514601],[-50.8242635,-25.5140204],[-50.8248878,-25.5140078],[-50.8253675,-25.5135492],[-50.8260198,-25.5137193],[-50.8270649,-25.5134055],[-50.8274428,-25.513641],[-50.8281533,-25.5135247],[-50.8281675,-25.5139317],[-50.8276586,-25.5142877],[-50.8275715,-25.5147629],[-50.8288769,-25.515371],[-50.8290787,-25.5158722],[-50.8289329,-25.5165319],[-50.8282193,-25.5178611],[-50.8281889,-25.5186784],[-50.8275619,-25.5210627],[-50.827664,-25.5214202],[-50.8279679,-25.5215918],[-50.8287375,-25.5215012],[-50.8286366,-25.5224621],[-50.8288521,-25.5225552],[-50.8294436,-25.5217825],[-50.8310626,-25.5215983],[-50.8321489,-25.5204377],[-50.8330049,-25.5205031],[-50.8333406,-25.519962],[-50.8340797,-25.5201619],[-50.8357508,-25.5185161],[-50.8365314,-25.5184626],[-50.8368544,-25.5181746],[-50.8366671,-25.5171579],[-50.8369425,-25.5170935],[-50.8379998,-25.5186638],[-50.8382754,-25.5187031],[-50.8385808,-25.5184806],[-50.8386528,-25.5182026],[-50.8379147,-25.5170549],[-50.8379588,-25.5166978],[-50.8382066,-25.5163966],[-50.8392376,-25.5159372],[-50.8390343,-25.5155676],[-50.8382802,-25.5154873],[-50.8385855,-25.514657],[-50.8381802,-25.5143651],[-50.8370919,-25.5144318],[-50.8368464,-25.5141551],[-50.8368313,-25.5137453],[-50.8370779,-25.5135216],[-50.8383978,-25.514037],[-50.8391239,-25.5140103],[-50.8397325,-25.5145924],[-50.8404578,-25.5147505],[-50.8406618,-25.5143293],[-50.8399653,-25.5137227],[-50.8398936,-25.5134181],[-50.8403297,-25.5131813],[-50.8411559,-25.5135129],[-50.8415483,-25.5134997],[-50.8418102,-25.5129192],[-50.840825,-25.5117851],[-50.8409565,-25.5115887],[-50.8416836,-25.5115628],[-50.8421174,-25.5112205],[-50.8423926,-25.511313],[-50.8429288,-25.5121163],[-50.8456858,-25.5125426],[-50.8460179,-25.5127409],[-50.8464249,-25.513427],[-50.8467287,-25.5134912],[-50.8471653,-25.512964],[-50.8470255,-25.5121079],[-50.8467744,-25.5118184],[-50.8467608,-25.5115404],[-50.8470082,-25.5114771],[-50.8477031,-25.5117671],[-50.8487645,-25.5117024],[-50.8491248,-25.512612],[-50.8494282,-25.5127303],[-50.8497633,-25.5125869],[-50.8504165,-25.5113871],[-50.8507193,-25.5111871],[-50.8514775,-25.5111113],[-50.8521151,-25.5116129],[-50.8522883,-25.512219],[-50.8525346,-25.5123903],[-50.8539022,-25.5119182],[-50.8538137,-25.5111533],[-50.8522919,-25.5094514],[-50.8524516,-25.5092799],[-50.8537432,-25.50924],[-50.8543384,-25.5089659],[-50.854731,-25.5086362],[-50.8549492,-25.5075956],[-50.8551966,-25.5072654],[-50.8570269,-25.5058707],[-50.8575194,-25.5066352],[-50.8578817,-25.5068603],[-50.8598557,-25.5069404],[-50.8622945,-25.5063631],[-50.8627438,-25.5064566],[-50.8636298,-25.5074315],[-50.8635547,-25.5084074],[-50.8637731,-25.508579],[-50.8640762,-25.5085926],[-50.864804,-25.5081185],[-50.865586,-25.5080414],[-50.8664451,-25.5075268],[-50.8683728,-25.5082804],[-50.8688364,-25.5087818],[-50.8685884,-25.5098226],[-50.8689071,-25.5103497],[-50.8695934,-25.5104744],[-50.8699947,-25.5110755],[-50.8708368,-25.5111034],[-50.8738385,-25.5130702],[-50.8740661,-25.5150365],[-50.8739085,-25.5157456],[-50.8741292,-25.5161733],[-50.874502,-25.5164184],[-50.8766349,-25.5173576],[-50.8769823,-25.5177004],[-50.8764184,-25.5182629],[-50.8763153,-25.5186728],[-50.8767344,-25.5188197],[-50.8776202,-25.5184652],[-50.8777216,-25.5186622],[-50.87746,-25.5189272],[-50.8779244,-25.5193221],[-50.8816529,-25.5207885],[-50.8843809,-25.5210006],[-50.8854258,-25.5209227],[-50.8855279,-25.5210944],[-50.8851935,-25.5216329],[-50.8853366,-25.5224485],[-50.8852935,-25.5228084],[-50.8845225,-25.5239545],[-50.8839559,-25.5256271],[-50.8841728,-25.5260898],[-50.8845071,-25.5262087],[-50.8848409,-25.5259579],[-50.8852911,-25.5259449],[-50.8859593,-25.5251556],[-50.8862794,-25.5252074],[-50.8854057,-25.5271315],[-50.8858833,-25.5281733],[-50.885724,-25.5287931],[-50.8860547,-25.5294368],[-50.8856788,-25.5305408],[-50.8859232,-25.5317508],[-50.8858355,-25.5325642],[-50.8847754,-25.5334192],[-50.884659,-25.53392],[-50.8858772,-25.5352652],[-50.8867478,-25.5355029],[-50.8876189,-25.535029],[-50.8892179,-25.532921],[-50.8899137,-25.5331071],[-50.8906965,-25.533819],[-50.8912046,-25.5339128],[-50.8915093,-25.533793],[-50.8921786,-25.5329243],[-50.8930208,-25.5324488],[-50.8935144,-25.5318703],[-50.8947509,-25.5283766],[-50.8965657,-25.5278126],[-50.8969297,-25.5275092],[-50.896959,-25.5267973],[-50.895784,-25.5252024],[-50.8957418,-25.5248714],[-50.8959379,-25.5247511],[-50.8971208,-25.5247274],[-50.8977153,-25.524979],[-50.8990359,-25.5266807],[-50.899601,-25.5268775],[-50.9005285,-25.5262983],[-50.9007483,-25.5257591],[-50.8994864,-25.5242949],[-50.8995605,-25.5227273],[-50.900141,-25.5226746],[-50.9010387,-25.5236757],[-50.9025492,-25.5244156],[-50.9030269,-25.5244536],[-50.9034194,-25.5242039],[-50.9035507,-25.5237432],[-50.9034786,-25.5231771],[-50.9028986,-25.522438],[-50.9029143,-25.5222146],[-50.9055111,-25.5223091],[-50.9057567,-25.5232441],[-50.9060608,-25.5234155],[-50.9082391,-25.5226002],[-50.91023,-25.519584],[-50.9126585,-25.51743],[-50.9135593,-25.5159799],[-50.9143591,-25.5141217],[-50.9152005,-25.5133584],[-50.9161889,-25.5117513],[-50.9164067,-25.5110164],[-50.9164372,-25.5097066],[-50.9156399,-25.508007],[-50.915742,-25.5064634],[-50.9155538,-25.505186],[-50.9159951,-25.5042321],[-50.9171233,-25.5033404],[-50.9190844,-25.5009998],[-50.9180949,-25.4969675],[-50.919928,-25.4960906],[-50.9203608,-25.4954657],[-50.9211504,-25.4954416],[-50.9212271,-25.4947723],[-50.9217203,-25.4937283],[-50.9229074,-25.4932933],[-50.9235958,-25.4923183],[-50.9239784,-25.490538],[-50.9236497,-25.488758],[-50.9228598,-25.4873923],[-50.9213342,-25.4855421],[-50.9202419,-25.4845651],[-50.9186885,-25.4838471],[-50.9176951,-25.48313],[-50.916959,-25.4817654],[-50.9158148,-25.4804472],[-50.9141117,-25.4791271],[-50.9118986,-25.477993],[-50.9108052,-25.4764432],[-50.9093054,-25.4728583],[-50.9087725,-25.4708233],[-50.9086482,-25.4682567],[-50.9072994,-25.466706],[-50.9050344,-25.465273],[-50.8995427,-25.4604812],[-50.898807,-25.4576374],[-50.8990373,-25.4559495],[-50.8994202,-25.4548609],[-50.9006705,-25.4524902],[-50.9041321,-25.4493949],[-50.9055834,-25.4472439],[-50.905763,-25.4460175],[-50.9049741,-25.4459486],[-50.9042367,-25.4464345],[-50.9035492,-25.446641],[-50.9034225,-25.4456481],[-50.9028132,-25.4438901],[-50.903756,-25.4422948],[-50.9050041,-25.4409313],[-50.9049793,-25.4395672],[-50.9042418,-25.4386182],[-50.8983933,-25.4348686],[-50.8947963,-25.4322459],[-50.8934354,-25.4314939],[-50.8925837,-25.4303945],[-50.8921649,-25.4288102],[-50.891441,-25.4274574],[-50.8904887,-25.4265192],[-50.8893064,-25.4257457],[-50.8883541,-25.4245757],[-50.8872746,-25.422668],[-50.8861834,-25.419244],[-50.8858932,-25.4169201],[-50.8859222,-25.4139374],[-50.8857077,-25.4132321],[-50.8850711,-25.4128155],[-50.8847546,-25.411208],[-50.8846911,-25.4101569],[-50.8848617,-25.4097475],[-50.8850999,-25.4095316],[-50.8857728,-25.4094971],[-50.8886215,-25.4099858],[-50.889741,-25.4098705],[-50.8910009,-25.4087726],[-50.8913821,-25.4089123],[-50.8911655,-25.4095255],[-50.8912796,-25.4096514],[-50.8934552,-25.4089028],[-50.8944857,-25.4091915],[-50.8945751,-25.4083024],[-50.8951353,-25.4075846],[-50.8948695,-25.4059313],[-50.8950846,-25.4055282],[-50.8956841,-25.4050989],[-50.8960156,-25.4043835],[-50.8958621,-25.4034289],[-50.8954959,-25.4028223],[-50.8951025,-25.4025795],[-50.8941857,-25.4023933],[-50.8937021,-25.4019069],[-50.8928888,-25.4019529],[-50.8930322,-25.3995363],[-50.8913271,-25.3990033],[-50.8909581,-25.3985058],[-50.8908973,-25.3978931],[-50.8913688,-25.3962148],[-50.8913053,-25.3957427],[-50.8910636,-25.3952443],[-50.8895767,-25.3944237],[-50.8892088,-25.3940417],[-50.8892085,-25.3933942],[-50.890189,-25.3927592],[-50.8899605,-25.3921348],[-50.8902401,-25.3915789],[-50.889885,-25.3910483],[-50.8901912,-25.3904244],[-50.8931029,-25.3909223],[-50.8933055,-25.3914307],[-50.8930764,-25.392032],[-50.8931903,-25.392322],[-50.8945375,-25.3929691],[-50.8949306,-25.3929125],[-50.8952758,-25.3925545],[-50.8956066,-25.3915144],[-50.8954808,-25.3906821],[-50.8952896,-25.3905779],[-50.8947944,-25.3915145],[-50.8943099,-25.3914916],[-50.8945008,-25.3896288],[-50.8948199,-25.3893172],[-50.8956357,-25.3892487],[-50.8967517,-25.3899197],[-50.8973875,-25.3907529],[-50.8977309,-25.3909261],[-50.8980246,-25.3908692],[-50.8985196,-25.3902113],[-50.90058,-25.3903737],[-50.9013434,-25.3901427],[-50.9016097,-25.3903395],[-50.9023327,-25.3921539],[-50.9026767,-25.3921909],[-50.9029426,-25.3920179],[-50.9029818,-25.3917284],[-50.9034145,-25.3915201],[-50.9038338,-25.3918789],[-50.9044449,-25.3911855],[-50.9044324,-25.3907812],[-50.9041022,-25.3899716],[-50.9043328,-25.3893461],[-50.9051194,-25.389139],[-50.9062522,-25.3884927],[-50.9058612,-25.3883889],[-50.9058636,-25.3861911],[-50.9057289,-25.3859772],[-50.905125,-25.3857652],[-50.9050238,-25.3855223],[-50.905796,-25.3847891],[-50.9057972,-25.3843914],[-50.9056622,-25.3841495],[-50.9049422,-25.3840866],[-50.9048743,-25.3839048],[-50.905244,-25.383477],[-50.9050432,-25.3827756],[-50.9047744,-25.3825616],[-50.9030295,-25.3825006],[-50.9025271,-25.382013],[-50.9020901,-25.3819208],[-50.9017609,-25.3821267],[-50.9017881,-25.3827739],[-50.9015192,-25.3829874],[-50.9010343,-25.3828654],[-50.900431,-25.381462],[-50.9005994,-25.3810958],[-50.9012705,-25.3809746],[-50.9013718,-25.3808217],[-50.900969,-25.3803641],[-50.9005532,-25.3802218],[-50.8998947,-25.3802413],[-50.8985522,-25.3811249],[-50.8980324,-25.3812772],[-50.8966216,-25.381215],[-50.8958527,-25.3804223],[-50.8946106,-25.3807568],[-50.8943096,-25.3806341],[-50.8938726,-25.379963],[-50.8935791,-25.3799369],[-50.8932689,-25.3800549],[-50.8928807,-25.3812434],[-50.8924132,-25.3812164],[-50.8919438,-25.37987],[-50.8909038,-25.3791067],[-50.8902006,-25.3780394],[-50.8895442,-25.3778632],[-50.8894774,-25.3788006],[-50.8893101,-25.3790451],[-50.8881026,-25.3793506],[-50.8865921,-25.3808121],[-50.8867576,-25.3816038],[-50.8874294,-25.3818796],[-50.887581,-25.3822471],[-50.8874116,-25.3824582],[-50.8870087,-25.3821232],[-50.8864403,-25.3820012],[-50.8856559,-25.3823174],[-50.8849949,-25.3828229],[-50.8846261,-25.3832497],[-50.885028,-25.3841655],[-50.8841219,-25.3848056],[-50.8835007,-25.3858115],[-50.8827277,-25.386146],[-50.8823927,-25.3859928],[-50.8821916,-25.3850786],[-50.8823945,-25.384531],[-50.8820251,-25.3842859],[-50.8815228,-25.3843754],[-50.8811192,-25.3842226],[-50.8810524,-25.3837675],[-50.8817907,-25.3824232],[-50.8811042,-25.3820253],[-50.8805025,-25.379951],[-50.8801326,-25.3796473],[-50.8794512,-25.3797465],[-50.8786874,-25.3794165],[-50.8770471,-25.3791572],[-50.8763268,-25.3787595],[-50.8758909,-25.3782407],[-50.874584,-25.3778135],[-50.8735774,-25.3766829],[-50.8728545,-25.3765449],[-50.8726039,-25.3772024],[-50.8718487,-25.377658],[-50.8705735,-25.377658],[-50.8694998,-25.3779003],[-50.8691305,-25.3778077],[-50.8690026,-25.3776805],[-50.8687632,-25.3774419],[-50.8685619,-25.3766178],[-50.868631,-25.3764047],[-50.8691548,-25.3762111],[-50.868738,-25.375763],[-50.8687305,-25.37555],[-50.8695251,-25.375649],[-50.8696228,-25.3754851],[-50.8694918,-25.3752055],[-50.8685132,-25.3747274],[-50.8684132,-25.3744818],[-50.8686481,-25.3742397],[-50.8683812,-25.3738733],[-50.8679434,-25.3739334],[-50.8661296,-25.3749698],[-50.8653739,-25.375944],[-50.8650382,-25.3770109],[-50.8647359,-25.3772859],[-50.8639643,-25.3772235],[-50.8636298,-25.3770107],[-50.8632617,-25.3771021],[-50.8628886,-25.3777714],[-50.8622913,-25.377885],[-50.8607939,-25.3772524],[-50.860318,-25.3773983],[-50.8592181,-25.378191],[-50.8563307,-25.3780393],[-50.8559615,-25.3778258],[-50.8556275,-25.3773677],[-50.8554252,-25.3765445],[-50.8545385,-25.3756292],[-50.854103,-25.3755982],[-50.8539685,-25.3758425],[-50.8541343,-25.376269],[-50.8538326,-25.3766341],[-50.8532619,-25.3764514],[-50.8528611,-25.3759631],[-50.8522084,-25.3761421],[-50.8518243,-25.3760843],[-50.8507981,-25.3754131],[-50.8503947,-25.3758689],[-50.8500642,-25.3758898],[-50.8499943,-25.3756322],[-50.8505299,-25.3751377],[-50.8499266,-25.3748317],[-50.8498936,-25.3746479],[-50.8506644,-25.3744371],[-50.850665,-25.3742243],[-50.8497439,-25.3740225],[-50.8489785,-25.3747158],[-50.8475616,-25.3747378],[-50.8470915,-25.3750434],[-50.8470226,-25.3757445],[-50.8465864,-25.376352],[-50.8462172,-25.3764442],[-50.8457827,-25.3761066],[-50.8450428,-25.376199],[-50.8447413,-25.3756803],[-50.8445073,-25.3756203],[-50.8442807,-25.3756948],[-50.8439529,-25.3761062],[-50.8435848,-25.3761966],[-50.8430147,-25.3756487],[-50.842344,-25.3755243],[-50.8422971,-25.3752266],[-50.8425451,-25.3749767],[-50.8433245,-25.3751639],[-50.843366,-25.3750204],[-50.8430492,-25.3747016],[-50.8433175,-25.3743981],[-50.8432181,-25.3742453],[-50.8420353,-25.3740585],[-50.8418927,-25.373849],[-50.8419939,-25.3736636],[-50.8423974,-25.373665],[-50.8427309,-25.3739102],[-50.8428321,-25.3737257],[-50.8423635,-25.3732088],[-50.8424791,-25.3730851],[-50.8433354,-25.3730249],[-50.8435049,-25.3726597],[-50.8414977,-25.3723362],[-50.8411576,-25.3723822],[-50.8410552,-25.3726875],[-50.8414491,-25.3734021],[-50.8404323,-25.3745472],[-50.8409225,-25.3749627],[-50.8408968,-25.3751082],[-50.8397621,-25.3747899],[-50.8388889,-25.3751562],[-50.8385856,-25.3751236],[-50.8385873,-25.374789],[-50.8383336,-25.374761],[-50.8376976,-25.3752145],[-50.837566,-25.3745444],[-50.8362618,-25.3734459],[-50.8358891,-25.3720725],[-50.8354871,-25.3719791],[-50.8347653,-25.3724073],[-50.8341634,-25.3721626],[-50.8337925,-25.373198],[-50.8328835,-25.3747819],[-50.8325803,-25.3761173],[-50.8329167,-25.3770508],[-50.8327633,-25.3778627],[-50.8328949,-25.3788395],[-50.8326257,-25.379327],[-50.8313475,-25.3799353],[-50.8310467,-25.3806061],[-50.8298053,-25.3809086],[-50.8291157,-25.3817017],[-50.8274067,-25.3813349],[-50.8270536,-25.3815356],[-50.8269616,-25.3827718],[-50.8267627,-25.3831923],[-50.827233,-25.3841394],[-50.8269644,-25.3845656],[-50.8265709,-25.3845589],[-50.8261131,-25.3842379],[-50.8255716,-25.3849901],[-50.8243293,-25.3854783],[-50.8225234,-25.3872159],[-50.8200147,-25.388004],[-50.818581,-25.3887895],[-50.8185705,-25.3887953],[-50.8182356,-25.3887953],[-50.8176325,-25.3883674],[-50.8173281,-25.3883374],[-50.8168578,-25.3894022],[-50.8161024,-25.3900433],[-50.8156979,-25.3911402],[-50.8154291,-25.3912308],[-50.8148926,-25.3908026],[-50.8146584,-25.3908625],[-50.8144897,-25.3913819],[-50.8140878,-25.39132],[-50.813951,-25.391078],[-50.8129469,-25.3907407],[-50.8126799,-25.390008],[-50.8117587,-25.3898835],[-50.8113877,-25.3900062],[-50.8111541,-25.3903105],[-50.8107821,-25.3910726],[-50.8106799,-25.3923518],[-50.8103444,-25.3925971],[-50.8094375,-25.392535],[-50.8084647,-25.3916509],[-50.8078966,-25.3914041],[-50.8071422,-25.391404],[-50.8057306,-25.3918586],[-50.8052964,-25.3917364],[-50.8047586,-25.3912477],[-50.804121,-25.3916424],[-50.8038854,-25.3922839],[-50.8034143,-25.3927696],[-50.8023715,-25.3934098],[-50.8006463,-25.3938052],[-50.8000058,-25.3945353],[-50.7997347,-25.3960291],[-50.798993,-25.3979185],[-50.7989588,-25.3986491],[-50.799711,-25.4003915],[-50.7989675,-25.4034388],[-50.7984632,-25.404537],[-50.7974875,-25.4054185],[-50.7963623,-25.4060893],[-50.7914566,-25.4077608],[-50.7898637,-25.4085197],[-50.7894602,-25.4090375],[-50.7888735,-25.4093818],[-50.788216,-25.41018],[-50.7878464,-25.4115986],[-50.7869828,-25.4126709],[-50.7865813,-25.4148363],[-50.7863533,-25.4152994],[-50.7856388,-25.4160729],[-50.7690755,-25.4155136],[-50.7410175,-25.4145621],[-50.7277225,-25.4236491],[-50.6871539,-25.4513606],[-50.7086824,-25.4637336],[-50.7163812,-25.4681567],[-50.7183895,-25.4696561],[-50.72039,-25.4705322],[-50.7207805,-25.4709124],[-50.7208232,-25.4714274],[-50.719685,-25.4741135],[-50.7198719,-25.4754712],[-50.7189835,-25.4765371],[-50.7188087,-25.477223],[-50.7185023,-25.4775525],[-50.7184569,-25.4788573],[-50.7179317,-25.4795155],[-50.7179155,-25.4798172],[-50.7184085,-25.4801619],[-50.7188136,-25.4808482],[-50.7187418,-25.4812569],[-50.7179834,-25.4824429],[-50.7178772,-25.4841159],[-50.7160595,-25.4863928],[-50.7157814,-25.4876184],[-50.7150247,-25.4879333],[-50.7149231,-25.4881565],[-50.7153426,-25.4884607],[-50.7154149,-25.4887644],[-50.7152252,-25.4889351],[-50.7156295,-25.4897269],[-50.7157823,-25.4921921],[-50.7160583,-25.4926536],[-50.7170143,-25.4931304],[-50.7176797,-25.4943446],[-50.7178218,-25.4955588],[-50.7180684,-25.4959665],[-50.7184303,-25.4960855],[-50.7196209,-25.4956937],[-50.7202444,-25.4957067],[-50.7234913,-25.4971896],[-50.7246235,-25.4970083],[-50.7260915,-25.4962583],[-50.7257116,-25.4970227],[-50.7261464,-25.4974986],[-50.7258974,-25.4986446],[-50.7263569,-25.5004114],[-50.7268083,-25.5005306],[-50.7269654,-25.5007559],[-50.7277779,-25.5007308],[-50.7279673,-25.5009018],[-50.7279209,-25.501917],[-50.7281227,-25.5024716],[-50.728005,-25.5031814],[-50.7282951,-25.503526],[-50.7290635,-25.5037],[-50.7302245,-25.5035951],[-50.7303676,-25.5038589],[-50.7300049,-25.5045046],[-50.7302514,-25.5046237],[-50.7308032,-25.5044927],[-50.7310329,-25.5052318],[-50.731002,-25.5062591],[-50.7305335,-25.5077609],[-50.7307219,-25.5089608],[-50.7308825,-25.5090537]]]},"geometry_name":"geom","properties":{"cd_recorte":"6301411070610","quadro":630,"cd_dist":"411070610","nm_dist":"Gonçalves Júnior","cd_uf":"41","nm_uf":"Paraná","sigla_uf":"PR","cd_mun":"4110706","nm_mun":"Irati"},"bbox":[-50.9239784,-25.5717125,-50.6871539,-25.3719791]}],"totalFeatures":4,"numberMatched":4,"numberReturned":4,"timeStamp":"2025-09-25T19:19:58.347Z","crs":{"type":"name","properties":{"name":"urn:ogc:def:crs:EPSG::4674"}},"bbox":[-51.1463637,-25.6215378,-50.5796843,-25.3548642]}